loc_code	area_code	area_name	x	y	loc_validitycode	loc_validity	loc_typecode	loc_typename	groupnr	rasterid	filterdepth	soilsurf_ost	typegroup_name	firstyear	lastyear	nryears	cat	obswell_statecode	obswell_state	measuringref_ost	tubelength	filterlength
ALMP001	ALM	Aalmoezenijbos / Aelmoeseneiebos / Gontrodebos	109770	185010	2	1	1	2	4	601	1.44	13.9	14	2004	2006	3	3	4	2	14.68	2.37	0.3
ALMP002	ALM	Aalmoezenijbos / Aelmoeseneiebos / Gontrodebos	109744	185010	2	1	1	2	4	601	1.05	13.42	14	2004	2008	5	3	4	2	13.8	1.58	0.3
ALMP003	ALM	Aalmoezenijbos / Aelmoeseneiebos / Gontrodebos	110287	185136	2	1	1	2	4	601	0.7	17.63	14	2004	2008	5	3	4	2	18.33	1.55	0.3
ASBP003	ASB	Asbeek	238036	179497	2	1	1	2	3	1010	0.95	75.391	13	2008	2016	9	3	3	1	75.931	1.64	0.3
BEBP012	BEB	Bellebeek	133244	174908	2	1	1	2	3	505	1.7	13.91	13	NA	NA	0	3	7	7	13.91	2.2	1
BEBP013	BEB	Bellebeek	133268	174873	2	1	1	2	3	505	0.94	13.21	13	NA	NA	0	3	4	2	13.9	1.78	0.3
BRAP002	BRA	Bos van Ranst	163992	210550	2	1	1	2	4	918	0.24	9.19	14	NA	NA	0	3	4	2	9.56	1.22	1.22
BRAP003	BRA	Bos van Ranst	163755	210701	2	1	1	2	4	918	1.125	8.84	14	NA	NA	0	3	4	2	9.4	2.17	0.97
BRAP009	BRA	Bos van Ranst	165408	210432	2	1	1	2	4	918	0.61	9.24	14	NA	NA	0	3	5	4	9.93	1.9	1.2
BRAP102	BRA	Bos van Ranst	163992	210550	2	1	1	2	4	918	1.525	9.17	14	NA	NA	0	3	4	2	9.62	2.25	0.55
BTRP001	BTR	Bos ter Rijst	101924	164018	2	1	1	2	4	25	2.02	68.02	14	2003	2003	1	2	4	2	68.17	2.32	0.3
BUCP010	BUC	Buckenslinde	229690	170679	2	1	1	2	3	818	1.33	0	13	2003	2003	1	2	4	2	0.57	3.8	3.8
COOP001	COO	Coolhembos	146113	196127	2	1	1	2	1	233	1.25	1.96	11	2006	2015	8	2	3	1	2.56	2	0.3
DORP024	DOR	Dorent	154823	182431	2	1	1	2	4	710	2.56	9.8	14	2005	2014	3	3	1	6	10.17	3.08	0.3
DPBP007	DPB	Diepenbeek	221649	179772	2	1	1	2	2	306	2.01	-0.55	12	NA	NA	0	2	3	1	0	2.76	0.4
DUNP010	DUN	Dunbergbroek	178354	180655	2	1	1	2	4	134	1.81	15.714	14	2004	2013	6	3	3	1	16.054	2.4	0.5
DUNP011	DUN	Dunbergbroek	178562	180199	2	1	1	2	4	134	1.82	16.05	14	2007	2016	4	3	3	1	16.54	2.31	0
DUNP012	DUN	Dunbergbroek	178707	179625	2	1	1	2	4	134	1.53	18.29	14	2004	2013	6	3	3	1	19.08	2.32	0
DURP015	DUR	Durmemeersen	128773	199480	2	1	1	2	3	425	2	3.85	13	2010	2010	1	3	3	1	4.15	2.45	0.3
DYLP029	DYL	Dijlevallei	169238	167404	2	1	1	2	2	262	1.29	27	12	2004	2016	5	3	3	1	27.42	1.86	0.3
DYLP037	DYL	Dijlevallei	169802	167510	2	1	1	2	4	582	0.97	27.99	14	2004	2016	10	3	3	1	28.42	1.55	0.3
DYLP109	DYL	Dijlevallei	169049	168137	2	1	1	2	4	262	2.82	27.66	14	2004	2016	10	3	3	1	28.13	3.44	0.3
DYLP156	DYL	Dijlevallei	169478	166091	2	1	1	2	3	262	1.84	28.092	13	2016	2016	1	3	3	1	28.432	2.33	0.3
GOBP004	GOB	Gorenbroek	201885	184397	2	1	1	2	2	166	2.11	20.0131	12	2014	2016	3	3	3	1	20.4131	2.66	0.3
GSCP021	GSC	Groot Schietveld	167691	229182	2	1	1	2	3	478	1.67	18.31	13	2009	2010	2	3	3	1	18.89	2.5	0.5
GSCP039	GSC	Groot Schietveld	165195	226726	2	1	1	2	3	222	1.14	22.16	13	NA	NA	0	2	4	2	22.95	2.08	0.3
HAGP019	HAG	Hageven	224064	217725	2	1	1	2	2	274	1.811	34.401	12	2002	2015	14	3	4	2	34.611	2.271	0.5
HALP002	HAL	Hallerbos	143429	155341	2	1	1	2	4	185	1.62	74.36	14	2008	2015	8	3	3	1	74.74	2.15	0.3
HALP005	HAL	Hallerbos	144281	156162	2	1	1	2	4	185	1.81	68.573	14	2008	2012	5	3	3	1	68.673	2.06	0.3
HBTP007	HBT	Helderbeekvallei Terril	212986	193133	2	1	1	2	3	694	1.75	33.026	13	2011	2014	2	3	3	1	33.586	2.46	0.3
HBTP008	HBT	Helderbeekvallei Terril	212972	193185	2	1	1	2	3	694	1.91	32.878	13	2011	2014	2	3	3	1	33.378	2.56	0.3
ITTP212	ITT	Itterbeekvallei	242307	202672	2	1	1	2	1	146	1.99	34.995	11	2012	2016	5	3	3	1	35.225	2.37	0.3
KALP022	KAL	Kalmthoutse heide	155356	230811	2	1	1	2	3	734	0.82	23.47	13	2014	2016	3	3	3	1	23.29	1.14	1
KALP136	KAL	Kalmthoutse heide	154423	234049	2	1	1	2	3	734	1.01	17.174	13	2011	2015	5	3	3	1	18.514	2.53	0.36
KALP137	KAL	Kalmthoutse heide	154350	234337	2	1	1	2	3	734	1.42	17.08	13	2011	2015	5	3	3	1	17.91	2.43	0.36
KALP252	KAL	Kalmthoutse heide	153253	233640	2	1	1	2	3	734	1.28	21.503	13	2014	2016	3	3	3	1	21.383	1.66	1
KASP003	KAS	Kastanjebos	168266	178321	2	1	1	2	4	198	2.04	21.99	14	2012	2015	4	3	1	6	22.35	2.55	0.3
KBRP060	KBR	Polders van Kruibeke	145448	202168	2	1	1	2	2	233	1.89	1.693	12	2003	2012	10	2	3	1	2.233	2.68	0.5
LDOP019	LDO	Langdonken	184754	191421	2	1	1	2	1	342	1.5	14.16	11	2004	2012	8	3	3	1	14.49	1.98	0.3
LDOP035	LDO	Langdonken	185221	191291	2	1	1	2	1	342	1.77	14.02	11	2005	2016	9	3	3	1	14.57	2.47	0.3
LDOP036	LDO	Langdonken	185321	190835	2	1	1	2	1	342	1.85	14.54	11	2005	2012	6	3	3	1	15.3	2.76	0.3
LDOP041	LDO	Langdonken	186424	191178	2	1	1	2	3	310	2.47	14.544	13	2005	2016	10	3	2	5	14.604	2.68	0.3
LDOP042	LDO	Langdonken	184750	191415	2	1	1	2	1	342	2.51	14.16	11	2007	2016	6	3	3	1	14.16	2.66	0.3
LEPP009	LEP	Lenspolder	34664	204521	2	1	1	2	4	817	2.16	4.91	14	2004	2013	6	3	4	2	5.19	2.44	0
LEPP011	LEP	Lenspolder	34654	204481	2	1	1	2	4	817	1.22	4.66	14	2004	2013	6	3	4	2	5.56	2.12	0
LEUP005	LEU	De Leunen	201075	186470	2	1	1	2	2	54	1.18	-0.74	12	NA	NA	0	3	3	1	0	2.07	0.3
LEUP006	LEU	De Leunen	201075	186405	2	1	1	2	2	54	0.43	-0.9	12	NA	NA	0	3	3	1	0	1.51	0.36
LEUP008	LEU	De Leunen	201300	186315	2	1	1	2	2	54	0.63	-0.79	12	NA	NA	0	3	3	1	0	1.57	0.3
LEUP009	LEU	De Leunen	201320	186255	2	1	1	2	2	54	0.575	-0.8	12	NA	NA	0	3	3	1	0	1.52	0.29
LOHP009	LOH	Lovenhoek	175532	213189	2	1	1	2	4	214	0.6	10.746	14	2013	2015	3	3	3	1	11.646	2.5	2
LOHP012	LOH	Lovenhoek	175820	212049	2	1	1	2	4	214	0.77	11.203	14	2013	2015	3	3	3	1	11.923	2.49	2
LOHP015	LOH	Lovenhoek	175526	211989	2	1	1	2	4	214	0.69	10.712	14	2013	2015	3	3	3	1	11.572	2.55	2
LOHP017	LOH	Lovenhoek	175233	213318	2	1	1	2	4	214	0.91	10.265	14	2014	2015	2	3	3	1	10.905	2.55	2
MANP029	MAN	Mangelbeekvallei	220497	193374	2	1	1	2	1	722	1.06	55.418	11	2008	2016	6	3	3	1	55.868	1.76	0.5
MATP003	MAT	De Maten	224779	181757	2	1	1	2	1	306	0.88	41.97	11	2011	2016	5	3	3	1	42.28	1.44	0.5
MATP004	MAT	De Maten	225098	182066	2	1	1	2	3	306	1.77	44.05	13	2011	2015	5	3	3	1	44.41	2.38	0.5
MATP005	MAT	De Maten	226220	183183	2	1	1	2	3	306	1.9	49.4	13	2011	2016	3	3	3	1	49.74	2.49	0.5
MATP006	MAT	De Maten	226190	183227	2	1	1	2	3	306	1.64	49.23	13	2011	2016	6	3	3	1	49.65	2.31	0.5
MATP010	MAT	De Maten	225128	182769	2	1	1	2	1	306	1.97	46.29	11	2012	2016	5	3	3	1	46.64	2.57	0.5
MATP011	MAT	De Maten	225382	182289	2	1	1	2	3	306	1.04	44.92	13	2012	2016	5	3	3	1	45.34	1.71	0.5
MATP013	MAT	De Maten	226425	182603	2	1	1	2	1	306	0.83	47.59	11	2012	2016	5	3	3	1	48.02	1.51	0.5
MATP014	MAT	De Maten	226291	182944	2	1	1	2	3	306	1.23	48.72	13	2012	2016	5	3	3	1	49.05	1.81	0.5
MATP015	MAT	De Maten	226040	183424	2	1	1	2	1	306	0.63	49.24	11	2012	2016	5	3	3	1	49.66	1.3	0.5
MATP017	MAT	De Maten	226823	183586	2	1	1	2	3	306	0.85	50.921	13	2012	2016	5	3	3	1	51.431	1.61	0.5
MOLP018	MOL	Molenbeekvallei	167135	177145	2	1	1	2	4	454	1.34	25.3	14	2002	2013	8	3	3	1	25.82	2.01	0.3
MOLP022	MOL	Molenbeekvallei	166595	176767	2	1	1	2	4	454	1.34	27.476	14	2002	2013	8	3	3	1	27.886	1.9	0.3
MOLP023	MOL	Molenbeekvallei	166621	176753	2	1	1	2	4	454	1.51	26.979	14	2002	2013	8	3	3	1	27.339	2.02	0.3
MOLP024	MOL	Molenbeekvallei	166641	176739	2	1	1	2	4	454	1.43	26.794	14	2002	2013	8	3	3	1	27.234	2.02	0.3
MOLP025	MOL	Molenbeekvallei	166664	176724	2	1	1	2	4	454	1.47	26.695	14	2002	2013	8	3	3	1	27.095	2.02	0.3
MOMP028	MOM	Mombeekvallei	222496	174765	2	1	1	2	3	50	2.94	39.194	13	NA	NA	0	2	3	1	39.584	3.53	0.4
MOSP001	MOS	De Most	210617	207077	2	1	1	2	1	630	1.03	35.85	11	2006	2014	9	3	3	1	35.95	1.28	0.3
MOSP003	MOS	De Most	210894	207017	2	1	1	2	1	630	0.935	36.529	11	2006	2014	9	3	3	1	37.179	1.735	0.3
MOSP004	MOS	De Most	210870	207068	2	1	1	2	1	630	1.27	36.015	11	2006	2014	9	3	3	1	37.265	2.67	0.3
MSBP001	MSB	Molenstedebroek	194922	187284	1	2	1	2	2	54	2.58	18.619	12	NA	NA	0	3	4	2	19.019	3.18	0.4
MSBP002	MSB	Molenstedebroek	194917	187270	2	1	1	2	2	54	1.8420000000001	18.599	12	NA	NA	0	3	3	1	19.1069999999999	2.6	0.5
MSBP003	MSB	Molenstedebroek	194861	187151	1	2	1	2	2	54	1.77	18.684	12	NA	NA	0	3	4	2	19.154	2.44	0.4
MSBP006	MSB	Molenstedebroek	194955	187335	2	1	1	2	2	54	1.886	18.446	12	NA	NA	0	3	3	1	18.91	2.6	0.5
MSBP007	MSB	Molenstedebroek	194938	187299	2	1	1	2	2	54	1.664	18.587	12	NA	NA	0	3	3	1	19.073	2.4	0.5
MSBP008	MSB	Molenstedebroek	194883	187199	2	1	1	2	2	54	1.3770000000001	18.513	12	NA	NA	0	3	3	1	19.3859999999999	2.5	0.5
MSBP009	MSB	Molenstedebroek	194851	187121	2	1	1	2	2	54	2.516	19.018	12	NA	NA	0	3	3	1	19.452	3.2	0.5
MSBP011	MSB	Molenstedebroek	195263	186767	2	1	1	2	3	54	2.831	18.721	13	2016	2016	1	3	3	1	19.44	3.8	0.5
MSBP013	MSB	Molenstedebroek	195275	186651	2	1	1	2	2	54	1.965	18.5859999999999	12	NA	NA	0	3	3	1	19.3709999999999	3	0.5
MSBP014	MSB	Molenstedebroek	195268	186601	2	1	1	2	2	54	2.0159999999999	18.6419999999999	12	NA	NA	0	3	3	1	19.376	3	0.5
NEIP001	NEI	Neigembos	128122	167393	2	1	1	2	4	57	1.23	0	14	2007	2010	4	3	3	1	0.31	1.79	0.5
NEIP002	NEI	Neigembos	128078	167410	2	1	1	2	4	57	0.85	0	14	2007	2010	4	3	3	1	0.45	1.55	0.5
NUCP004	NUC	De Nuchten	119819	165933	2	1	1	2	3	217	1.7	12.9034	13	2008	2008	1	3	4	2	13.3734	2.32	0.3
NUCP005	NUC	De Nuchten	120097	165667	2	1	1	2	3	217	1.8	12.7946	13	2008	2008	1	3	5	4	13.2946	2.45	0.3
ORCP002	ORC	De Orchis	139863	196974	2	1	1	2	3	745	0.69	4.82	13	2002	2002	1	3	4	2	4.92	0.94	0.3
ORCP003	ORC	De Orchis	139866	197010	2	1	1	2	3	745	0.65	4.81	13	2002	2002	1	3	4	2	4.87	0.86	0.3
PARP003	PAR	Parike-bos	109730	163542	2	1	1	2	4	985	1.98	54.05	14	2009	2016	5	3	3	1	54.27	2.45	0.5
POMP004	POM	De Pomperik	225109	178542	2	1	1	2	3	306	1.47	34.778	13	2009	2016	6	3	3	1	35.078	2.02	0.5
POMP005	POM	De Pomperik	225048	178511	2	1	1	2	3	306	1.581	34.981	13	2009	2016	7	3	3	1	35.181	2.031	0.5
RASP001	RAS	Raspaillebos	120085	162768	2	1	1	2	4	217	2.32	68.994	14	2003	2016	3	3	3	1	69.404	2.98	0.5
RASP002	RAS	Raspaillebos	120111	162861	2	1	1	2	4	217	0.81	56.155	14	2003	2016	4	3	3	1	56.755	1.66	0.5
RASP003	RAS	Raspaillebos	120002	163028	2	1	1	2	4	217	1.07	40.612	14	2003	2016	7	3	3	1	40.862	1.57	0.5
ROTP003	ROT	Rotbroek	200403	185618	2	1	1	2	2	166	1.29	19.306	12	2014	2016	3	3	3	1	19.546	1.68	0.3
SANP006	SAN	Schansbeemden	216032	191815	2	1	1	2	1	694	1.99	36.53	11	NA	NA	0	3	4	2	36.79	2.4	0.3
SBBP002	SBB	Steenbergse bossen	109983	170962	2	1	1	2	4	89	1.19	51.227	14	2003	2003	1	3	4	2	52.147	2.26	0.3
SCPP021	SCP	Scheps	204705	204248	2	1	1	2	3	886	1.58	28.057	13	2008	2014	7	3	4	2	28.487	2.01	0
SCPP024	SCP	Scheps	206720	204096	2	1	1	2	3	886	1.27	30.309	13	2006	2012	7	3	3	1	30.899	1.86	0
SCPP025	SCP	Scheps	206960	204244	2	1	1	2	2	886	1.53	30.348	12	2006	2011	6	3	1	6	31.348	2.53	0
SCPP033	SCP	Scheps	205281	204334	2	1	1	2	3	886	1.52	28.721	13	2008	2014	7	3	3	1	29.231	2.03	0
SCPP034	SCP	Scheps	205513	204333	2	1	1	2	2	886	1.13	28.688	12	2008	2014	7	3	3	1	29.538	1.98	0
SCPP035	SCP	Scheps	205616	204216	2	1	1	2	3	886	1.44	28.956	13	2008	2014	7	3	3	1	29.336	1.82	0
SCPP036	SCP	Scheps	205976	204000	2	1	1	2	3	886	1.78	29.74	13	2008	2014	7	3	3	1	29.94	1.98	0
SCPP039	SCP	Scheps	206669	204706	2	1	1	2	3	886	1.7	30.22	13	2008	2014	7	3	3	1	30.8	2.28	0
SCPP040	SCP	Scheps	206707	204679	2	1	1	2	3	886	1.35	30.811	13	2008	2014	7	3	3	1	31.331	1.87	0
SCPP042	SCP	Scheps	205315	204593	2	1	1	2	3	886	1.41	29.23	13	2008	2014	7	3	3	1	29.69	1.87	0
SCPP043	SCP	Scheps	207040	205023	2	1	1	2	2	886	0.87	30.58	12	2008	2014	7	3	3	1	30.89	1.18	0
SCPP047	SCP	Scheps	206640	204635	2	1	1	2	3	886	1.4	30.541	13	2008	2014	6	3	3	1	31.651	2.51	0
SCPP050	SCP	Scheps	207566	205767	2	1	1	2	3	886	1.52	31.687	13	2008	2014	7	3	3	1	31.827	1.66	0
SCPP051	SCP	Scheps	206919	205056	2	1	1	2	2	886	1.99	30.547	12	2011	2014	4	3	3	1	31.147	2.59	0
SHHP003	SHH	Schietveld Houthalen Hechteren	230080	194279	2	1	1	2	3	978	1.75	77.63	13	NA	NA	0	3	3	1	78.03	2.3	0.3
SHHP005	SHH	Schietveld Houthalen Hechteren	230159	194154	2	1	1	2	3	978	1.58	77.48	13	NA	NA	0	3	4	2	77.92	2.17	0.3
SHHP031	SHH	Schietveld Houthalen Hechteren	226046	192220	2	1	1	2	3	722	0.89	76.01	13	2009	2016	5	3	3	1	76.69	1.72	0.3
SHHP032	SHH	Schietveld Houthalen Hechteren	226069	192196	2	1	1	2	3	722	1.26	76.15	13	2008	2016	7	3	3	1	76.75	2.11	0.5
SILP004	SIL	Silsombos	164843	178240	2	1	1	2	4	198	1.36	20.684	14	2002	2014	6	3	3	1	21.084	1.91	0.3
SNOP022	SNO	Snoekengracht	183102	169452	2	1	1	2	4	390	1.41	57.25	14	NA	NA	0	3	3	1	57.54	1.85	0.3
SNOP025	SNO	Snoekengracht	183238	169448	2	1	1	2	4	390	0.87	56.26	14	NA	NA	0	3	3	1	56.63	1.39	0.3
SNOP028	SNO	Snoekengracht	183331	169488	2	1	1	2	4	390	1.09	56.36	14	NA	NA	0	3	3	1	56.62	1.5	0.3
SNOP029	SNO	Snoekengracht	183348	169465	2	1	1	2	4	390	1.02	56.19	14	NA	NA	0	3	3	1	56.49	1.47	0.3
SNOP031	SNO	Snoekengracht	183313	169446	2	1	1	2	4	390	0.76	56.32	14	NA	NA	0	3	3	1	56.65	1.24	0.3
SNOP032	SNO	Snoekengracht	183056	169524	2	1	1	2	4	390	1.9	57.89	14	NA	NA	0	3	3	1	58.18	2.34	0.3
SNOP033	SNO	Snoekengracht	183103	169551	2	1	1	2	4	390	1.62	57.62	14	NA	NA	0	3	3	1	58.25	2.4	0.3
SNOP126	SNO	Snoekengracht	183237	169449	2	1	1	2	4	390	2.93	56.28	14	NA	NA	0	3	3	1	56.51	3.31	0.3
SNOP129	SNO	Snoekengracht	183331	169489	2	1	1	2	4	390	2.85	56.33	14	NA	NA	0	3	3	1	56.61	3.28	0.3
STAP050	STA	Stamprooierbroek incl de Zig &	242727	208039	2	1	1	2	1	146	1.98	32.213	11	2009	2016	8	3	3	1	33.223	2.99	0
SWPP032	SWP	Scheldemeersen Wortegem-Petege	94675	169402	2	1	1	2	4	537	1.53	10.09	14	2010	2010	1	2	3	1	10.47	2.06	0.3
TEUP019	TEU	De Teut	222593	189365	2	1	1	2	3	722	1.58	59.21	13	2010	2014	5	3	3	1	59.65	2.17	0.3
TEUP026	TEU	De Teut	224931	188926	2	1	1	2	3	722	1.25	63.471	13	2008	2016	9	3	3	1	63.551	1.48	0.3
TEUP028	TEU	De Teut	224721	188606	2	1	1	2	1	722	0.95	60.236	11	2008	2016	6	3	3	1	60.716	1.58	0.3
TEUP043	TEU	De Teut	223696	188700	2	1	1	2	1	722	1.41	59.753	11	2007	2016	10	3	3	1	60.053	1.86	0.3
TEUP044	TEU	De Teut	223773	188744	2	1	1	2	1	722	0.81	60.049	11	2008	2016	9	3	3	1	60.329	1.24	0.3
TEUP045	TEU	De Teut	225036	188792	2	1	1	2	3	722	0.89	62.007	13	2008	2014	7	3	3	1	62.697	1.73	0.3
TEUP046	TEU	De Teut	225067	188690	2	1	1	2	1	722	1.04	60.338	11	2008	2016	7	3	3	1	60.838	1.69	0.3
TEUP047	TEU	De Teut	225211	188652	2	1	1	2	1	722	1.02	60.874	11	2008	2016	9	3	3	1	61.304	1.6	0.3
TIEP013	TIE	Militair domein Tielen	188220	218314	2	1	1	2	1	1014	2.01	17.935	11	2006	2006	1	3	3	1	18.685	2.91	0.3
TLAP001	TLA	Terlaemen & Weijerman	213998	188072	2	1	1	2	1	694	2.12	32.213	11	NA	NA	0	3	4	2	32.923	2.98	0.3
TLAP002	TLA	Terlaemen & Weijerman	214024	187912	2	1	1	2	1	694	0.63	32.576	11	NA	NA	0	3	4	2	33.076	1.28	0.3
TLAP003	TLA	Terlaemen & Weijerman	214025	187912	2	1	1	2	1	694	1.31	32.583	11	NA	NA	0	3	4	2	33.033	1.91	0.3
TORP018	TOR	Torfbroek	162023	179712	2	1	1	2	4	198	0.27	16.313	14	2005	2016	12	3	3	1	16.963	1.07	0.3
TYDP004	TYD	Ter Yde	33126	203530	2	1	1	2	4	817	1.781	5.911	14	2004	2012	7	3	1	6	6.531	2.901	1
TYDP012	TYD	Ter Yde	33155	203402	2	1	1	2	4	817	2.5	5.94	14	2004	2012	8	3	3	1	6.23	2.94	0.3
TYDP054	TYD	Ter Yde	32617	203691	2	1	1	2	4	817	2.82	7.14	14	2003	2016	10	3	3	1	7.16	3.09	0.5
TYDP055	TYD	Ter Yde	32743	203672	2	1	1	2	4	817	1.36	6.862	14	2003	2012	9	3	4	2	6.762	1.46	0.4
TYDP057	TYD	Ter Yde	32283	204089	2	1	1	2	4	817	1.795	6.049	14	2003	2012	7	3	3	1	6.139	2.135	0.5
TYDP058	TYD	Ter Yde	32486	203672	2	1	1	2	4	817	1.71	6.706	14	2003	2012	9	3	4	2	6.726	1.98	0.5
TYDP059	TYD	Ter Yde	32669	203788	2	1	1	2	4	817	1.69	6.54	14	2003	2016	9	3	3	1	6.44	1.84	0.5
TYDP072	TYD	Ter Yde	33571	203880	2	1	1	2	4	817	1.525	5.61	14	2003	2016	9	3	3	1	5.51	1.575	0.3
TYDP203	TYD	Ter Yde	33046	203477	2	1	1	2	4	817	1.185	5.788	14	2005	2016	7	3	4	2	5.858	1.47	0.43
TYDP204	TYD	Ter Yde	33222	203448	2	1	1	2	4	817	1.79	5.51	14	2005	2016	8	3	3	1	5.6	2.13	0.5
TYDP206	TYD	Ter Yde	33673	203910	2	1	1	2	4	817	1.465	5.25	14	2005	2012	7	3	4	2	5.39	1.83	0.45
TYDP207	TYD	Ter Yde	33614	203986	2	1	1	2	4	817	1.08	5.524	14	2005	2012	7	3	3	1	5.524	1.32	0.48
TYDP211	TYD	Ter Yde	32561	203740	2	1	1	2	4	817	1.725	6.716	14	2006	2012	6	3	4	2	6.816	2.03	0.41
VDBP018	VDB	Vallei van de Drie Beken	202838	192210	2	1	1	2	3	438	1.86	22.057	13	2006	2015	3	3	3	1	22.487	2.49	0.4
VDBP024	VDB	Vallei van de Drie Beken	202735	192560	2	1	1	2	2	438	1.36	21.605	12	2006	2016	4	3	3	1	22.245	2.23	0.46
VDBP025	VDB	Vallei van de Drie Beken	202703	192573	2	1	1	2	2	438	1.76	21.835	12	2006	2016	4	3	4	2	22.405	2.56	0.46
VDBP034	VDB	Vallei van de Drie Beken	202187	191485	2	1	1	2	3	54	0.88	21.44	13	2006	2016	4	3	3	1	21.81	1.45	0.4
VDBP062	VDB	Vallei van de Drie Beken	197720	189487	2	1	1	2	3	54	2.02	19.62	13	2006	2016	4	3	3	1	19.89	2.49	0.4
VDBP503	VDB	Vallei van de Drie Beken	202669	192582	2	1	1	2	2	438	1.13	21.665	12	2006	2014	2	3	4	2	22.015	1.63	0.3
VDBP514	VDB	Vallei van de Drie Beken	202304	191370	2	1	1	2	2	438	1.62	21.53	12	2006	2016	5	3	3	1	21.76	2	0.3
VDBP531	VDB	Vallei van de Drie Beken	197880	189431	2	1	1	2	3	54	0.57	19.47	13	2006	2016	4	3	3	1	19.78	1.03	0.3
VENP006	VEN	De Vennen	208317	206290	2	1	1	2	3	886	1.09	33.318	13	2012	2016	5	3	3	1	33.658	1.58	0.3
VENP009	VEN	De Vennen	208455	206286	2	1	1	2	3	886	1.31	32.53	13	2012	2016	5	3	4	2	32.89	1.67	0
VENP010	VEN	De Vennen	208440	206098	2	1	1	2	3	886	1.15	32.59	13	2012	2016	5	3	3	1	33.44	2	0
VIEP104	VIE	Vierkensbroek-Demervallei	192297	188970	2	1	1	2	2	310	1.49	16.78	12	2003	2003	1	3	4	2	17.38	2.24	0.3
VIEP105	VIE	Vierkensbroek-Demervallei	192266	188817	2	1	1	2	2	310	2.01	16.77	12	2002	2003	2	3	4	2	17.12	2.51	0.3
VIEP107	VIE	Vierkensbroek-Demervallei	192278	188526	2	1	1	2	2	310	1.89	16.897	12	2002	2002	1	3	4	2	17.387	2.53	0.3
VIEP173	VIE	Vierkensbroek-Demervallei	192713	188703	2	1	1	2	2	310	1.89	16.89	12	2002	2002	1	3	4	2	16.98	2.13	0.3
VIEP174	VIE	Vierkensbroek-Demervallei	192711	188697	2	1	1	2	2	310	1.92	16.79	12	2002	2003	2	3	4	2	16.92	2.2	0.3
VINP084	VIN	Het Vinne	203095	170251	2	1	1	2	2	486	1.88	26.27	12	2005	2005	1	3	7	7	26.64	2.5	0.5
VLBP001	VLB	Vlassenbroekse polder	134476	192715	2	1	1	2	3	169	1.35	1.66	13	2007	2010	3	3	3	1	2.69	2.68	0.6
VLBP008	VLB	Vlassenbroekse polder	134033	193680	2	1	1	2	3	169	1.15	2.3	13	2007	2007	1	3	4	2	3.44	2.44	0.3
VLBP011	VLB	Vlassenbroekse polder	134207	193027	2	1	1	2	3	169	1.89	2.13	13	2007	2009	2	3	4	2	2.5	2.41	0.3
VLBP012	VLB	Vlassenbroekse polder	134945	193069	2	1	1	2	3	169	2.22	1.91	13	2007	2011	2	3	4	2	2.46	3.02	0.5
VLBP025	VLB	Vlassenbroekse polder	135142	193040	2	1	1	2	3	169	1.305	1.77	13	2009	2011	3	3	4	2	2.02	1.73	0.35
VLBP026	VLB	Vlassenbroekse polder	135161	193053	2	1	1	2	3	169	1.175	1.75	13	2009	2011	3	3	3	1	2.08	1.68	0.35
VLBP125	VLB	Vlassenbroekse polder	135141	193047	2	1	1	2	3	169	2.705	1.65	13	2009	2011	3	3	3	1	2.05	3.28	0.35
VLBP126	VLB	Vlassenbroekse polder	135161	193053	2	1	1	2	3	169	2.595	1.81	13	2010	2011	2	3	3	1	2.14	3.1	0.35
VRIP039	VRI	Vrieselhof	166653	213046	1	2	1	2	1	918	1.71	8.247	11	2009	2009	1	3	3	1	8.417	2.03	0.3
VRLP010	VRL	Viersel	169399	208250	2	1	1	2	3	150	1.39	5.7	13	2009	2015	5	3	3	1	6.77	2.46	0
WAHP711	WAH	Waaslandhaven	144524	214863	2	1	1	2	2	41	2.06	2.205	12	2003	2016	10	3	3	1	2.485	2.59	0.5
WALP118	WAL	Walenbos	186105	180248	2	1	1	2	4	934	1.61	25.422	14	2007	2012	6	3	4	2	25.702	2.04	0.3
WALP161	WAL	Walenbos	186415	180016	2	1	1	2	4	934	0.87	30.11	14	2006	2015	10	3	3	1	30.21	1.12	0.3
WEBP036	WEB	Webbekomsbroek	200108	184654	2	1	1	2	2	166	2.05	20.382	12	2012	2013	2	3	3	1	20.802	2.67	0.4
WELP018	WEL	Wellemeersen	128284	176954	2	1	1	2	3	1017	2.48	8.86	13	NA	NA	0	3	4	2	9.24	3.01	0.3
WELP020	WEL	Wellemeersen	128401	177063	2	1	1	2	3	1017	2.29	8.69	13	NA	NA	0	3	4	2	9.26	3.01	0.3
WELP022	WEL	Wellemeersen	128519	176887	2	1	1	2	3	1017	1.02	8.2	13	NA	NA	0	3	4	2	8.67	1.64	0.3
WELP034	WEL	Wellemeersen	129060	176759	2	1	1	2	3	505	1.4	8.89	13	NA	NA	0	3	4	2	9.39	2.05	0.3
WELP035	WEL	Wellemeersen	129144	176660	2	1	1	2	3	505	1.51	9.06	13	NA	NA	0	3	7	7	9.36	1.96	0.3
WERP001	WER	De Werft	193281	194778	2	1	1	2	1	822	1.89	0	11	2008	2011	3	3	3	1	0.45	2.34	0
WERP002	WER	De Werft	193300	194752	2	1	1	2	1	822	1.77	0	11	2008	2011	3	3	3	1	0.55	2.32	0
WERP003	WER	De Werft	193271	194588	2	1	1	2	1	822	1.7	0	11	2008	2011	3	3	3	1	0.65	2.35	0
WERP004	WER	De Werft	193302	194696	2	1	1	2	1	822	1.62	0	11	2008	2011	3	3	3	1	0.72	2.34	0
WERP005	WER	De Werft	193360	194613	2	1	1	2	3	822	1.65	0	13	2008	2011	3	3	3	1	0.65	2.3	0
WERP007	WER	De Werft	193544	194610	2	1	1	2	3	822	1.78	0	13	2008	2011	3	3	3	1	0.9	2.68	0
WERP009	WER	De Werft	193488	194562	2	1	1	2	1	822	1.73	0	11	2008	2011	3	3	3	1	0.54	2.27	0
WERP011	WER	De Werft	193419	194740	2	1	1	2	1	822	1.48	0	11	2008	2011	3	3	3	1	0.42	1.9	0
WERP012	WER	De Werft	192332	194448	2	1	1	2	1	822	2.21	0	11	2008	2009	2	3	3	1	0.11	2.32	0
WESP001	WES	Westhoek	23482	199360	2	1	1	2	4	177	1.02	5.35	14	2008	2015	7	3	3	1	5.45	1.37	0.5
WESP003	WES	Westhoek	23288	198961	2	1	1	2	4	177	1.66	5.98	14	2002	2012	11	3	3	1	5.99	1.92	0.5
WESP005	WES	Westhoek	23086	198942	2	1	1	2	4	177	1.72	5.49	14	2002	2012	11	3	3	1	5.57	2.05	0.5
WESP007	WES	Westhoek	23034	198650	2	1	1	2	4	177	1.82	5.95	14	2003	2012	10	3	3	1	5.98	2.1	0.5
WESP008	WES	Westhoek	22617	198715	2	1	1	2	4	177	1.2	5.85	14	2002	2012	11	3	3	1	6.25	1.85	0.5
WESP014	WES	Westhoek	22737	199289	2	1	1	2	4	177	0.59	5.22	14	2002	2012	11	3	3	1	6.07	1.69	0.5
WESP018	WES	Westhoek	23813	199363	2	1	1	2	4	177	1.55	5.47	14	2002	2012	10	3	3	1	5.44	1.77	0.5
WESP050	WES	Westhoek	23967	198392	2	1	1	2	4	177	2.92	5.77	14	2002	2012	11	3	3	1	5.8	2.95	0
WESP057	WES	Westhoek	23258	199248	2	1	1	2	4	177	2	5.3	14	2002	2012	11	3	3	1	5.34	2.04	0
WESP073	WES	Westhoek	23786	199218	2	1	1	2	4	177	1.58	5.77	14	2002	2012	11	3	3	1	5.79	1.85	0.5
WESP074	WES	Westhoek	23953	199593	2	1	1	2	4	177	1.51	4.94	14	2002	2012	11	3	3	1	4.98	1.55	0
WESP076	WES	Westhoek	24198	199292	2	1	1	2	4	177	2.28	6.82	14	2002	2012	11	3	3	1	6.84	2.55	0.5
WESP078	WES	Westhoek	23436	199686	2	1	1	2	4	177	2.77	6.41	14	2008	2015	8	3	3	1	6.41	3.02	0.5
WESP080	WES	Westhoek	24394	199119	2	1	1	2	4	177	1.24	5.87	14	2002	2012	11	3	3	1	5.91	1.53	0.5
WESP097	WES	Westhoek	23408	198956	2	1	1	2	4	177	1.72	6.01	14	2002	2012	11	3	3	1	6.57	2.53	0.5
WESP111	WES	Westhoek	23304	198193	2	1	1	2	4	177	1.35	5.39	14	2002	2012	11	3	3	1	5.39	1.6	0.5
WESP119	WES	Westhoek	23171	198331	2	1	1	2	4	177	1.89	5.87	14	2002	2012	11	3	3	1	5.9	2.17	0.5
WESP132	WES	Westhoek	22965	199052	2	1	1	2	4	177	2.83	5.47	14	2002	2012	11	3	3	1	5.49	3.1	0.5
WESP134	WES	Westhoek	22885	198920	2	1	1	2	4	177	0.65	5.59	14	2003	2012	9	3	3	1	5.69	1	0.5
WESP141	WES	Westhoek	22742	198998	2	1	1	2	4	177	2.86	5.5	14	2002	2012	11	3	3	1	5.57	3.18	0.5
ZABP002	ZAB	Zammelsbroek	191587	198621	2	1	1	2	3	822	2.94	14.741	13	2002	2009	3	3	4	2	14.891	3.24	0.3
ZABP003	ZAB	Zammelsbroek	191644	198520	2	1	1	2	3	822	1.78	14.776	13	2002	2009	3	3	4	2	14.866	2.02	0.3
ZABP004	ZAB	Zammelsbroek	191712	198448	2	1	1	2	3	822	1.6	14.78	13	2002	2009	3	3	3	1	15.47	2.49	0.4
ZABP005	ZAB	Zammelsbroek	191734	198418	2	1	1	2	3	822	0.58	14.7	13	2009	2009	1	3	4	2	15.56	1.64	0.4
ZABP006	ZAB	Zammelsbroek	191153	198420	2	1	1	2	3	822	2.97	14.529	13	2002	2009	3	3	3	1	14.989	3.58	0.3
ZABP013	ZAB	Zammelsbroek	191535	198711	2	1	1	2	3	822	2.09	14.77	13	2009	2009	1	3	7	7	14.97	2.49	0.4
ZABP014	ZAB	Zammelsbroek	191421	198803	2	1	1	2	3	822	1.3	14.82	13	2009	2009	1	3	3	1	16.04	2.72	0.4
ZABP022	ZAB	Zammelsbroek	193188	199206	2	1	1	2	1	822	1.05	15.76	11	2009	2009	1	3	3	1	16.05	1.54	0.4
ZABP023	ZAB	Zammelsbroek	193145	199376	2	1	1	2	3	822	1.58	15.7	13	2009	2009	1	3	1	6	16.58	2.66	0.4
ZEBP001	ZEB	Zeebrugge	68884	222381	2	1	1	2	3	693	0.465	2.91	13	2011	2011	1	3	3	1	3.22	0.925	0.3
ZEBP003	ZEB	Zeebrugge	69183	221033	2	1	1	2	3	693	0.83	2.68	13	2011	2011	1	3	3	1	2.91	1.21	0.3
ZEBP005	ZEB	Zeebrugge	69921	220751	2	1	1	2	3	693	1.66	2.57	13	2011	2011	1	3	3	1	2.99	2.08	0
ZEBP009	ZEB	Zeebrugge	69111	219114	2	1	1	2	2	693	1.92	3.02	12	NA	NA	0	3	3	1	3.6	3	1
ZEBP012	ZEB	Zeebrugge	69544	221380	2	1	1	2	3	693	1	2.6	13	2011	2011	1	3	4	2	3.1	2	1
ZEBP019	ZEB	Zeebrugge	69725	220669	2	1	1	2	3	693	0.5	2.63	13	2011	2011	1	3	3	1	3.06	1.43	1
ZEBP025	ZEB	Zeebrugge	69823	220300	2	1	1	2	3	693	0.5	2.51	13	2011	2011	1	3	4	2	2.94	1.43	1
ZEBP045	ZEB	Zeebrugge	69280	220151	2	1	1	2	3	693	0.5	2.6408	13	2014	2014	1	3	3	1	3.2408	1.6	1
ZEBP046	ZEB	Zeebrugge	69422	220210	2	1	1	2	3	693	0.5	2.6282	13	2014	2014	1	3	3	1	3.3782	1.75	1
ZEBP107	ZEB	Zeebrugge	65882	224517	2	1	1	2	2	693	1.795	5.83	12	NA	NA	0	3	3	1	5.83	2.045	0.5
ZEMP005	ZEM	Zemst	158392	184259	2	1	1	2	4	710	2.52	7.663	14	2005	2010	6	3	3	1	8.223	3.08	0
ZIEP022	ZIE	Ziepbeekvallei	238643	180318	2	1	1	2	3	1010	0.57	68.515	13	2006	2016	9	3	3	1	68.945	1.15	0.3
ZIEP066	ZIE	Ziepbeekvallei	239204	181332	2	1	1	2	3	1010	0.89	55.95	13	2005	2016	12	3	3	1	56.32	1.76	1
ZIEP166	ZIE	Ziepbeekvallei	239204	181332	2	1	1	2	3	1010	3	55.939	13	2005	2016	12	3	3	1	56.289	4.35	2
ZIEP179	ZIE	Ziepbeekvallei	239177	180268	2	1	1	2	3	1010	1.52	56.114	13	2007	2016	8	3	4	2	56.494	2.4	1
ZUVP019	ZUV	Zuunvallei	142606	164589	2	1	1	2	4	441	2	23.92	14	NA	NA	0	3	5	4	24.47	3.05	1
ZUVP020	ZUV	Zuunvallei	142603	164595	2	1	1	2	4	441	2	23.58	14	NA	NA	0	3	5	4	24	2.92	1
ZWAP141	ZWA	Zwarte Beek	216785	198435	2	1	1	2	1	950	1.96	52.52	11	2007	2016	10	3	3	1	52.86	2.45	0.3
ZWAP165	ZWA	Zwarte Beek	216814	198362	2	1	1	2	1	950	0.75	52.41	11	2007	2016	10	3	3	1	52.86	1.35	0.3
ZWAP196	ZWA	Zwarte Beek	214282	197080	2	1	1	2	1	950	0.91	42.28	11	2007	2016	10	3	3	1	42.72	1.5	0.3
ZWAP200	ZWA	Zwarte Beek	217985	197987	2	1	1	2	1	950	1.74	63.003	11	2005	2016	12	3	3	1	63.663	2.55	0.3
ZWAP202	ZWA	Zwarte Beek	220114	197295	2	1	1	2	3	210	2.05	68.26	13	2004	2016	12	3	3	1	68.78	2.72	0.3
ZWAP208	ZWA	Zwarte Beek	218005	198226	2	1	1	2	1	950	1.1	59.288	11	2004	2016	13	3	3	1	59.938	1.9	0.3
ZWAP216	ZWA	Zwarte Beek	218514	198727	2	1	1	2	1	950	1.14	57.93	11	2004	2015	11	3	1	6	58.78	2.14	0.3
ZWAP228	ZWA	Zwarte Beek	217381	197149	2	1	1	2	3	950	1.14	63.265	13	2004	2016	9	3	3	1	63.655	1.68	0.3
ZWAP229	ZWA	Zwarte Beek	220479	196611	2	1	1	2	3	210	2.04	70.19	13	2007	2016	10	3	3	1	70.5	2.5	0.3
ZWAP234	ZWA	Zwarte Beek	217054	198920	2	1	1	2	3	950	1.1	57.699	13	2008	2016	6	3	3	1	58.209	1.76	0.3
ZWAP300	ZWA	Zwarte Beek	213086	204149	2	1	1	2	3	630	0.815	44.593	13	2013	2016	4	3	3	1	45.208	1.58	0.3
ZWAP301	ZWA	Zwarte Beek	213467	203688	2	1	1	2	3	630	0.94	47.298	13	2013	2016	4	3	3	1	47.738	1.63	0.5
ZWAP303	ZWA	Zwarte Beek	213435	204022	2	1	1	2	3	630	0.8	45.684	13	2015	2015	1	3	3	1	46.214	1.58	0.5
ZWAP305	ZWA	Zwarte Beek	214503	203705	2	1	1	2	3	630	1.27	49.791	13	2015	2016	2	3	3	1	50.271	2	0.5
ZWAP306	ZWA	Zwarte Beek	215123	203590	2	1	1	2	3	630	1.11	51.375	13	2015	2016	2	3	3	1	51.915	1.9	0.5
