unieknr	loc_code	x	y	rasterid	groupnr	area_code	area_name	loc_validitycode	loc_validity	loc_typecode	loc_typename	obswell_statecode	obswell_state	soilsurf_ost	measuringref_ost	tubelength	filterlength	filterdepth	typegroup_name	firstyear	lastyear	nryears	cat
1	ALMP001	109770	185010	601	4	ALM	Aalmoezenijbos / Aelmoeseneiebos / Gontrodebos	2	1	1	1	4	2	13.9	14.68	2.37	0.3	1.44	4	2004	2006	3	3
2	ALMP002	109744	185010	601	4	ALM	Aalmoezenijbos / Aelmoeseneiebos / Gontrodebos	2	1	1	1	4	2	13.42	13.8	1.58	0.3	1.05	4	2004	2008	5	3
3	ALMP003	110287	185136	601	4	ALM	Aalmoezenijbos / Aelmoeseneiebos / Gontrodebos	2	1	1	1	4	2	17.63	18.33	1.55	0.3	0.7	4	2004	2008	5	3
4	ASBP003	238036	179497	1010	3	ASB	Asbeek	2	1	1	1	3	1	75.391	75.931	1.64	0.3	0.95	2	2008	2016	9	3
5	BEBP012	133244	174908	505	3	BEB	Bellebeek	2	1	1	1	7	7	13.91	13.91	2.2	1	1.7	2	NA	NA	0	3
6	BEBP013	133268	174873	505	3	BEB	Bellebeek	2	1	1	1	4	2	13.21	13.9	1.78	0.3	0.94	2	NA	NA	0	3
7	BRAP002	163992	210550	918	4	BRA	Bos van Ranst	2	1	1	1	4	2	9.19	9.56	1.22	1.22	0.24	4	NA	NA	0	3
8	BRAP003	163755	210701	918	4	BRA	Bos van Ranst	2	1	1	1	4	2	8.84	9.4	2.17	0.97	1.125	4	NA	NA	0	3
9	BRAP009	165408	210432	918	4	BRA	Bos van Ranst	2	1	1	1	5	4	9.24	9.93	1.9	1.2	0.61	4	NA	NA	0	3
10	BRAP102	163992	210550	918	4	BRA	Bos van Ranst	2	1	1	1	4	2	9.17	9.62	2.25	0.55	1.525	4	NA	NA	0	3
11	DORP016	158521	186074	790	3	DOR	Dorent	2	1	1	1	4	2	7.35	8.07	2.68	0.3	1.81	2	2005	2005	1	3
12	DORP024	154823	182431	710	4	DOR	Dorent	2	1	1	1	1	6	9.8	10.17	3.08	0.3	2.56	4	2005	2014	3	3
13	DUNP010	178354	180655	134	4	DUN	Dunbergbroek	2	1	1	1	3	1	15.714	16.054	2.4	0.5	1.81	4	2004	2013	6	3
14	DUNP011	178562	180199	134	4	DUN	Dunbergbroek	2	1	1	1	3	1	16.05	16.54	2.31	0	1.82	4	2007	2016	4	3
15	DUNP012	178707	179625	134	4	DUN	Dunbergbroek	2	1	1	1	3	1	18.29	19.08	2.32	0	1.53	4	2004	2013	6	3
16	DYLP029	169238	167404	262	2	DYL	Dijlevallei	2	1	1	1	3	1	27	27.42	1.86	0.3	1.29	3	2004	2016	5	3
17	DYLP037	169802	167510	582	4	DYL	Dijlevallei	2	1	1	1	3	1	27.99	28.42	1.55	0.3	0.97	4	2004	2016	10	3
18	DYLP109	169049	168137	262	4	DYL	Dijlevallei	2	1	1	1	3	1	27.66	28.13	3.44	0.3	2.82	4	2004	2016	10	3
19	DYLP156	169478	166091	262	3	DYL	Dijlevallei	2	1	1	1	3	1	28.092	28.432	2.33	0.3	1.84	2	2016	2016	1	3
20	GOBP004	201885	184397	166	2	GOB	Gorenbroek	2	1	1	1	3	1	20.0131	20.4131	2.66	0.3	2.11	3	2014	2016	3	3
21	GSCP021	167691	229182	478	3	GSC	Groot Schietveld	2	1	1	1	3	1	18.31	18.89	2.5	0.5	1.67	2	2009	2010	2	3
22	HAGP018	224064	217725	274	2	HAG	Hageven	2	1	1	1	4	2	34.41	34.56	3.33	0.5	2.93	3	2002	2015	14	3
23	HAGP019	224064	217725	274	2	HAG	Hageven	2	1	1	1	4	2	34.401	34.611	2.271	0.5	1.811	3	2002	2015	14	3
24	HAGP023	222955	217220	274	3	HAG	Hageven	2	1	1	1	4	2	35.77	36.08	2.33	0.3	1.87	2	2002	2015	14	3
25	HAGP038	223537	217590	274	3	HAG	Hageven	2	1	1	1	4	2	34.386	34.536	1.506	0.5	1.106	2	2002	2015	12	3
26	HALP002	143429	155341	185	4	HAL	Hallerbos	2	1	1	1	3	1	74.36	74.74	2.15	0.3	1.62	4	2008	2015	8	3
27	HALP005	144281	156162	185	4	HAL	Hallerbos	2	1	1	1	3	1	68.573	68.673	2.06	0.3	1.81	4	2008	2012	5	3
28	HBTP007	212986	193133	694	3	HBT	Helderbeekvallei Terril	2	1	1	1	3	1	33.026	33.586	2.46	0.3	1.75	2	2011	2014	2	3
29	HBTP008	212972	193185	694	3	HBT	Helderbeekvallei Terril	2	1	1	1	3	1	32.878	33.378	2.56	0.3	1.91	2	2011	2014	2	3
30	ITTP212	242307	202672	146	1	ITT	Itterbeekvallei	2	1	1	1	3	1	34.995	35.225	2.37	0.3	1.99	5	2012	2016	5	3
31	KALP022	155356	230811	734	3	KAL	Kalmthoutse heide	2	1	1	1	3	1	23.47	23.29	1.14	1	0.82	2	2014	2016	3	3
32	KALP136	154423	234049	734	3	KAL	Kalmthoutse heide	2	1	1	1	3	1	17.174	18.514	2.53	0.36	1.01	2	2011	2015	5	3
33	KALP137	154350	234337	734	3	KAL	Kalmthoutse heide	2	1	1	1	3	1	17.08	17.91	2.43	0.36	1.42	2	2011	2015	5	3
34	KALP252	153253	233640	734	3	KAL	Kalmthoutse heide	2	1	1	1	3	1	21.503	21.383	1.66	1	1.28	2	2014	2016	3	3
35	KASP003	168266	178321	198	4	KAS	Kastanjebos	2	1	1	1	1	6	21.99	22.35	2.55	0.3	2.04	4	2012	2015	4	3
36	KBRP040	146391	203727	297	2	KBR	Polders van Kruibeke	2	1	1	1	3	1	1.731	2.311	2.37	0.5	1.54	3	2004	2014	9	3
37	KBRP056	145855	202674	297	2	KBR	Polders van Kruibeke	2	1	1	1	4	2	1.574	2.394	2.6	0.5	1.53	3	2003	2014	10	3
38	LAVP080	169100	164579	262	3	LAV	Laanvallei	2	1	1	1	3	1	29.223	29.663	2.3	0	1.86	2	2011	2012	2	3
39	LDOP019	184754	191421	342	1	LDO	Langdonken	2	1	1	1	3	1	14.16	14.49	1.98	0.3	1.5	5	2004	2012	8	3
40	LDOP035	185221	191291	342	1	LDO	Langdonken	2	1	1	1	3	1	14.02	14.57	2.47	0.3	1.77	5	2005	2016	9	3
41	LDOP036	185321	190835	342	1	LDO	Langdonken	2	1	1	1	3	1	14.54	15.3	2.76	0.3	1.85	5	2005	2012	6	3
42	LDOP041	186424	191178	310	3	LDO	Langdonken	2	1	1	1	2	5	14.544	14.604	2.68	0.3	2.47	2	2005	2016	10	3
43	LDOP042	184750	191415	342	1	LDO	Langdonken	2	1	1	1	3	1	14.16	14.16	2.66	0.3	2.51	5	2007	2016	6	3
44	LEPP009	34664	204521	817	4	LEP	Lenspolder	2	1	1	1	4	2	4.91	5.19	2.44	0	2.16	4	2004	2013	6	3
45	LEPP011	34654	204481	817	4	LEP	Lenspolder	2	1	1	1	4	2	4.66	5.56	2.12	0	1.22	4	2004	2013	6	3
46	LEUP005	201075	186470	54	2	LEU	De Leunen	2	1	1	1	3	1	-0.74	0	2.07	0.3	1.18	3	NA	NA	0	3
47	LEUP006	201075	186405	54	2	LEU	De Leunen	2	1	1	1	3	1	-0.9	0	1.51	0.36	0.43	3	NA	NA	0	3
48	LEUP008	201300	186315	54	2	LEU	De Leunen	2	1	1	1	3	1	-0.79	0	1.57	0.3	0.63	3	NA	NA	0	3
49	LEUP009	201320	186255	54	2	LEU	De Leunen	2	1	1	1	3	1	-0.8	0	1.52	0.29	0.575	3	NA	NA	0	3
50	LOHP009	175532	213189	214	4	LOH	Lovenhoek	2	1	1	1	3	1	10.746	11.646	2.5	2	0.6	4	2013	2015	3	3
51	LOHP012	175820	212049	214	4	LOH	Lovenhoek	2	1	1	1	3	1	11.203	11.923	2.49	2	0.77	4	2013	2015	3	3
52	LOHP015	175526	211989	214	4	LOH	Lovenhoek	2	1	1	1	3	1	10.712	11.572	2.55	2	0.69	4	2013	2015	3	3
53	LOHP017	175233	213318	214	4	LOH	Lovenhoek	2	1	1	1	3	1	10.265	10.905	2.55	2	0.91	4	2014	2015	2	3
54	MANP029	220497	193374	722	1	MAN	Mangelbeekvallei	2	1	1	1	3	1	55.418	55.868	1.76	0.5	1.06	5	2008	2016	6	3
55	MATP003	224779	181757	306	1	MAT	De Maten	2	1	1	1	3	1	41.97	42.28	1.44	0.5	0.88	5	2011	2016	5	3
56	MATP004	225098	182066	306	3	MAT	De Maten	2	1	1	1	3	1	44.05	44.41	2.38	0.5	1.77	2	2011	2015	5	3
57	MATP005	226220	183183	306	3	MAT	De Maten	2	1	1	1	3	1	49.4	49.74	2.49	0.5	1.9	2	2011	2016	3	3
58	MATP006	226190	183227	306	3	MAT	De Maten	2	1	1	1	3	1	49.23	49.65	2.31	0.5	1.64	2	2011	2016	6	3
59	MATP010	225128	182769	306	1	MAT	De Maten	2	1	1	1	3	1	46.29	46.64	2.57	0.5	1.97	5	2012	2016	5	3
60	MATP011	225382	182289	306	3	MAT	De Maten	2	1	1	1	3	1	44.92	45.34	1.71	0.5	1.04	2	2012	2016	5	3
61	MATP013	226425	182603	306	1	MAT	De Maten	2	1	1	1	3	1	47.59	48.02	1.51	0.5	0.83	5	2012	2016	5	3
62	MATP014	226291	182944	306	3	MAT	De Maten	2	1	1	1	3	1	48.72	49.05	1.81	0.5	1.23	2	2012	2016	5	3
63	MATP015	226040	183424	306	1	MAT	De Maten	2	1	1	1	3	1	49.24	49.66	1.3	0.5	0.63	5	2012	2016	5	3
64	MATP017	226823	183586	306	3	MAT	De Maten	2	1	1	1	3	1	50.921	51.431	1.61	0.5	0.85	2	2012	2016	5	3
65	MOLP018	167135	177145	454	4	MOL	Molenbeekvallei	2	1	1	1	3	1	25.3	25.82	2.01	0.3	1.34	4	2002	2013	8	3
66	MOLP022	166595	176767	454	4	MOL	Molenbeekvallei	2	1	1	1	3	1	27.476	27.886	1.9	0.3	1.34	4	2002	2013	8	3
67	MOLP023	166621	176753	454	4	MOL	Molenbeekvallei	2	1	1	1	3	1	26.979	27.339	2.02	0.3	1.51	4	2002	2013	8	3
68	MOLP024	166641	176739	454	4	MOL	Molenbeekvallei	2	1	1	1	3	1	26.794	27.234	2.02	0.3	1.43	4	2002	2013	8	3
69	MOLP025	166664	176724	454	4	MOL	Molenbeekvallei	2	1	1	1	3	1	26.695	27.095	2.02	0.3	1.47	4	2002	2013	8	3
70	MOMP001	218033	175477	230	3	MOM	Mombeekvallei	2	1	1	1	3	1	33.75	34.21	2.61	0.3	2	2	NA	NA	0	3
71	MOMP002	218031	175576	230	3	MOM	Mombeekvallei	2	1	1	1	3	1	33.554	33.964	2.61	0.3	2.05	2	NA	NA	0	3
72	MOMP003	217918	175452	230	3	MOM	Mombeekvallei	2	1	1	1	5	4	33.79	33.79	1.8	0.3	1.65	2	NA	NA	0	3
73	MOMP004	217913	175494	230	3	MOM	Mombeekvallei	2	1	1	1	5	4	33.63	33.63	1.8	0.3	1.65	2	NA	NA	0	3
74	MOMP010	218032	175555	230	3	MOM	Mombeekvallei	2	1	1	1	5	4	33.63	33.73	3	1	2.4	2	NA	NA	0	3
75	MOMP011	218028	175601	230	3	MOM	Mombeekvallei	2	1	1	1	3	1	33.63	34.02	3.32	0.3	2.78	2	NA	NA	0	3
76	MOMP012	218029	175631	230	3	MOM	Mombeekvallei	2	1	1	1	3	1	33.663	34.013	3.12	0.3	2.62	2	NA	NA	0	3
77	MOMP013	218029	175631	230	3	MOM	Mombeekvallei	2	1	1	1	7	7	33.784	33.994	3.13	0.3	2.77	2	NA	NA	0	3
78	MOMP020	220506	175297	50	3	MOM	Mombeekvallei	2	1	1	1	3	1	36.752	37.302	2.4	0.4	1.65	2	NA	NA	0	3
79	MOMP028	222496	174765	50	3	MOM	Mombeekvallei	2	1	1	1	3	1	39.194	39.584	3.53	0.4	2.94	2	NA	NA	0	3
80	MOMP029	218029	175625	230	3	MOM	Mombeekvallei	2	1	1	1	3	1	33.784	33.994	3.13	0.3	2.77	2	NA	NA	0	3
81	MOSP001	210617	207077	630	1	MOS	De Most	2	1	1	1	3	1	35.85	35.95	1.28	0.3	1.03	5	2006	2014	9	3
82	MOSP003	210894	207017	630	1	MOS	De Most	2	1	1	1	3	1	36.529	37.179	1.735	0.3	0.935	5	2006	2014	9	3
83	MOSP004	210870	207068	630	1	MOS	De Most	2	1	1	1	3	1	36.015	37.265	2.67	0.3	1.27	5	2006	2014	9	3
84	MSBP001	194922	187284	54	2	MSB	Molenstedebroek	1	2	1	1	4	2	18.619	19.019	3.18	0.4	2.58	3	NA	NA	0	3
85	MSBP002	194917	187270	54	2	MSB	Molenstedebroek	2	1	1	1	3	1	18.599	19.1069999999999	2.6	0.5	1.8420000000001	3	NA	NA	0	3
86	MSBP003	194861	187151	54	2	MSB	Molenstedebroek	1	2	1	1	4	2	18.684	19.154	2.44	0.4	1.77	3	NA	NA	0	3
87	MSBP006	194955	187335	54	2	MSB	Molenstedebroek	2	1	1	1	3	1	18.446	18.91	2.6	0.5	1.886	3	NA	NA	0	3
88	MSBP007	194938	187299	54	2	MSB	Molenstedebroek	2	1	1	1	3	1	18.587	19.073	2.4	0.5	1.664	3	NA	NA	0	3
89	MSBP008	194883	187199	54	2	MSB	Molenstedebroek	2	1	1	1	3	1	18.513	19.3859999999999	2.5	0.5	1.3770000000001	3	NA	NA	0	3
90	MSBP009	194851	187121	54	2	MSB	Molenstedebroek	2	1	1	1	3	1	19.018	19.452	3.2	0.5	2.516	3	NA	NA	0	3
91	MSBP011	195263	186767	54	3	MSB	Molenstedebroek	2	1	1	1	3	1	18.721	19.44	3.8	0.5	2.831	2	2016	2016	1	3
92	MSBP013	195275	186651	54	2	MSB	Molenstedebroek	2	1	1	1	3	1	18.5859999999999	19.3709999999999	3	0.5	1.965	3	NA	NA	0	3
93	MSBP014	195268	186601	54	2	MSB	Molenstedebroek	2	1	1	1	3	1	18.6419999999999	19.376	3	0.5	2.0159999999999	3	NA	NA	0	3
94	NEIP001	128122	167393	57	4	NEI	Neigembos	2	1	1	1	3	1	0	0.31	1.79	0.5	1.23	4	2007	2010	4	3
95	NEIP002	128078	167410	57	4	NEI	Neigembos	2	1	1	1	3	1	0	0.45	1.55	0.5	0.85	4	2007	2010	4	3
96	NUCP004	119819	165933	217	3	NUC	De Nuchten	2	1	1	1	4	2	12.9034	13.3734	2.32	0.3	1.7	2	2008	2008	1	3
97	NUCP005	120097	165667	217	3	NUC	De Nuchten	2	1	1	1	5	4	12.7946	13.2946	2.45	0.3	1.8	2	2008	2008	1	3
98	ORCP002	139863	196974	745	3	ORC	De Orchis	2	1	1	1	4	2	4.82	4.92	0.94	0.3	0.69	2	2002	2002	1	3
99	ORCP003	139866	197010	745	3	ORC	De Orchis	2	1	1	1	4	2	4.81	4.87	0.86	0.3	0.65	2	2002	2002	1	3
100	PARP003	109730	163542	985	4	PAR	Parike-bos	2	1	1	1	3	1	54.05	54.27	2.45	0.5	1.98	4	2009	2016	5	3
101	POMP004	225109	178542	306	3	POM	De Pomperik	2	1	1	1	3	1	34.778	35.078	2.02	0.5	1.47	2	2009	2016	6	3
102	POMP005	225048	178511	306	3	POM	De Pomperik	2	1	1	1	3	1	34.981	35.181	2.031	0.5	1.581	2	2009	2016	7	3
103	RASP001	120085	162768	217	4	RAS	Raspaillebos	2	1	1	1	3	1	68.994	69.404	2.98	0.5	2.32	4	2003	2016	3	3
104	RASP002	120111	162861	217	4	RAS	Raspaillebos	2	1	1	1	3	1	56.155	56.755	1.66	0.5	0.81	4	2003	2016	4	3
105	RASP003	120002	163028	217	4	RAS	Raspaillebos	2	1	1	1	3	1	40.612	40.862	1.57	0.5	1.07	4	2003	2016	7	3
106	ROTP003	200403	185618	166	2	ROT	Rotbroek	2	1	1	1	3	1	19.306	19.546	1.68	0.3	1.29	3	2014	2016	3	3
107	SANP006	216032	191815	694	1	SAN	Schansbeemden	2	1	1	1	4	2	36.53	36.79	2.4	0.3	1.99	5	NA	NA	0	3
108	SBBP002	109983	170962	89	4	SBB	Steenbergse bossen	2	1	1	1	4	2	51.227	52.147	2.26	0.3	1.19	4	2003	2003	1	3
109	SCPP021	204705	204248	886	3	SCP	Scheps	2	1	1	1	4	2	28.057	28.487	2.01	0	1.58	2	2008	2014	7	3
110	SCPP024	206720	204096	886	3	SCP	Scheps	2	1	1	1	3	1	30.309	30.899	1.86	0	1.27	2	2006	2012	7	3
111	SCPP025	206960	204244	886	2	SCP	Scheps	2	1	1	1	1	6	30.348	31.348	2.53	0	1.53	3	2006	2011	6	3
112	SCPP033	205281	204334	886	3	SCP	Scheps	2	1	1	1	3	1	28.721	29.231	2.03	0	1.52	2	2008	2014	7	3
113	SCPP034	205513	204333	886	2	SCP	Scheps	2	1	1	1	3	1	28.688	29.538	1.98	0	1.13	3	2008	2014	7	3
114	SCPP035	205616	204216	886	3	SCP	Scheps	2	1	1	1	3	1	28.956	29.336	1.82	0	1.44	2	2008	2014	7	3
115	SCPP036	205976	204000	886	3	SCP	Scheps	2	1	1	1	3	1	29.74	29.94	1.98	0	1.78	2	2008	2014	7	3
116	SCPP039	206669	204706	886	3	SCP	Scheps	2	1	1	1	3	1	30.22	30.8	2.28	0	1.7	2	2008	2014	7	3
117	SCPP040	206707	204679	886	3	SCP	Scheps	2	1	1	1	3	1	30.811	31.331	1.87	0	1.35	2	2008	2014	7	3
118	SCPP042	205315	204593	886	3	SCP	Scheps	2	1	1	1	3	1	29.23	29.69	1.87	0	1.41	2	2008	2014	7	3
119	SCPP043	207040	205023	886	2	SCP	Scheps	2	1	1	1	3	1	30.58	30.89	1.18	0	0.87	3	2008	2014	7	3
120	SCPP047	206640	204635	886	3	SCP	Scheps	2	1	1	1	3	1	30.541	31.651	2.51	0	1.4	2	2008	2014	6	3
121	SCPP050	207566	205767	886	3	SCP	Scheps	2	1	1	1	3	1	31.687	31.827	1.66	0	1.52	2	2008	2014	7	3
122	SCPP051	206919	205056	886	2	SCP	Scheps	2	1	1	1	3	1	30.547	31.147	2.59	0	1.99	3	2011	2014	4	3
123	SHHP031	226046	192220	722	3	SHH	Schietveld Houthalen Hechteren	2	1	1	1	3	1	76.01	76.69	1.72	0.3	0.89	2	2009	2016	5	3
124	SHHP032	226069	192196	722	3	SHH	Schietveld Houthalen Hechteren	2	1	1	1	3	1	76.15	76.75	2.11	0.5	1.26	2	2008	2016	7	3
125	SILP004	164843	178240	198	4	SIL	Silsombos	2	1	1	1	3	1	20.684	21.084	1.91	0.3	1.36	4	2002	2014	6	3
126	SNOP022	183102	169452	390	4	SNO	Snoekengracht	2	1	1	1	3	1	57.25	57.54	1.85	0.3	1.41	4	NA	NA	0	3
127	SNOP025	183238	169448	390	4	SNO	Snoekengracht	2	1	1	1	3	1	56.26	56.63	1.39	0.3	0.87	4	NA	NA	0	3
128	SNOP028	183331	169488	390	4	SNO	Snoekengracht	2	1	1	1	3	1	56.36	56.62	1.5	0.3	1.09	4	NA	NA	0	3
129	SNOP029	183348	169465	390	4	SNO	Snoekengracht	2	1	1	1	3	1	56.19	56.49	1.47	0.3	1.02	4	NA	NA	0	3
130	SNOP031	183313	169446	390	4	SNO	Snoekengracht	2	1	1	1	3	1	56.32	56.65	1.24	0.3	0.76	4	NA	NA	0	3
131	SNOP032	183056	169524	390	4	SNO	Snoekengracht	2	1	1	1	3	1	57.89	58.18	2.34	0.3	1.9	4	NA	NA	0	3
132	SNOP033	183103	169551	390	4	SNO	Snoekengracht	2	1	1	1	3	1	57.62	58.25	2.4	0.3	1.62	4	NA	NA	0	3
133	SNOP126	183237	169449	390	4	SNO	Snoekengracht	2	1	1	1	3	1	56.28	56.51	3.31	0.3	2.93	4	NA	NA	0	3
134	SNOP129	183331	169489	390	4	SNO	Snoekengracht	2	1	1	1	3	1	56.33	56.61	3.28	0.3	2.85	4	NA	NA	0	3
135	STAP050	242727	208039	146	1	STA	Stamprooierbroek incl de Zig &	2	1	1	1	3	1	32.213	33.223	2.99	0	1.98	5	2009	2016	8	3
136	TEUP019	222593	189365	722	3	TEU	De Teut	2	1	1	1	3	1	59.21	59.65	2.17	0.3	1.58	2	2010	2014	5	3
137	TEUP026	224931	188926	722	3	TEU	De Teut	2	1	1	1	3	1	63.471	63.551	1.48	0.3	1.25	2	2008	2016	9	3
138	TEUP028	224721	188606	722	1	TEU	De Teut	2	1	1	1	3	1	60.236	60.716	1.58	0.3	0.95	5	2008	2016	6	3
139	TEUP043	223696	188700	722	1	TEU	De Teut	2	1	1	1	3	1	59.753	60.053	1.86	0.3	1.41	5	2007	2016	10	3
140	TEUP044	223773	188744	722	1	TEU	De Teut	2	1	1	1	3	1	60.049	60.329	1.24	0.3	0.81	5	2008	2016	9	3
141	TEUP045	225036	188792	722	3	TEU	De Teut	2	1	1	1	3	1	62.007	62.697	1.73	0.3	0.89	2	2008	2014	7	3
142	TEUP046	225067	188690	722	1	TEU	De Teut	2	1	1	1	3	1	60.338	60.838	1.69	0.3	1.04	5	2008	2016	7	3
143	TEUP047	225211	188652	722	1	TEU	De Teut	2	1	1	1	3	1	60.874	61.304	1.6	0.3	1.02	5	2008	2016	9	3
144	TIEP013	188220	218314	1014	1	TIE	Militair domein Tielen	2	1	1	1	3	1	17.935	18.685	2.91	0.3	2.01	5	2006	2006	1	3
145	TLAP001	213998	188072	694	1	TLA	Terlaemen & Weijerman	2	1	1	1	4	2	32.213	32.923	2.98	0.3	2.12	5	NA	NA	0	3
146	TLAP002	214024	187912	694	1	TLA	Terlaemen & Weijerman	2	1	1	1	4	2	32.576	33.076	1.28	0.3	0.63	5	NA	NA	0	3
147	TLAP003	214025	187912	694	1	TLA	Terlaemen & Weijerman	2	1	1	1	4	2	32.583	33.033	1.91	0.3	1.31	5	NA	NA	0	3
148	TORP018	162023	179712	198	4	TOR	Torfbroek	2	1	1	1	3	1	16.313	16.963	1.07	0.3	0.27	4	2005	2016	12	3
149	TYDP004	33126	203530	817	4	TYD	Ter Yde	2	1	1	1	1	6	5.911	6.531	2.901	1	1.781	4	2004	2012	7	3
150	TYDP012	33155	203402	817	4	TYD	Ter Yde	2	1	1	1	3	1	5.94	6.23	2.94	0.3	2.5	4	2004	2012	8	3
151	TYDP054	32617	203691	817	4	TYD	Ter Yde	2	1	1	1	3	1	7.14	7.16	3.09	0.5	2.82	4	2003	2016	10	3
152	TYDP055	32743	203672	817	4	TYD	Ter Yde	2	1	1	1	4	2	6.862	6.762	1.46	0.4	1.36	4	2003	2012	9	3
153	TYDP057	32283	204089	817	4	TYD	Ter Yde	2	1	1	1	3	1	6.049	6.139	2.135	0.5	1.795	4	2003	2012	7	3
154	TYDP058	32486	203672	817	4	TYD	Ter Yde	2	1	1	1	4	2	6.706	6.726	1.98	0.5	1.71	4	2003	2012	9	3
155	TYDP059	32669	203788	817	4	TYD	Ter Yde	2	1	1	1	3	1	6.54	6.44	1.84	0.5	1.69	4	2003	2016	9	3
156	TYDP072	33571	203880	817	4	TYD	Ter Yde	2	1	1	1	3	1	5.61	5.51	1.575	0.3	1.525	4	2003	2016	9	3
157	TYDP203	33046	203477	817	4	TYD	Ter Yde	2	1	1	1	4	2	5.788	5.858	1.47	0.43	1.185	4	2005	2016	7	3
158	TYDP204	33222	203448	817	4	TYD	Ter Yde	2	1	1	1	3	1	5.51	5.6	2.13	0.5	1.79	4	2005	2016	8	3
159	TYDP206	33673	203910	817	4	TYD	Ter Yde	2	1	1	1	4	2	5.25	5.39	1.83	0.45	1.465	4	2005	2012	7	3
160	TYDP207	33614	203986	817	4	TYD	Ter Yde	2	1	1	1	3	1	5.524	5.524	1.32	0.48	1.08	4	2005	2012	7	3
161	TYDP211	32561	203740	817	4	TYD	Ter Yde	2	1	1	1	4	2	6.716	6.816	2.03	0.41	1.725	4	2006	2012	6	3
162	VDBP018	202838	192210	438	3	VDB	Vallei van de Drie Beken	2	1	1	1	3	1	22.057	22.487	2.49	0.4	1.86	2	2006	2015	3	3
163	VDBP024	202735	192560	438	2	VDB	Vallei van de Drie Beken	2	1	1	1	3	1	21.605	22.245	2.23	0.46	1.36	3	2006	2016	4	3
164	VDBP025	202703	192573	438	2	VDB	Vallei van de Drie Beken	2	1	1	1	4	2	21.835	22.405	2.56	0.46	1.76	3	2006	2016	4	3
165	VDBP034	202187	191485	54	3	VDB	Vallei van de Drie Beken	2	1	1	1	3	1	21.44	21.81	1.45	0.4	0.88	2	2006	2016	4	3
166	VDBP062	197720	189487	54	3	VDB	Vallei van de Drie Beken	2	1	1	1	3	1	19.62	19.89	2.49	0.4	2.02	2	2006	2016	4	3
167	VDBP503	202669	192582	438	2	VDB	Vallei van de Drie Beken	2	1	1	1	4	2	21.665	22.015	1.63	0.3	1.13	3	2006	2014	2	3
168	VDBP514	202304	191370	438	2	VDB	Vallei van de Drie Beken	2	1	1	1	3	1	21.53	21.76	2	0.3	1.62	3	2006	2016	5	3
169	VDBP531	197880	189431	54	3	VDB	Vallei van de Drie Beken	2	1	1	1	3	1	19.47	19.78	1.03	0.3	0.57	2	2006	2016	4	3
170	VENP006	208317	206290	886	3	VEN	De Vennen	2	1	1	1	3	1	33.318	33.658	1.58	0.3	1.09	2	2012	2016	5	3
171	VENP009	208455	206286	886	3	VEN	De Vennen	2	1	1	1	4	2	32.53	32.89	1.67	0	1.31	2	2012	2016	5	3
172	VENP010	208440	206098	886	3	VEN	De Vennen	2	1	1	1	3	1	32.59	33.44	2	0	1.15	2	2012	2016	5	3
173	VIEP104	192297	188970	310	2	VIE	Vierkensbroek-Demervallei	2	1	1	1	4	2	16.78	17.38	2.24	0.3	1.49	3	2003	2003	1	3
174	VIEP105	192266	188817	310	2	VIE	Vierkensbroek-Demervallei	2	1	1	1	4	2	16.77	17.12	2.51	0.3	2.01	3	2002	2003	2	3
175	VIEP107	192278	188526	310	2	VIE	Vierkensbroek-Demervallei	2	1	1	1	4	2	16.897	17.387	2.53	0.3	1.89	3	2002	2002	1	3
176	VIEP173	192713	188703	310	2	VIE	Vierkensbroek-Demervallei	2	1	1	1	4	2	16.89	16.98	2.13	0.3	1.89	3	2002	2002	1	3
177	VIEP174	192711	188697	310	2	VIE	Vierkensbroek-Demervallei	2	1	1	1	4	2	16.79	16.92	2.2	0.3	1.92	3	2002	2003	2	3
178	VINP084	203095	170251	486	2	VIN	Het Vinne	2	1	1	1	7	7	26.27	26.64	2.5	0.5	1.88	3	2005	2005	1	3
179	VLBP001	134476	192715	169	3	VLB	Vlassenbroekse polder	2	1	1	1	3	1	1.66	2.69	2.68	0.6	1.35	2	2007	2010	3	3
180	VLBP008	134033	193680	169	3	VLB	Vlassenbroekse polder	2	1	1	1	4	2	2.3	3.44	2.44	0.3	1.15	2	2007	2007	1	3
181	VLBP011	134207	193027	169	3	VLB	Vlassenbroekse polder	2	1	1	1	4	2	2.13	2.5	2.41	0.3	1.89	2	2007	2009	2	3
182	VLBP012	134945	193069	169	3	VLB	Vlassenbroekse polder	2	1	1	1	4	2	1.91	2.46	3.02	0.5	2.22	2	2007	2011	2	3
183	VLBP025	135142	193040	169	3	VLB	Vlassenbroekse polder	2	1	1	1	4	2	1.77	2.02	1.73	0.35	1.305	2	2009	2011	3	3
184	VLBP026	135161	193053	169	3	VLB	Vlassenbroekse polder	2	1	1	1	3	1	1.75	2.08	1.68	0.35	1.175	2	2009	2011	3	3
185	VLBP125	135141	193047	169	3	VLB	Vlassenbroekse polder	2	1	1	1	3	1	1.65	2.05	3.28	0.35	2.705	2	2009	2011	3	3
186	VLBP126	135161	193053	169	3	VLB	Vlassenbroekse polder	2	1	1	1	3	1	1.81	2.14	3.1	0.35	2.595	2	2010	2011	2	3
187	VRIP039	166653	213046	918	1	VRI	Vrieselhof	1	2	1	1	3	1	8.247	8.417	2.03	0.3	1.71	5	2009	2009	1	3
188	WAHP711	144524	214863	41	2	WAH	Waaslandhaven	2	1	1	1	3	1	2.205	2.485	2.59	0.5	2.06	3	2003	2016	10	3
189	WALP101	186106	180247	934	4	WAL	Walenbos	2	1	1	1	4	2	25.416	25.516	1.03	0.38	0.74	4	2007	2012	6	3
190	WALP118	186105	180248	934	4	WAL	Walenbos	2	1	1	1	4	2	25.422	25.702	2.04	0.3	1.61	4	2007	2012	6	3
191	WALP161	186415	180016	934	4	WAL	Walenbos	2	1	1	1	3	1	30.11	30.21	1.12	0.3	0.87	4	2006	2015	10	3
192	WEBP036	200108	184654	166	2	WEB	Webbekomsbroek	2	1	1	1	3	1	20.43	20.57	2.4	0.3	2.11	3	2012	2013	2	3
193	WELP018	128284	176954	1017	3	WEL	Wellemeersen	2	1	1	1	4	2	8.86	9.24	3.01	0.3	2.48	2	NA	NA	0	3
194	WELP020	128401	177063	1017	3	WEL	Wellemeersen	2	1	1	1	4	2	8.69	9.26	3.01	0.3	2.29	2	NA	NA	0	3
195	WELP022	128519	176887	1017	3	WEL	Wellemeersen	2	1	1	1	4	2	8.2	8.67	1.64	0.3	1.02	2	NA	NA	0	3
196	WELP034	129060	176759	505	3	WEL	Wellemeersen	2	1	1	1	4	2	8.89	9.39	2.05	0.3	1.4	2	NA	NA	0	3
197	WELP035	129144	176660	505	3	WEL	Wellemeersen	2	1	1	1	7	7	9.06	9.36	1.96	0.3	1.51	2	NA	NA	0	3
198	WERP001	193281	194778	822	1	WER	De Werft	2	1	1	1	3	1	0	0.45	2.34	0	1.89	5	2008	2011	3	3
199	WERP002	193300	194752	822	1	WER	De Werft	2	1	1	1	3	1	0	0.55	2.32	0	1.77	5	2008	2011	3	3
200	WERP003	193271	194588	822	1	WER	De Werft	2	1	1	1	3	1	0	0.65	2.35	0	1.7	5	2008	2011	3	3
201	WERP004	193302	194696	822	1	WER	De Werft	2	1	1	1	3	1	0	0.72	2.34	0	1.62	5	2008	2011	3	3
202	WERP005	193360	194613	822	3	WER	De Werft	2	1	1	1	3	1	0	0.65	2.3	0	1.65	2	2008	2011	3	3
203	WERP007	193544	194610	822	3	WER	De Werft	2	1	1	1	3	1	0	0.9	2.68	0	1.78	2	2008	2011	3	3
204	WERP009	193488	194562	822	1	WER	De Werft	2	1	1	1	3	1	0	0.54	2.27	0	1.73	5	2008	2011	3	3
205	WERP011	193419	194740	822	1	WER	De Werft	2	1	1	1	3	1	0	0.42	1.9	0	1.48	5	2008	2011	3	3
206	WERP012	192332	194448	822	1	WER	De Werft	2	1	1	1	3	1	0	0.11	2.32	0	2.21	5	2008	2009	2	3
207	WESP001	23482	199360	177	4	WES	Westhoek	2	1	1	1	3	1	5.35	5.45	1.37	0.5	1.02	4	2008	2015	7	3
208	WESP003	23288	198961	177	4	WES	Westhoek	2	1	1	1	3	1	5.98	5.99	1.92	0.5	1.66	4	2002	2012	11	3
209	WESP005	23086	198942	177	4	WES	Westhoek	2	1	1	1	3	1	5.49	5.57	2.05	0.5	1.72	4	2002	2012	11	3
210	WESP007	23034	198650	177	4	WES	Westhoek	2	1	1	1	3	1	5.95	5.98	2.1	0.5	1.82	4	2003	2012	10	3
211	WESP008	22617	198715	177	4	WES	Westhoek	2	1	1	1	3	1	5.85	6.25	1.85	0.5	1.2	4	2002	2012	11	3
212	WESP014	22737	199289	177	4	WES	Westhoek	2	1	1	1	3	1	5.22	6.07	1.69	0.5	0.59	4	2002	2012	11	3
213	WESP018	23813	199363	177	4	WES	Westhoek	2	1	1	1	3	1	5.47	5.44	1.77	0.5	1.55	4	2002	2012	10	3
214	WESP050	23967	198392	177	4	WES	Westhoek	2	1	1	1	3	1	5.77	5.8	2.95	0	2.92	4	2002	2012	11	3
215	WESP057	23258	199248	177	4	WES	Westhoek	2	1	1	1	3	1	5.3	5.34	2.04	0	2	4	2002	2012	11	3
216	WESP073	23786	199218	177	4	WES	Westhoek	2	1	1	1	3	1	5.77	5.79	1.85	0.5	1.58	4	2002	2012	11	3
217	WESP074	23953	199593	177	4	WES	Westhoek	2	1	1	1	3	1	4.94	4.98	1.55	0	1.51	4	2002	2012	11	3
218	WESP076	24198	199292	177	4	WES	Westhoek	2	1	1	1	3	1	6.82	6.84	2.55	0.5	2.28	4	2002	2012	11	3
219	WESP078	23436	199686	177	4	WES	Westhoek	2	1	1	1	3	1	6.41	6.41	3.02	0.5	2.77	4	2008	2015	8	3
220	WESP080	24394	199119	177	4	WES	Westhoek	2	1	1	1	3	1	5.87	5.91	1.53	0.5	1.24	4	2002	2012	11	3
221	WESP097	23408	198956	177	4	WES	Westhoek	2	1	1	1	3	1	6.01	6.57	2.53	0.5	1.72	4	2002	2012	11	3
222	WESP111	23304	198193	177	4	WES	Westhoek	2	1	1	1	3	1	5.39	5.39	1.6	0.5	1.35	4	2002	2012	11	3
223	WESP119	23171	198331	177	4	WES	Westhoek	2	1	1	1	3	1	5.87	5.9	2.17	0.5	1.89	4	2002	2012	11	3
224	WESP132	22965	199052	177	4	WES	Westhoek	2	1	1	1	3	1	5.47	5.49	3.1	0.5	2.83	4	2002	2012	11	3
225	WESP134	22885	198920	177	4	WES	Westhoek	2	1	1	1	3	1	5.59	5.69	1	0.5	0.65	4	2003	2012	9	3
226	WESP141	22742	198998	177	4	WES	Westhoek	2	1	1	1	3	1	5.5	5.57	3.18	0.5	2.86	4	2002	2012	11	3
227	ZABP002	191587	198621	822	3	ZAB	Zammelsbroek	2	1	1	1	4	2	14.741	14.891	3.24	0.3	2.94	2	2002	2009	3	3
228	ZABP003	191644	198520	822	3	ZAB	Zammelsbroek	2	1	1	1	4	2	14.776	14.866	2.02	0.3	1.78	2	2002	2009	3	3
229	ZABP004	191712	198448	822	3	ZAB	Zammelsbroek	2	1	1	1	3	1	14.78	15.47	2.49	0.4	1.6	2	2002	2009	3	3
230	ZABP005	191734	198418	822	3	ZAB	Zammelsbroek	2	1	1	1	4	2	14.7	15.56	1.64	0.4	0.58	2	2009	2009	1	3
231	ZABP006	191153	198420	822	3	ZAB	Zammelsbroek	2	1	1	1	3	1	14.529	14.989	3.58	0.3	2.97	2	2002	2009	3	3
232	ZABP013	191535	198711	822	3	ZAB	Zammelsbroek	2	1	1	1	7	7	14.77	14.97	2.49	0.4	2.09	2	2009	2009	1	3
233	ZABP014	191421	198803	822	3	ZAB	Zammelsbroek	2	1	1	1	3	1	14.82	16.04	2.72	0.4	1.3	2	2009	2009	1	3
234	ZABP022	193188	199206	822	1	ZAB	Zammelsbroek	2	1	1	1	3	1	15.76	16.05	1.54	0.4	1.05	5	2009	2009	1	3
235	ZABP023	193145	199376	822	3	ZAB	Zammelsbroek	2	1	1	1	1	6	15.7	16.58	2.66	0.4	1.58	2	2009	2009	1	3
236	ZEBP001	68884	222381	693	3	ZEB	Zeebrugge	2	1	1	1	3	1	2.91	3.22	0.925	0.3	0.465	2	2011	2011	1	3
237	ZEBP003	69183	221033	693	3	ZEB	Zeebrugge	2	1	1	1	3	1	2.68	2.91	1.21	0.3	0.83	2	2011	2011	1	3
238	ZEBP005	69921	220751	693	3	ZEB	Zeebrugge	2	1	1	1	3	1	2.57	2.99	2.08	0	1.66	2	2011	2011	1	3
239	ZEBP009	69111	219114	693	2	ZEB	Zeebrugge	2	1	1	1	3	1	3.02	3.6	3	1	1.92	3	NA	NA	0	3
240	ZEBP012	69544	221380	693	3	ZEB	Zeebrugge	2	1	1	1	4	2	2.6	3.1	2	1	1	2	2011	2011	1	3
241	ZEBP019	69725	220669	693	3	ZEB	Zeebrugge	2	1	1	1	3	1	2.63	3.06	1.43	1	0.5	2	2011	2011	1	3
242	ZEBP025	69823	220300	693	3	ZEB	Zeebrugge	2	1	1	1	4	2	2.51	2.94	1.43	1	0.5	2	2011	2011	1	3
243	ZEBP045	69280	220151	693	3	ZEB	Zeebrugge	2	1	1	1	3	1	2.6408	3.2408	1.6	1	0.5	2	2014	2014	1	3
244	ZEBP046	69422	220210	693	3	ZEB	Zeebrugge	2	1	1	1	3	1	2.6282	3.3782	1.75	1	0.5	2	2014	2014	1	3
245	ZEBP107	65882	224517	693	2	ZEB	Zeebrugge	2	1	1	1	3	1	5.83	5.83	2.045	0.5	1.795	3	NA	NA	0	3
246	ZEMP005	158392	184259	710	4	ZEM	Zemst	2	1	1	1	3	1	7.663	8.223	3.08	0	2.52	4	2005	2010	6	3
247	ZIEP022	238643	180318	1010	3	ZIE	Ziepbeekvallei	2	1	1	1	3	1	68.515	68.945	1.15	0.3	0.57	2	2006	2016	9	3
248	ZIEP066	239204	181332	1010	3	ZIE	Ziepbeekvallei	2	1	1	1	3	1	55.95	56.32	1.76	1	0.89	2	2005	2016	12	3
249	ZIEP166	239204	181332	1010	3	ZIE	Ziepbeekvallei	2	1	1	1	3	1	55.939	56.289	4.35	2	3	2	2005	2016	12	3
250	ZIEP179	239177	180268	1010	3	ZIE	Ziepbeekvallei	2	1	1	1	4	2	56.114	56.494	2.4	1	1.52	2	2007	2016	8	3
251	ZUVP019	142606	164589	441	4	ZUV	Zuunvallei	2	1	1	1	5	4	23.92	24.47	3.05	1	2	4	NA	NA	0	3
252	ZUVP020	142603	164595	441	4	ZUV	Zuunvallei	2	1	1	1	5	4	23.58	24	2.92	1	2	4	NA	NA	0	3
253	ZWAP141	216785	198435	950	1	ZWA	Zwarte Beek	2	1	1	1	3	1	52.52	52.86	2.45	0.3	1.96	5	2007	2016	10	3
254	ZWAP165	216814	198362	950	1	ZWA	Zwarte Beek	2	1	1	1	3	1	52.41	52.86	1.35	0.3	0.75	5	2007	2016	10	3
255	ZWAP196	214282	197080	950	1	ZWA	Zwarte Beek	2	1	1	1	3	1	42.28	42.72	1.5	0.3	0.91	5	2007	2016	10	3
256	ZWAP200	217985	197987	950	1	ZWA	Zwarte Beek	2	1	1	1	3	1	63.003	63.663	2.55	0.3	1.74	5	2005	2016	12	3
257	ZWAP202	220114	197295	210	3	ZWA	Zwarte Beek	2	1	1	1	3	1	68.26	68.78	2.72	0.3	2.05	2	2004	2016	12	3
258	ZWAP208	218005	198226	950	1	ZWA	Zwarte Beek	2	1	1	1	3	1	59.288	59.938	1.9	0.3	1.1	5	2004	2016	13	3
259	ZWAP216	218514	198727	950	1	ZWA	Zwarte Beek	2	1	1	1	3	1	57.93	58.78	2.14	0.3	1.14	5	2004	2015	11	3
260	ZWAP228	217381	197149	950	3	ZWA	Zwarte Beek	2	1	1	1	3	1	63.265	63.655	1.68	0.3	1.14	2	2004	2016	9	3
261	ZWAP229	220479	196611	210	3	ZWA	Zwarte Beek	2	1	1	1	3	1	70.19	70.5	2.5	0.3	2.04	2	2007	2016	10	3
262	ZWAP234	217054	198920	950	3	ZWA	Zwarte Beek	2	1	1	1	3	1	57.699	58.209	1.76	0.3	1.1	2	2008	2016	6	3
263	ZWAP300	213086	204149	630	3	ZWA	Zwarte Beek	2	1	1	1	3	1	44.593	45.208	1.58	0.3	0.815	2	2013	2016	4	3
264	ZWAP301	213467	203688	630	3	ZWA	Zwarte Beek	2	1	1	1	3	1	47.298	47.738	1.63	0.5	0.94	2	2013	2016	4	3
265	ZWAP303	213435	204022	630	3	ZWA	Zwarte Beek	2	1	1	1	3	1	45.684	46.214	1.58	0.5	0.8	2	2015	2015	1	3
266	ZWAP305	214503	203705	630	3	ZWA	Zwarte Beek	2	1	1	1	3	1	49.791	50.271	2	0.5	1.27	2	2015	2016	2	3
267	ZWAP306	215123	203590	630	3	ZWA	Zwarte Beek	2	1	1	1	3	1	51.375	51.915	1.9	0.5	1.11	2	2015	2016	2	3
