loc_code	area_code	area_name	x	y	loc_validitycode	loc_validity	loc_typecode	loc_typename	groupnr	rasterid	filterdepth	soilsurf_ost	typegroup_name	obswell_statecode	obswell_state	measuringref_ost	tubelength	filterlength
ABEP119	ABE	Abeek	240908	208538	2	1	1	1	1	146	0.6	33.44	5	3	1	34.34	2	1
ABEP121	ABE	Abeek	240946	209037	2	1	1	1	1	146	1.58	33.81	5	3	1	34.68	2.95	1
ABEP122	ABE	Abeek	240978	209184	2	1	1	1	1	146	2.15	33.53	5	3	1	33.88	3	1
ABEP126	ABE	Abeek	239178	208571	2	1	1	1	1	146	1.44	34.88	5	3	1	35.89	2.95	1
ALMP001	ALM	Aalmoezenijbos / Aelmoeseneiebos / Gontrodebos	109770	185010	2	1	1	1	4	601	1.44	13.9	4	4	2	14.68	2.37	0.3
ALMP002	ALM	Aalmoezenijbos / Aelmoeseneiebos / Gontrodebos	109744	185010	2	1	1	1	4	601	1.05	13.42	4	4	2	13.8	1.58	0.3
ALMP003	ALM	Aalmoezenijbos / Aelmoeseneiebos / Gontrodebos	110287	185136	2	1	1	1	4	601	0.7	17.63	4	4	2	18.33	1.55	0.3
ARHP009	ARH	Aronst Hoek	203834	177051	1	2	1	1	2	486	1.95	24.01	3	6	3	24.31	2.4	0.3
ARHP010	ARH	Aronst Hoek	203804	177070	1	2	1	1	2	486	2.15	23.791	3	6	3	24.191	2.7	0.3
ASBP003	ASB	Asbeek	238036	179497	2	1	1	1	3	1010	0.95	75.391	2	3	1	75.931	1.64	0.3
AVEP007	AVE	Averbode	194071	191836	2	1	1	1	3	54	1.73	21.94	2	7	7	22.46	2.5	0.5
AVEP010	AVE	Averbode	194417	192701	2	1	1	1	3	54	2.83	21.69	2	4	2	22.61	4	0.5
AVEP032	AVE	Averbode	192603	192680	2	1	1	1	3	310	0.97	19.8	2	3	1	20.15	1.47	0.3
AVEP036	AVE	Averbode	194308	192708	2	1	1	1	3	54	2.5	21.981	2	1	6	22.731	3.5	0.5
BABP012	BAB	Barebeek	160190	180988	2	1	1	1	4	710	2.55	12.39	4	4	2	12.39	3.05	1
BEBP012	BEB	Bellebeek	133244	174908	2	1	1	1	3	505	1.7	13.91	2	7	7	13.91	2.2	1
BEBP013	BEB	Bellebeek	133268	174873	2	1	1	1	3	505	0.94	13.21	2	4	2	13.9	1.78	0.3
BELP001	BEL	de BelvÃ©dÃ¨re	28357	199975	2	1	1	1	4	177	1.85	4.371	4	3	1	5.341	2.97	0.3
BELP013	BEL	de BelvÃ©dÃ¨re	27594	199720	2	1	1	1	4	177	1.1	6.41	4	3	1	6.94	1.88	0.5
BOEP003	BOE	Boembeke	107334	170403	2	1	1	1	4	89	2.8	0	4	4	2	0.6	3.4	0
BRAP002	BRA	Bos van Ranst	163992	210550	2	1	1	1	4	918	0.24	9.19	4	4	2	9.56	1.22	1.22
BRAP003	BRA	Bos van Ranst	163755	210701	2	1	1	1	4	918	1.125	8.84	4	4	2	9.4	2.17	0.97
BRAP009	BRA	Bos van Ranst	165408	210432	2	1	1	1	4	918	0.61	9.24	4	5	4	9.93	1.9	1.2
BRAP102	BRA	Bos van Ranst	163992	210550	2	1	1	1	4	918	1.525	9.17	4	4	2	9.62	2.25	0.55
BTRP001	BTR	Bos ter Rijst	101924	164018	2	1	1	1	4	25	2.02	68.02	4	4	2	68.17	2.32	0.3
BUCP010	BUC	Buckenslinde	229690	170679	2	1	1	1	3	818	1.33	0	2	4	2	0.57	3.8	3.8
COOP001	COO	Coolhembos	146113	196127	2	1	1	1	1	233	1.25	1.96	5	3	1	2.56	2	0.3
DEMP007	DEM	de Merode-Herselt	190806	194941	2	1	1	1	1	822	2.07	15.85	5	3	1	16.34	2.71	0.3
DEMP011	DEM	de Merode-Herselt	190657	194916	2	1	1	1	1	822	1.85	15.76	5	3	1	15.76	2	0.3
DMLP048	DML	Dommel	221817	199801	2	1	1	1	3	210	1.39	65.524	2	3	1	66.114	2.23	0.5
DMLP049	DML	Dommel	221853	199865	2	1	1	1	3	210	0.81	65.318	2	3	1	65.838	1.58	0.5
DMLP050	DML	Dommel	221941	199986	2	1	1	1	3	210	1.72	65.665	2	3	1	66.265	2.57	0.5
DMLP248	DML	Dommel	221817	199801	2	1	1	1	3	210	0.805	65.514	2	3	1	66.114	2.21	1.61
DORP002	DOR	Dorent	154427	193391	2	1	1	1	3	790	1.15	3.8	2	4	2	4.94	2.44	0.3
DORP004	DOR	Dorent	154347	192887	2	1	1	1	3	790	1.67	3.58	2	2	5	3.98	2.22	0.3
DORP005	DOR	Dorent	154407	193044	2	1	1	1	3	790	1.13	3.56	2	4	2	4.25	1.97	0.3
DORP016	DOR	Dorent	158521	186074	2	1	1	1	3	790	1.81	7.35	2	4	2	8.07	2.68	0.3
DORP024	DOR	Dorent	154823	182431	2	1	1	1	4	710	2.56	9.8	4	1	6	10.17	3.08	0.3
DPBP007	DPB	Diepenbeek	221649	179772	2	1	1	1	2	306	2.01	-0.55	3	3	1	0	2.76	0.4
DUNP010	DUN	Dunbergbroek	178354	180655	2	1	1	1	4	134	1.81	15.714	4	3	1	16.054	2.4	0.5
DUNP011	DUN	Dunbergbroek	178562	180199	2	1	1	1	4	134	1.82	16.05	4	3	1	16.54	2.31	0
DUNP012	DUN	Dunbergbroek	178707	179625	2	1	1	1	4	134	1.53	18.29	4	3	1	19.08	2.32	0
DYLP018	DYL	Dijlevallei	169471	167314	2	1	1	1	4	262	2.03	28.16	4	3	1	28.55	2.57	0.3
DYLP020	DYL	Dijlevallei	169378	167510	2	1	1	1	3	262	1.74	27.24	2	3	1	27.48	2.23	0.5
DYLP021	DYL	Dijlevallei	169440	167581	2	1	1	1	3	262	2.06	27.89	2	3	1	28.21	2.53	0.3
DYLP029	DYL	Dijlevallei	169238	167404	2	1	1	1	2	262	1.29	27	3	3	1	27.42	1.86	0.3
DYLP037	DYL	Dijlevallei	169802	167510	2	1	1	1	4	582	0.97	27.99	4	3	1	28.42	1.55	0.3
DYLP038	DYL	Dijlevallei	169834	167707	2	1	1	1	4	582	1.36	27.75	4	4	2	28.24	2	0.3
DYLP064	DYL	Dijlevallei	169296	166832	2	1	1	1	3	262	0.95	27.12	2	3	1	27.39	1.37	0.3
DYLP066	DYL	Dijlevallei	169359	167629	2	1	1	1	3	262	2.205	27.165	2	3	1	27.435	2.625	0.3
DYLP070	DYL	Dijlevallei	169294	167490	2	1	1	1	3	262	1.64	27.47	2	3	1	27.84	2.16	0.3
DYLP071	DYL	Dijlevallei	169297	167489	2	1	1	1	3	262	1.46	27.24	2	3	1	27.65	2.02	0.3
DYLP072	DYL	Dijlevallei	169307	167493	2	1	1	1	3	262	1.61	27.13	2	3	1	27.55	2.18	0.3
DYLP073	DYL	Dijlevallei	169323	167496	2	1	1	1	3	262	1.61	27.22	2	3	1	27.61	2.15	0.3
DYLP080	DYL	Dijlevallei	169130	167736	2	1	1	1	4	262	1.78	27.37	4	3	1	27.74	2.3	0.3
DYLP081	DYL	Dijlevallei	169188	167724	2	1	1	1	3	262	1.91	27.07	2	3	1	27.36	2.35	0.3
DYLP082	DYL	Dijlevallei	169045	167592	2	1	1	1	4	262	1.65	28.1	4	3	1	28.73	2.43	0.3
DYLP083	DYL	Dijlevallei	169131	167557	2	1	1	1	4	262	1.81	27.53	4	3	1	28	2.43	0.3
DYLP086	DYL	Dijlevallei	168957	166994	2	1	1	1	4	262	1.71	27.45	4	3	1	27.98	2.39	0.3
DYLP087	DYL	Dijlevallei	169145	166917	2	1	1	1	3	262	1.96	27	2	4	2	27.4	2.51	0.3
DYLP090	DYL	Dijlevallei	169171	167071	2	1	1	1	3	262	1.39	26.7	2	3	1	27.11	1.95	0.3
DYLP093	DYL	Dijlevallei	169379	167872	2	1	1	1	3	262	1.58	26.891	2	3	1	27.101	2.04	0.5
DYLP098	DYL	Dijlevallei	168836	166696	2	1	1	1	3	262	0.85	26.786	2	3	1	27.226	1.54	0.5
DYLP099	DYL	Dijlevallei	168981	166780	2	1	1	1	3	262	1.235	26.862	2	3	1	27.252	1.88	0.51
DYLP104	DYL	Dijlevallei	169342	166912	2	1	1	1	3	262	1.41	27	2	3	1	26.9	1.46	0.3
DYLP109	DYL	Dijlevallei	169049	168137	2	1	1	1	4	262	2.82	27.66	4	3	1	28.13	3.44	0.3
DYLP110	DYL	Dijlevallei	168864	168173	2	1	1	1	4	262	2.83	27.8	4	4	2	28.17	3.35	0.3
DYLP139	DYL	Dijlevallei	169209	169293	2	1	1	1	4	262	1.99	25.83	4	4	2	25.95	2.26	0.3
DYLP156	DYL	Dijlevallei	169478	166091	2	1	1	1	3	262	1.84	28.092	2	3	1	28.432	2.33	0.3
DYLP157	DYL	Dijlevallei	169469	166259	2	1	1	1	2	262	1.85	27.73	3	4	2	28.05	2.32	0.3
DYLP159	DYL	Dijlevallei	169361	168086	2	1	1	1	3	262	2.73	26.46	2	4	2	27.37	3.79	0.3
DYLP174	DYL	Dijlevallei	168993	166493	2	1	1	1	3	262	0.11	25.98	2	3	1	26.36	0.74	0.5
FDBP001	FDB	Floordambos	156852	179102	2	1	1	1	4	710	1.03	15.15	4	3	1	15.89	2.02	0.5
FDBP002	FDB	Floordambos	157800	179226	2	1	1	1	4	710	1.03	15.76	4	3	1	16.5	2.02	0.5
FDBP003	FDB	Floordambos	156845	179098	2	1	1	1	4	710	0.54	15.04	4	3	1	15.79	1.79	1
FDBP004	FDB	Floordambos	156842	179102	2	1	1	1	4	710	0.63	15.34	4	3	1	16.11	1.9	1
FDBP104	FDB	Floordambos	156842	179102	2	1	1	1	4	710	1.99	15.33	4	3	1	16.29	3.1	0.3
FLOP004	FLO	Vijvers van Florival	169013	161968	2	1	1	1	2	262	1.25	31.74	3	4	2	32.47	2.13	0.3
GOBP004	GOB	Gorenbroek	201885	184397	2	1	1	1	2	166	2.11	20.0131	3	3	1	20.4131	2.66	0.3
GRSP003	GRS	Griesbroek	203794	204483	2	1	1	1	3	886	0.81	27.114	2	3	1	27.714	1.66	0.5
GRSP004	GRS	Griesbroek	203830	204305	2	1	1	1	3	886	1.21	26.787	2	3	1	27.347	2.02	0.5
GRSP005	GRS	Griesbroek	203821	204135	2	1	1	1	3	886	0.89	26.645	2	3	1	27.155	1.65	0.5
GSCP001	GSC	Groot Schietveld	167638	229848	2	1	1	1	3	478	1.8	17.75	2	7	7	18.45	3	1
GSCP002	GSC	Groot Schietveld	167621	229841	2	1	1	1	3	478	1.48	17.78	2	4	2	18.53	2.73	1
GSCP003	GSC	Groot Schietveld	167616	229839	2	1	1	1	3	478	2.05	17.57	2	1	6	18.02	3	1
GSCP006	GSC	Groot Schietveld	167534	229824	2	1	1	1	3	478	1.95	18.16	2	4	2	18.36	2.3	0.3
GSCP007	GSC	Groot Schietveld	167540	229836	2	1	1	1	3	478	1.97	18.25	2	3	1	18.43	2.3	0.3
GSCP008	GSC	Groot Schietveld	167490	229826	2	1	1	1	3	478	2.22	18.4	2	4	2	18.77	2.84	0.5
GSCP009	GSC	Groot Schietveld	167459	229809	2	1	1	1	3	478	1.45	0	2	4	2	0.8	2.5	0.5
GSCP010	GSC	Groot Schietveld	167656	229861	2	1	1	1	3	478	1.77	17.87	2	4	2	18.6	3	1
GSCP011	GSC	Groot Schietveld	167660	229863	2	1	1	1	3	478	1.7	17.65	2	3	1	18.45	3	1
GSCP012	GSC	Groot Schietveld	167675	229876	2	1	1	1	3	478	1.61	17.64	2	4	2	18.53	3	1
GSCP015	GSC	Groot Schietveld	167670	229195	2	1	1	1	3	478	2.74	18.68	2	4	2	19.44	4	1
GSCP016	GSC	Groot Schietveld	167665	229198	2	1	1	1	3	478	2.92	18.47	2	3	1	19.05	4	1
GSCP017	GSC	Groot Schietveld	167657	229201	2	1	1	1	3	478	1.66	18.51	2	4	2	19.01	2.41	0.5
GSCP018	GSC	Groot Schietveld	167646	229194	2	1	1	1	3	478	1.83	18.39	2	7	7	18.81	2.5	0.5
GSCP019	GSC	Groot Schietveld	167677	229190	2	1	1	1	3	478	1.7	17.91	2	4	2	18.71	3	1
GSCP020	GSC	Groot Schietveld	167682	229188	2	1	1	1	3	478	2.23	18.5	2	4	2	18.52	2.5	0.5
GSCP021	GSC	Groot Schietveld	167691	229182	2	1	1	1	3	478	1.67	18.31	2	3	1	18.89	2.5	0.5
GSCP024	GSC	Groot Schietveld	168020	229769	2	1	1	1	3	478	1.78	19.06	2	4	2	19.69	2.56	0.3
GSCP034	GSC	Groot Schietveld	165256	226975	2	1	1	1	3	478	1.07	23.05	2	4	2	23.53	1.7	0.3
GSCP035	GSC	Groot Schietveld	165244	226881	2	1	1	1	3	478	0.7	21.56	2	4	2	22.45	1.74	0.3
GSCP042	GSC	Groot Schietveld	165107	228843	2	1	1	1	3	478	1.889	20.45	2	3	1	20.62	2.209	0.3
GSCP050	GSC	Groot Schietveld	165107	228842	2	1	1	1	3	478	0.7415	20.41	2	4	2	20.62	1.693	1.483
GSCP068	GSC	Groot Schietveld	165075	228761	2	1	1	1	3	478	0.68	20.455	2	3	1	21.205	1.67	0.48
GSCP168	GSC	Groot Schietveld	165075	228761	2	1	1	1	3	478	2.44	20.495	2	3	1	21.085	3.26	0.46
HAGP019	HAG	Hageven	224064	217725	2	1	1	1	2	274	1.811	34.401	3	4	2	34.611	2.271	0.5
HAGP023	HAG	Hageven	222955	217220	2	1	1	1	3	274	1.87	35.77	2	4	2	36.08	2.33	0.3
HAGP038	HAG	Hageven	223537	217590	2	1	1	1	3	274	1.106	34.386	2	4	2	34.536	1.506	0.5
HAGP073	HAG	Hageven	222789	216198	2	1	1	1	2	274	1.48	36.35	3	4	2	36.43	1.81	0.5
HAGP076	HAG	Hageven	223030	216871	2	1	1	1	3	274	1.78	35.169	2	7	7	35.439	2.2	0.3
HAGP077	HAG	Hageven	223081	216846	2	1	1	1	3	274	1.5	36.81	2	7	7	36.81	2	1
HAGP100	HAG	Hageven	222955	217220	2	1	1	1	3	274	1.566	35.668	2	3	1	35.852	1.9	0.3
HAGP101	HAG	Hageven	223787	217925	2	1	1	1	3	274	1.48	34.023	2	3	1	34.243	1.85	0.3
HALP001	HAL	Hallerbos	143431	155389	2	1	1	1	4	185	1.87	74.762	4	4	2	74.902	2.16	0.3
HALP002	HAL	Hallerbos	143429	155341	2	1	1	1	4	185	1.62	74.36	4	3	1	74.74	2.15	0.3
HALP005	HAL	Hallerbos	144281	156162	2	1	1	1	4	185	1.81	68.573	4	3	1	68.673	2.06	0.3
HAYP001	HAY	Hayesbos	107209	163506	2	1	1	1	4	985	1.72	76.375	4	4	2	76.585	2.08	0.3
HBTP007	HBT	Helderbeekvallei Terril	212986	193133	2	1	1	1	3	694	1.75	33.026	2	3	1	33.586	2.46	0.3
HBTP008	HBT	Helderbeekvallei Terril	212972	193185	2	1	1	1	3	694	1.91	32.878	2	3	1	33.378	2.56	0.3
HBTP012	HBT	Helderbeekvallei Terril	213272	193218	2	1	1	1	3	694	1.3	33.784	2	3	1	34.334	2	0.3
HBTP013	HBT	Helderbeekvallei Terril	213305	193103	2	1	1	1	3	694	1.37	33.864	2	3	1	34.354	2.01	0.3
HEMP001	HEM	Heverleebos & Meerdaalbos	170255	165889	2	1	1	1	4	582	0.83	49.28	4	4	2	49.28	0.98	0.3
HEMP002	HEM	Heverleebos & Meerdaalbos	170255	165889	2	1	1	1	4	582	1.57	0	4	4	2	0.02	1.74	0.3
HEMP003	HEM	Heverleebos & Meerdaalbos	170255	165889	2	1	1	1	4	582	0.83	0	4	4	2	0.2	1.18	0.3
HEMP004	HEM	Heverleebos & Meerdaalbos	175255	165889	2	1	1	1	4	582	2.03	0	4	4	2	0.16	2.34	0.3
HIPP003	HIP	Hingense polders	142098	200326	2	1	1	1	3	745	2.3	1.26	2	4	2	2.21	3.5	0.5
HIPP004	HIP	Hingense polders	142171	200253	2	1	1	1	3	745	2.46	1.41	2	4	2	2.31	3.61	0.5
HIPP005	HIP	Hingense polders	142275	200052	2	1	1	1	3	745	1.95	1.26	2	4	2	2.31	3.25	0.5
HIPP006	HIP	Hingense polders	142463	199795	2	1	1	1	3	745	2.85	2.46	2	4	2	3.16	3.8	0.5
HIPP008	HIP	Hingense polders	143006	200372	2	1	1	1	3	745	2.37	1.55	2	4	2	2.56	3.63	0.5
HIPP009	HIP	Hingense polders	143054	200215	2	1	1	1	3	745	2.35	1.2	2	4	2	2.36	3.76	0.5
HIPP011	HIP	Hingense polders	143593	200953	2	1	1	1	3	745	2.59	1.11	2	1	6	2.25	3.98	0.5
HIPP012	HIP	Hingense polders	143650	200788	2	1	1	1	3	745	2.39	1.18	2	1	6	2.13	3.59	0.5
HIPP015	HIP	Hingense polders	144325	201199	2	1	1	1	3	745	2.35	1.13	2	4	2	1.85	3.32	0.5
HIPP016	HIP	Hingense polders	144362	201030	2	1	1	1	3	745	1.75	1.12	2	4	2	2.1	2.98	0.5
HIPP021	HIP	Hingense polders	144238	200533	2	1	1	1	3	745	2.27	1.02	2	4	2	1.9	3.4	0.5
HIPP106	HIP	Hingense polders	142463	199795	2	1	1	1	3	745	2.85	2.46	2	4	2	3.26	3.9	0.5
HOPP004	HOP	Hobokense Polder	148237	208881	2	1	1	1	2	297	2.09	3.27	3	4	2	3.49	2.51	0.4
HOSP014	HOS	Houtsaegerduinen/oosthoek	25947	200507	2	1	1	1	4	177	2.91	6.08	4	4	2	5.78	2.86	0.5
HOSP017	HOS	Houtsaegerduinen/oosthoek	26564	201197	2	1	1	1	4	177	2.01	5.71	4	4	2	5.61	2.16	0.5
HOSP021	HOS	Houtsaegerduinen/oosthoek	26432	200639	2	1	1	1	4	177	2.72	6.28	4	4	2	6.19	2.88	0.5
HOSP022	HOS	Houtsaegerduinen/oosthoek	26835	200536	2	1	1	1	4	177	2.91	9.19	4	4	2	9.09	3.06	0.5
HOSP025	HOS	Houtsaegerduinen/oosthoek	26022	200670	2	1	1	1	4	177	2.03	5.72	4	3	1	6.3	2.86	0.5
HOSP026	HOS	Houtsaegerduinen/oosthoek	25945	200361	1	2	1	1	4	177	1.66	5.9	4	3	1	5.9	1.91	0.5
HOSP051	HOS	Houtsaegerduinen/oosthoek	25960	199281	2	1	1	1	4	177	2.5275	5.57	4	3	1	5.97	3.08	0.305
HOSP055	HOS	Houtsaegerduinen/oosthoek	26198	199550	2	1	1	1	4	177	1.9	6.74	4	7	7	7.5	2.81	0.3
HOSP056	HOS	Houtsaegerduinen/oosthoek	26418	199310	2	1	1	1	4	177	1.27	5.75	4	4	2	6.37	2.04	0.3
HOSP057	HOS	Houtsaegerduinen/oosthoek	26628	199414	2	1	1	1	4	177	1.59	6.51	4	7	7	6.51	1.74	0.3
IJSP003	IJS	Ijsevallei	163141	164523	2	1	1	1	3	262	0.83	6.52	2	4	2	7.04	1.5	0.3
IJSP011	IJS	Ijsevallei	165317	164191	2	1	1	1	3	262	2.62	9.93	2	4	2	10.16	3	0.3
IJSP017	IJS	Ijsevallei	165468	164008	2	1	1	1	2	262	0.5	15.89	3	4	2	16.24	1	0.3
IJSP018	IJS	Ijsevallei	166990	166250	2	1	1	1	3	262	1.64	11.45	2	5	4	11.66	2	0.3
IJSP020	IJS	Ijsevallei	167025	166227	2	1	1	1	3	262	1.51	11.24	2	4	2	11.28	1.7	0.3
IJSP021	IJS	Ijsevallei	167035	166210	2	1	1	1	3	262	1.23	11.45	2	4	2	11.67	1.6	0.3
IJSP023	IJS	Ijsevallei	166813	166073	2	1	1	1	4	262	1.28	35.804	4	3	1	36.094	1.72	0.3
IJZP118	IJZ	Ijzermonding	37206	206984	2	1	1	1	4	817	1.65	5.327	4	3	1	5.327	1.9	0.5
IJZP119	IJZ	Ijzermonding	37343	207078	2	1	1	1	4	817	1.58	5.342	4	3	1	5.342	1.83	0.5
IJZP123	IJZ	Ijzermonding	37678	207119	2	1	1	1	4	817	2.76	6.631	4	3	1	6.681	3.06	0.5
IJZP125	IJZ	Ijzermonding	37810	207307	2	1	1	1	4	817	1.73	6.174	4	3	1	6.204	2.01	0.5
IJZP126	IJZ	Ijzermonding	36874	206635	2	1	1	1	4	817	1.81	5.331	4	3	1	5.391	2.12	0.5
IJZP127	IJZ	Ijzermonding	37973	207166	2	1	1	1	4	817	2.56	6.848	4	3	1	7.358	3.32	0.5
ITTP212	ITT	Itterbeekvallei	242307	202672	2	1	1	1	1	146	1.99	34.995	5	3	1	35.225	2.37	0.3
KALP022	KAL	Kalmthoutse heide	155356	230811	2	1	1	1	3	734	0.82	23.47	2	3	1	23.29	1.14	1
KALP050	KAL	Kalmthoutse heide	153881	233802	2	1	1	1	3	734	2.65	21.03	2	4	2	21.03	2.8	0.3
KALP051	KAL	Kalmthoutse heide	153822	233761	2	1	1	1	3	734	2.85	21.06	2	4	2	21.48	3.42	0.3
KALP052	KAL	Kalmthoutse heide	153822	233761	2	1	1	1	3	734	1.4	21.06	2	4	2	21.58	2.02	0.2
KALP053	KAL	Kalmthoutse heide	153781	233736	2	1	1	1	3	734	1.45	21.05	2	4	2	21.49	2.04	0.3
KALP057	KAL	Kalmthoutse heide	154722	232437	2	1	1	1	3	734	0.65	20.267	2	3	1	20.747	1.23	0.2
KALP059	KAL	Kalmthoutse heide	154754	232459	2	1	1	1	3	734	1.4	20.54	2	4	2	20.86	1.82	0.2
KALP060	KAL	Kalmthoutse heide	154702	232476	2	1	1	1	3	734	2.7	20.54	2	4	2	20.99	3.25	0.2
KALP062	KAL	Kalmthoutse heide	154553	230423	2	1	1	1	3	734	1.9	24.12	2	4	2	24.76	2.64	0.2
KALP063	KAL	Kalmthoutse heide	154669	230340	2	1	1	1	3	734	0.9	23.985	2	3	1	24.105	1.12	0.2
KALP081	KAL	Kalmthoutse heide	153881	233802	2	1	1	1	3	734	2.3	21.41	2	4	2	21.41	2.8	1
KALP082	KAL	Kalmthoutse heide	154210	234773	2	1	1	1	3	734	1	17.02	2	4	2	17.02	1.5	1
KALP136	KAL	Kalmthoutse heide	154423	234049	2	1	1	1	3	734	1.01	17.174	2	3	1	18.514	2.53	0.36
KALP137	KAL	Kalmthoutse heide	154350	234337	2	1	1	1	3	734	1.42	17.08	2	3	1	17.91	2.43	0.36
KALP247	KAL	Kalmthoutse heide	153225	232563	2	1	1	1	3	734	2.09	22.94	2	4	2	22.73	2.38	1
KALP252	KAL	Kalmthoutse heide	153253	233640	2	1	1	1	3	734	1.28	21.503	2	3	1	21.383	1.66	1
KALP262	KAL	Kalmthoutse heide	153225	232613	2	1	1	1	3	734	2.93	22.71	2	4	2	22.54	3.26	1
KALP268	KAL	Kalmthoutse heide	154000	233038	2	1	1	1	3	734	2.94	20.83	2	4	2	20.77	3.38	1
KALP329	KAL	Kalmthoutse heide	154525	233050	2	1	1	1	3	734	2.89	20.85	2	4	2	20.74	3.28	1
KALP341	KAL	Kalmthoutse heide	154988	231925	2	1	1	1	3	734	2.5	21.65	2	4	2	21.65	3	1
KASP003	KAS	Kastanjebos	168266	178321	2	1	1	1	4	198	2.04	21.99	4	1	6	22.35	2.55	0.3
KASP029	KAS	Kastanjebos	168357	178199	2	1	1	1	4	198	1.77	21.93	4	1	6	22.41	2.5	0.5
KASP031	KAS	Kastanjebos	168733	177878	2	1	1	1	4	198	2.5	23.142	4	3	1	23.622	3.48	1
KASP036	KAS	Kastanjebos	169162	178447	2	1	1	1	4	198	2.63	21.25	4	1	6	21.69	3.27	0.4
KBRP040	KBR	Polders van Kruibeke	146391	203727	2	1	1	1	2	297	1.54	1.731	3	3	1	2.311	2.37	0.5
KBRP056	KBR	Polders van Kruibeke	145855	202674	2	1	1	1	2	297	1.53	1.574	3	4	2	2.394	2.6	0.5
KBRP060	KBR	Polders van Kruibeke	145448	202168	2	1	1	1	2	233	1.89	1.693	3	3	1	2.233	2.68	0.5
KBRP083	KBR	Polders van Kruibeke	145832	204653	2	1	1	1	2	297	1.881	1.332	3	3	1	1.882	2.681	0.5
KEVP015	KEV	De Kevie	229074	163350	2	1	1	1	3	114	2.2	86.13	2	4	2	86.84	2.91	0
KLUP003	KLU	Kluysbos	119864	161359	2	1	1	1	4	217	0.68	44.73	4	4	2	45.12	1.32	0.5
KREP100	KRE	Krekelbroek-Demervallei	188286	187165	2	1	1	1	3	310	1.9	15.55	2	4	2	15.64	2.14	0.3
KREP101	KRE	Krekelbroek-Demervallei	188241	187258	2	1	1	1	3	310	1.56	15.17	2	4	2	15.26	1.8	0.3
KREP106	KRE	Krekelbroek-Demervallei	187677	187159	2	1	1	1	3	310	2.31	14.95	2	4	2	15.45	2.96	0.3
KREP110	KRE	Krekelbroek-Demervallei	187689	187117	2	1	1	1	3	310	2.09	15.15	2	4	2	15.92	3.01	0.3
KRZP001	KRZ	Kraanrijk	193818	189591	1	2	1	1	3	310	1.04	17.476	2	3	1	17.896	1.71	0.5
KSVP003	KSV	Klein Schietveld	158484	228503	2	1	1	1	3	734	0.6	26.49	2	3	1	27.15	1.41	0.3
KSVP008	KSV	Klein Schietveld	158579	227095	2	1	1	1	3	734	1.03	24.56	2	4	2	24.75	1.37	0.3
KSVP009	KSV	Klein Schietveld	159182	227481	2	1	1	1	3	734	2.24	25.04	2	4	2	25.52	2.87	0.3
KSVP011	KSV	Klein Schietveld	158553	227614	2	1	1	1	3	734	1.18	25.46	2	3	1	26	1.87	0.3
LAAP003	LAA	Laambroeken	218524	190066	2	1	1	1	3	694	1.91	40.153	2	4	2	40.583	2.49	0.3
LAVP021	LAV	Laanvallei	165628	161374	2	1	1	1	4	262	1.51	39.51	4	4	2	40.23	2.23	0
LAVP024	LAV	Laanvallei	166759	161765	2	1	1	1	3	262	1.87	37.17	2	4	2	37.5	2.2	0
LAVP033	LAV	Laanvallei	167104	162426	2	1	1	1	4	262	2.08	33.78	4	4	2	33.96	2.26	0
LAVP035	LAV	Laanvallei	167077	162535	2	1	1	1	4	262	1.35	35.78	4	4	2	36.51	2.08	0
LAVP044	LAV	Laanvallei	167871	163254	2	1	1	1	4	262	2.51	31.72	4	4	2	32.29	3.08	0
LAVP045	LAV	Laanvallei	167809	163289	2	1	1	1	4	262	1.56	31.64	4	4	2	32.36	2.28	0
LAVP046	LAV	Laanvallei	167738	163328	2	1	1	1	4	262	2.06	30.54	4	4	2	30.76	2.28	0
LAVP048	LAV	Laanvallei	167652	163370	2	1	1	1	3	262	1.54	31.47	2	4	2	32.2	2.27	0
LAVP055	LAV	Laanvallei	168301	163884	2	1	1	1	4	262	1.7	30.73	4	4	2	31.48	2.45	0
LAVP056	LAV	Laanvallei	168292	163913	2	1	1	1	3	262	2	30.48	2	4	2	30.74	2.26	0
LAVP059	LAV	Laanvallei	168181	164052	2	1	1	1	3	262	1.83	30.35	2	4	2	30.62	2.1	0
LAVP060	LAV	Laanvallei	168105	164098	2	1	1	1	3	262	1.87	31.09	2	4	2	31.41	2.19	0
LAVP072	LAV	Laanvallei	168486	165366	2	1	1	1	3	262	1.59	28.69	2	4	2	29.38	2.28	0
LAVP073	LAV	Laanvallei	168749	165502	2	1	1	1	2	262	2.04	28.23	3	4	2	28.46	2.27	0
LAVP080	LAV	Laanvallei	169100	164579	2	1	1	1	3	262	1.86	29.223	2	3	1	29.663	2.3	0
LAVP085	LAV	Laanvallei	169162	164308	2	1	1	1	3	262	1.71	29.3	2	3	1	29.91	2.32	0
LAVP116	LAV	Laanvallei	166143	161471	2	1	1	1	4	262	1.57	37.23	4	4	2	37.94	2.28	0
LAVP135	LAV	Laanvallei	165628	161374	2	1	1	1	4	262	2.73	39.51	4	4	2	39.99	3.21	0
LAVP136	LAV	Laanvallei	166759	161765	2	1	1	1	3	262	2.96	37.17	2	4	2	37.47	3.26	0
LAVP138	LAV	Laanvallei	167077	162535	2	1	1	1	4	262	2.66	35.78	4	4	2	36.34	3.22	0
LAVP140	LAV	Laanvallei	167946	163192	2	1	1	1	4	262	2.58	34.47	4	4	2	35.12	3.23	0
LAVP141	LAV	Laanvallei	167885	163221	2	1	1	1	4	262	1.52	32.19	4	4	2	32.94	2.27	0
LAVP142	LAV	Laanvallei	167684	163351	2	1	1	1	3	262	1.34	30.62	2	4	2	31.28	2	0
LDOP019	LDO	Langdonken	184754	191421	2	1	1	1	1	342	1.5	14.16	5	3	1	14.49	1.98	0.3
LDOP035	LDO	Langdonken	185221	191291	2	1	1	1	1	342	1.77	14.02	5	3	1	14.57	2.47	0.3
LDOP036	LDO	Langdonken	185321	190835	2	1	1	1	1	342	1.85	14.54	5	3	1	15.3	2.76	0.3
LDOP037	LDO	Langdonken	185392	190681	2	1	1	1	1	342	1.65	14.06	5	2	5	14.94	2.68	0.3
LDOP041	LDO	Langdonken	186424	191178	2	1	1	1	3	310	2.47	14.544	2	2	5	14.604	2.68	0.3
LDOP042	LDO	Langdonken	184750	191415	2	1	1	1	1	342	2.51	14.16	5	3	1	14.16	2.66	0.3
LEPP008	LEP	Lenspolder	34689	204482	2	1	1	1	4	817	1.77	5.21	4	5	4	5.36	1.92	0
LEPP009	LEP	Lenspolder	34664	204521	2	1	1	1	4	817	2.16	4.91	4	4	2	5.19	2.44	0
LEPP011	LEP	Lenspolder	34654	204481	2	1	1	1	4	817	1.22	4.66	4	4	2	5.56	2.12	0
LEPP054	LEP	Lenspolder	33922	204481	2	1	1	1	4	817	2.3	6.459	4	3	1	6.979	3.07	0.5
LEPP055	LEP	Lenspolder	34227	204458	2	1	1	1	4	817	2.18	6.094	4	3	1	6.244	2.58	0.5
LEPP056	LEP	Lenspolder	34269	204792	2	1	1	1	4	817	2.2	6.343	4	3	1	6.473	2.58	0.5
LEPP057	LEP	Lenspolder	34122	204598	2	1	1	1	4	817	2.08	6.11	4	3	1	6.11	2.33	0.5
LEPP058	LEP	Lenspolder	34067	204897	2	1	1	1	4	817	1.8	6.053	4	3	1	6.073	2.07	0.5
LEPP059	LEP	Lenspolder	34389	204628	2	1	1	1	4	817	2.29	5.867	4	3	1	5.867	2.54	0.5
LEPP101	LEP	Lenspolder	33801	204676	1	2	1	1	4	817	2.93	7.82	4	4	2	7.74	3.35	1
LEPP213	LEP	Lenspolder	34725	204559	2	1	1	1	4	817	1.01	5.075	4	4	2	5.5	2.14	1.41
LEUP001	LEU	De Leunen	201320	185975	2	1	1	1	3	54	0.6	20.09	2	4	2	20.67	1.33	0.3
LEUP004	LEU	De Leunen	200745	186600	2	1	1	1	3	54	1.025	-0.74	2	3	1	0	1.91	0.29
LEUP005	LEU	De Leunen	201075	186470	2	1	1	1	2	54	1.18	-0.74	3	3	1	0	2.07	0.3
LEUP006	LEU	De Leunen	201075	186405	2	1	1	1	2	54	0.43	-0.9	3	3	1	0	1.51	0.36
LEUP008	LEU	De Leunen	201300	186315	2	1	1	1	2	54	0.63	-0.79	3	3	1	0	1.57	0.3
LEUP009	LEU	De Leunen	201320	186255	2	1	1	1	2	54	0.575	-0.8	3	3	1	0	1.52	0.29
LEUP010	LEU	De Leunen	201430	186360	2	1	1	1	3	54	1.215	-0.71	2	3	1	0	2.07	0.29
LEUP011	LEU	De Leunen	201460	186300	2	1	1	1	3	54	0.855	-0.86	2	3	1	0	1.86	0.29
LEUP101	LEU	De Leunen	201320	185975	2	1	1	1	3	54	1.28	20.09	2	4	2	20.32	1.66	0.3
LOHP009	LOH	Lovenhoek	175532	213189	2	1	1	1	4	214	0.6	10.746	4	3	1	11.646	2.5	2
LOHP012	LOH	Lovenhoek	175820	212049	2	1	1	1	4	214	0.77	11.203	4	3	1	11.923	2.49	2
LOHP015	LOH	Lovenhoek	175526	211989	2	1	1	1	4	214	0.69	10.712	4	3	1	11.572	2.55	2
LOHP017	LOH	Lovenhoek	175233	213318	2	1	1	1	4	214	0.91	10.265	4	3	1	10.905	2.55	2
MANP003	MAN	Mangelbeekvallei	221073	193478	2	1	1	1	3	722	1.29	58.86	2	3	1	59.38	2.06	0.5
MANP004	MAN	Mangelbeekvallei	221068	193429	2	1	1	1	3	722	0.97	58.985	2	3	1	59.505	1.74	0.5
MANP005	MAN	Mangelbeekvallei	221073	193362	2	1	1	1	1	722	1.17	58.745	5	3	1	58.895	1.57	0.5
MANP029	MAN	Mangelbeekvallei	220497	193374	2	1	1	1	1	722	1.06	55.418	5	3	1	55.868	1.76	0.5
MANP031	MAN	Mangelbeekvallei	220570	193403	2	1	1	1	1	722	1.55	55.901	5	1	6	56.871	2.77	0.5
MANP105	MAN	Mangelbeekvallei	221073	193362	2	1	1	1	1	722	2.08	58.685	5	3	1	58.905	2.45	0.3
MATP003	MAT	De Maten	224779	181757	2	1	1	1	1	306	0.88	41.97	5	3	1	42.28	1.44	0.5
MATP004	MAT	De Maten	225098	182066	2	1	1	1	3	306	1.77	44.05	2	3	1	44.41	2.38	0.5
MATP005	MAT	De Maten	226220	183183	2	1	1	1	3	306	1.9	49.4	2	3	1	49.74	2.49	0.5
MATP006	MAT	De Maten	226190	183227	2	1	1	1	3	306	1.64	49.23	2	3	1	49.65	2.31	0.5
MATP010	MAT	De Maten	225128	182769	2	1	1	1	1	306	1.97	46.29	5	3	1	46.64	2.57	0.5
MATP011	MAT	De Maten	225382	182289	2	1	1	1	3	306	1.04	44.92	2	3	1	45.34	1.71	0.5
MATP013	MAT	De Maten	226425	182603	2	1	1	1	1	306	0.83	47.59	5	3	1	48.02	1.51	0.5
MATP014	MAT	De Maten	226291	182944	2	1	1	1	3	306	1.23	48.72	2	3	1	49.05	1.81	0.5
MATP015	MAT	De Maten	226040	183424	2	1	1	1	1	306	0.63	49.24	5	3	1	49.66	1.3	0.5
MATP017	MAT	De Maten	226823	183586	2	1	1	1	3	306	0.85	50.921	2	3	1	51.431	1.61	0.5
MAYP029	MAY	Malesbroek	193479	201817	2	1	1	1	3	822	0.43	18.121	2	4	2	18.691	2	2
MAYP030	MAY	Malesbroek	193486	201836	2	1	1	1	3	822	2.24	17.483	2	4	2	18.063	2.97	0.3
MECP003	MEC	Mechelse Heide	237152	185797	2	1	1	1	3	1010	0.8	89.06	2	4	2	89.61	1.45	0.2
MESP009	MES	Messelbroek-Demervallei	189705	187780	2	1	1	1	3	310	2.0560000000001	15.634	2	3	1	16.3279999999999	3	0.5
MESP010	MES	Messelbroek-Demervallei	189764	187691	2	1	1	1	3	310	1.63	16.04	2	3	1	16.46	2.3	0.5
MESP011	MES	Messelbroek-Demervallei	189837	187538	2	1	1	1	3	310	1.395	15.727	2	3	1	16.282	2.2	0.5
MESP100	MES	Messelbroek-Demervallei	189436	187381	2	1	1	1	3	310	2.2	15.44	2	5	4	15.43	2.34	0.3
MESP101	MES	Messelbroek-Demervallei	189422	187444	2	1	1	1	3	310	1.8	15.45	2	5	4	15.43	1.93	0.3
MESP102	MES	Messelbroek-Demervallei	189406	187538	2	1	1	1	3	310	1.79	15.43	2	5	4	15.44	1.95	0.3
MESP104	MES	Messelbroek-Demervallei	189369	187751	2	1	1	1	3	310	1.74	15.33	2	4	2	15.96	2.52	0.3
MOEP011	MOE	Moenebroeken	116115	166574	2	1	1	1	3	217	2.59	0	2	4	2	0.45	3.04	0
MOEP012	MOE	Moenebroeken	116130	166513	2	1	1	1	3	217	2.46	0	2	4	2	0.62	3.08	0
MOEP013	MOE	Moenebroeken	116146	166429	2	1	1	1	3	217	1.77	0	2	4	2	0.41	2.18	0
MOEP016	MOE	Moenebroeken	116231	166332	2	1	1	1	3	217	2.53	25.51	2	4	2	25.77	2.79	0
MOEP030	MOE	Moenebroeken	116473	166514	2	1	1	1	3	217	1.35	22.61	2	4	2	22.71	1.6	0.3
MOLP018	MOL	Molenbeekvallei	167135	177145	2	1	1	1	4	454	1.34	25.3	4	3	1	25.82	2.01	0.3
MOLP022	MOL	Molenbeekvallei	166595	176767	2	1	1	1	4	454	1.34	27.476	4	3	1	27.886	1.9	0.3
MOLP023	MOL	Molenbeekvallei	166621	176753	2	1	1	1	4	454	1.51	26.979	4	3	1	27.339	2.02	0.3
MOLP024	MOL	Molenbeekvallei	166641	176739	2	1	1	1	4	454	1.43	26.794	4	3	1	27.234	2.02	0.3
MOLP025	MOL	Molenbeekvallei	166664	176724	2	1	1	1	4	454	1.47	26.695	4	3	1	27.095	2.02	0.3
MOMP001	MOM	Mombeekvallei	218033	175477	2	1	1	1	3	230	2	33.75	2	3	1	34.21	2.61	0.3
MOMP002	MOM	Mombeekvallei	218031	175576	2	1	1	1	3	230	2.05	33.554	2	3	1	33.964	2.61	0.3
MOMP003	MOM	Mombeekvallei	217918	175452	2	1	1	1	3	230	1.65	33.79	2	5	4	33.79	1.8	0.3
MOMP004	MOM	Mombeekvallei	217913	175494	2	1	1	1	3	230	1.65	33.63	2	5	4	33.63	1.8	0.3
MOMP010	MOM	Mombeekvallei	218032	175555	2	1	1	1	3	230	2.4	33.63	2	5	4	33.73	3	1
MOMP011	MOM	Mombeekvallei	218028	175601	2	1	1	1	3	230	2.78	33.63	2	3	1	34.02	3.32	0.3
MOMP012	MOM	Mombeekvallei	218029	175631	2	1	1	1	3	230	2.62	33.663	2	3	1	34.013	3.12	0.3
MOMP013	MOM	Mombeekvallei	218029	175631	2	1	1	1	3	230	2.77	33.784	2	7	7	33.994	3.13	0.3
MOMP020	MOM	Mombeekvallei	220506	175297	2	1	1	1	3	50	1.65	36.752	2	3	1	37.302	2.4	0.4
MOMP028	MOM	Mombeekvallei	222496	174765	2	1	1	1	3	50	2.94	39.194	2	3	1	39.584	3.53	0.4
MOMP029	MOM	Mombeekvallei	218029	175625	2	1	1	1	3	230	2.77	33.784	2	3	1	33.994	3.13	0.3
MOSP001	MOS	De Most	210617	207077	2	1	1	1	1	630	1.03	35.85	5	3	1	35.95	1.28	0.3
MOSP003	MOS	De Most	210894	207017	2	1	1	1	1	630	0.935	36.529	5	3	1	37.179	1.735	0.3
MOSP004	MOS	De Most	210870	207068	2	1	1	1	1	630	1.27	36.015	5	3	1	37.265	2.67	0.3
MOSP015	MOS	De Most	212551	207735	1	2	1	1	1	630	1.26	39.662	5	3	1	40.102	1.95	0.5
MOSP016	MOS	De Most	212638	207858	1	2	1	1	1	630	0.83	39.831	5	3	1	40.501	1.75	0.5
MSBP001	MSB	Molenstedebroek	194922	187284	1	2	1	1	2	54	2.58	18.619	3	4	2	19.019	3.18	0.4
MSBP002	MSB	Molenstedebroek	194917	187270	2	1	1	1	2	54	1.8420000000001	18.599	3	3	1	19.1069999999999	2.6	0.5
MSBP003	MSB	Molenstedebroek	194861	187151	1	2	1	1	2	54	1.77	18.684	3	4	2	19.154	2.44	0.4
MSBP006	MSB	Molenstedebroek	194955	187335	2	1	1	1	2	54	1.886	18.446	3	3	1	18.91	2.6	0.5
MSBP007	MSB	Molenstedebroek	194938	187299	2	1	1	1	2	54	1.664	18.587	3	3	1	19.073	2.4	0.5
MSBP008	MSB	Molenstedebroek	194883	187199	2	1	1	1	2	54	1.3770000000001	18.513	3	3	1	19.3859999999999	2.5	0.5
MSBP009	MSB	Molenstedebroek	194851	187121	2	1	1	1	2	54	2.516	19.018	3	3	1	19.452	3.2	0.5
MSBP010	MSB	Molenstedebroek	195271	186803	2	1	1	1	3	54	2.601	18.911	2	3	1	19.76	3.7	0.5
MSBP011	MSB	Molenstedebroek	195263	186767	2	1	1	1	3	54	2.831	18.721	2	3	1	19.44	3.8	0.5
MSBP012	MSB	Molenstedebroek	195272	186690	2	1	1	1	3	54	2.8080000000001	18.591	2	3	1	19.3329999999999	3.8	0.5
MSBP013	MSB	Molenstedebroek	195275	186651	2	1	1	1	2	54	1.965	18.5859999999999	3	3	1	19.3709999999999	3	0.5
MSBP014	MSB	Molenstedebroek	195268	186601	2	1	1	1	2	54	2.0159999999999	18.6419999999999	3	3	1	19.376	3	0.5
NEIP001	NEI	Neigembos	128122	167393	2	1	1	1	4	57	1.23	0	4	3	1	0.31	1.79	0.5
NEIP002	NEI	Neigembos	128078	167410	2	1	1	1	4	57	0.85	0	4	3	1	0.45	1.55	0.5
NODP001	NOD	Noordduinen	28595	201274	2	1	1	1	4	177	1.78	9.15	4	4	2	9.52	2.65	1
NODP002	NOD	Noordduinen	28707	201026	2	1	1	1	4	177	1.65	8.48	4	4	2	8.93	2.6	1
NODP008	NOD	Noordduinen	27643	200695	2	1	1	1	4	177	2.93	10.26	4	4	2	10.38	3.55	1
NODP009	NOD	Noordduinen	28467	200980	2	1	1	1	4	177	2.67	9.6	4	3	1	9.67	3.24	1
NOZP007	NOZ	Noord-Zuid verbinding Hasselt Eindhoven	220381	189878	2	1	1	1	3	722	1.61	47.5	2	4	2	47.89	3	2
NOZP015	NOZ	Noord-Zuid verbinding Hasselt Eindhoven	218667	189626	2	1	1	1	3	722	0.5	40.62	2	4	2	41.12	2	2
NOZP019	NOZ	Noord-Zuid verbinding Hasselt Eindhoven	219440	193225	2	1	1	1	1	722	0.36	49.72	5	4	2	50.36	2	2
NUCP001	NUC	De Nuchten	120026	166333	2	1	1	1	3	217	0.92	12.82	2	4	2	14.22	2.47	0.3
NUCP004	NUC	De Nuchten	119819	165933	2	1	1	1	3	217	1.7	12.9034	2	4	2	13.3734	2.32	0.3
NUCP005	NUC	De Nuchten	120097	165667	2	1	1	1	3	217	1.8	12.7946	2	5	4	13.2946	2.45	0.3
ORCP002	ORC	De Orchis	139863	196974	2	1	1	1	3	745	0.69	4.82	2	4	2	4.92	0.94	0.3
ORCP003	ORC	De Orchis	139866	197010	2	1	1	1	3	745	0.65	4.81	2	4	2	4.87	0.86	0.3
ORCP011	ORC	De Orchis	139864	196932	2	1	1	1	3	745	1.14	4.793	2	4	2	5.903	2.4	0.3
ORCP012	ORC	De Orchis	139863	196973	2	1	1	1	3	745	0.95	4.89	2	4	2	4.9	1.11	0.3
ORCP013	ORC	De Orchis	139861	197002	2	1	1	1	3	745	1.11	4.808	2	4	2	4.808	1.26	0.3
OUSP001	OUS	Oude Schelde	138780	199540	2	1	1	1	3	745	1.6	1.14	2	5	4	1.88	2.59	0.5
PARP001	PAR	Parike-bos	109868	163433	2	1	1	1	4	985	1.6	75.43	4	4	2	76.25	2.67	0.5
PARP002	PAR	Parike-bos	109810	163492	2	1	1	1	4	985	2.02	63.41	4	3	1	63.82	2.68	0.5
PARP003	PAR	Parike-bos	109730	163542	2	1	1	1	4	985	1.98	54.05	4	3	1	54.27	2.45	0.5
PARP004	PAR	Parike-bos	109688	163551	2	1	1	1	4	985	1.79	55.43	4	5	4	55.85	2.59	0.76
PEUP002	PEU	Peutiebos	156147	179297	2	1	1	1	4	710	0.53	14.58	4	3	1	15.33	1.78	1
PEUP003	PEU	Peutiebos	156150	179299	2	1	1	1	4	710	0.81	14.73	4	3	1	15.5	2.08	1
PEUP005	PEU	Peutiebos	156036	179272	2	1	1	1	4	710	0.52	13.81	4	3	1	14.76	1.97	1
PEUP006	PEU	Peutiebos	156031	179271	2	1	1	1	4	710	0.57	14.03	4	3	1	14.67	1.71	1
PEUP103	PEU	Peutiebos	156150	179299	2	1	1	1	4	710	2.48	14.73	4	3	1	15.68	3.58	0.3
PEUP106	PEU	Peutiebos	156031	179271	2	1	1	1	4	710	2.7	14.08	4	3	1	15.15	3.92	0.3
POMP001	POM	De Pomperik	224808	178801	2	1	1	1	3	306	1.19	34.592	2	5	4	34.892	1.74	0.5
POMP002	POM	De Pomperik	224883	178691	2	1	1	1	3	306	1.41	35.095	2	4	2	35.315	1.88	0.5
POMP003	POM	De Pomperik	224934	178616	2	1	1	1	3	306	1.199	34.779	2	4	2	35.329	1.999	0.5
POMP004	POM	De Pomperik	225109	178542	2	1	1	1	3	306	1.47	34.778	2	3	1	35.078	2.02	0.5
POMP005	POM	De Pomperik	225048	178511	2	1	1	1	3	306	1.581	34.981	2	3	1	35.181	2.031	0.5
POMP008	POM	De Pomperik	224725	178351	2	1	1	1	3	306	1.4	34.981	2	4	2	35.081	1.75	0.5
POMP009	POM	De Pomperik	224590	178399	2	1	1	1	3	306	1.68	35.34	2	4	2	35.86	2.35	0.3
POMP010	POM	De Pomperik	224752	178914	2	1	1	1	3	306	1.43	34.622	2	4	2	35.342	2.3	0.3
RASP001	RAS	Raspaillebos	120085	162768	2	1	1	1	4	217	2.32	68.994	4	3	1	69.404	2.98	0.5
RASP002	RAS	Raspaillebos	120111	162861	2	1	1	1	4	217	0.81	56.155	4	3	1	56.755	1.66	0.5
RASP003	RAS	Raspaillebos	120002	163028	2	1	1	1	4	217	1.07	40.612	4	3	1	40.862	1.57	0.5
ROCP001	ROC	Roost - Craeywinckel	192515	196189	2	1	1	1	3	822	1.96	16.16	2	4	2	16.16	2.96	2
ROCP002	ROC	Roost - Craeywinckel	192495	196279	2	1	1	1	3	822	1.3	15.52	2	4	2	15.52	2.3	2
ROCP003	ROC	Roost - Craeywinckel	192495	196279	2	1	1	1	3	822	2.3	15.52	2	4	2	15.52	3.3	2
ROCP004	ROC	Roost - Craeywinckel	192569	196343	2	1	1	1	1	822	1.02	15.36	5	4	2	15.36	2.02	2
ROCP005	ROC	Roost - Craeywinckel	192562	196406	2	1	1	1	1	822	1.09	15.42	5	4	2	15.42	2.09	2
ROCP006	ROC	Roost - Craeywinckel	192560	196450	2	1	1	1	1	822	1.3	15.49	5	4	2	15.49	2.3	2
ROCP008	ROC	Roost - Craeywinckel	191942	197374	2	1	1	1	1	822	1.26	15.03	5	5	4	15.03	2.26	2
ROCP011	ROC	Roost - Craeywinckel	191779	197287	2	1	1	1	3	822	1.24	15.01	2	4	2	15.01	2.24	2
RODP002	ROD	Rodebos & Laanvallei	167156	162286	2	1	1	1	2	262	1.56	32.49	3	4	2	32.74	1.91	0.2
RODP004	ROD	Rodebos & Laanvallei	167301	162414	2	1	1	1	2	262	1	32.38	3	4	2	32.79	1.71	0.6
RODP005	ROD	Rodebos & Laanvallei	167408	162470	2	1	1	1	3	262	0.9	32.71	2	4	2	32.83	1.12	0.2
RODP019	ROD	Rodebos & Laanvallei	167632	162097	2	1	1	1	4	262	0.8	58.47	4	3	1	59.05	1.53	0.3
RODP020	ROD	Rodebos & Laanvallei	167683	162094	2	1	1	1	4	262	0.4	57.72	4	4	2	57.89	0.87	0.6
RODP021	ROD	Rodebos & Laanvallei	167663	162160	2	1	1	1	4	262	0.55	58.31	4	4	2	58.96	1.65	0.9
RODP022	ROD	Rodebos & Laanvallei	167621	162249	2	1	1	1	4	262	0.4	58.32	4	4	2	58.5	0.88	0.6
RODP023	ROD	Rodebos & Laanvallei	167614	162262	2	1	1	1	4	262	0.4	58.1	4	4	2	58.23	0.83	0.6
RODP024	ROD	Rodebos & Laanvallei	167611	162290	2	1	1	1	4	262	0.4	56.85	4	4	2	57.11	0.96	0.6
RODP025	ROD	Rodebos & Laanvallei	167592	162171	2	1	1	1	4	262	0.4	45.48	4	4	2	45.7	0.92	0.6
RODP026	ROD	Rodebos & Laanvallei	167574	162176	2	1	1	1	4	262	0.45	44.95	4	4	2	45.29	1.14	0.7
RODP027	ROD	Rodebos & Laanvallei	167678	162402	2	1	1	1	4	262	0.64	61.322	4	3	1	61.542	1.01	0.3
RODP028	ROD	Rodebos & Laanvallei	167741	162524	2	1	1	1	4	262	1.1	52.02	4	4	2	52.49	1.67	0.2
RODP029	ROD	Rodebos & Laanvallei	167544	162467	2	1	1	1	4	262	1.25	34.1	4	4	2	34.67	2.37	1.1
RODP030	ROD	Rodebos & Laanvallei	167495	162438	2	1	1	1	4	262	1	33.04	4	4	2	33.5	1.76	0.6
RODP031	ROD	Rodebos & Laanvallei	167247	162188	2	1	1	1	4	262	1.3	33.94	4	4	2	34.16	1.82	0.6
RODP042	ROD	Rodebos & Laanvallei	167156	162287	2	1	1	1	2	262	0.15	33.073	3	3	1	33.613	0.94	0.5
RODP049	ROD	Rodebos & Laanvallei	167290	162239	2	1	1	1	4	262	1.3	33.39	4	4	2	34.11	2.32	0.6
RODP055	ROD	Rodebos & Laanvallei	167199	162280	2	1	1	1	3	262	2.25	32.41	2	4	2	32.83	2.92	0.5
RODP056	ROD	Rodebos & Laanvallei	167200	162279	2	1	1	1	3	262	0.4	32.43	2	4	2	32.57	0.84	0.6
RODP057	ROD	Rodebos & Laanvallei	167688	162048	2	1	1	1	4	262	0.4	57.21	4	4	2	57.35	0.84	0.6
RODP058	ROD	Rodebos & Laanvallei	167672	162024	2	1	1	1	4	262	0.4	58.45	4	4	2	58.85	1.1	0.6
RODP059	ROD	Rodebos & Laanvallei	167116	162321	2	1	1	1	4	262	1.1	33.59	4	4	2	33.67	2.18	2
ROGP001	ROG	De Rot Gaten	165252	175372	2	1	1	1	4	454	1.05	33.72	4	3	1	34.76	2.34	0.5
ROTP003	ROT	Rotbroek	200403	185618	2	1	1	1	2	166	1.29	19.306	3	3	1	19.546	1.68	0.3
SANP006	SAN	Schansbeemden	216032	191815	2	1	1	1	1	694	1.99	36.53	5	4	2	36.79	2.4	0.3
SAUP003	SAU	Schauselbroek	140571	201273	2	1	1	1	3	745	2.45	1.23	2	4	2	2.11	3.58	0.5
SAUP004	SAU	Schauselbroek	140579	201399	2	1	1	1	3	745	2.75	1.24	2	4	2	2.16	3.92	0.5
SAUP005	SAU	Schauselbroek	142007	201371	2	1	1	1	3	745	1.75	0.94	2	4	2	1.4	2.46	0.5
SAUP006	SAU	Schauselbroek	142013	201247	2	1	1	1	3	745	1.25	0.98	2	4	2	1.94	2.46	0.5
SAUP008	SAU	Schauselbroek	141345	201073	2	1	1	1	3	745	2	1.6	2	4	2	2.63	3.28	0.5
SAUP009	SAU	Schauselbroek	141295	201308	2	1	1	1	3	745	1.9	1.48	2	4	2	2.39	3.05	0.48
SBBP002	SBB	Steenbergse bossen	109983	170962	2	1	1	1	4	89	1.19	51.227	4	4	2	52.147	2.26	0.3
SCPP003	SCP	Scheps	206780	204120	2	1	1	1	2	886	1.64	30.44	3	4	2	30.44	1.79	0.3
SCPP006	SCP	Scheps	206669	204777	2	1	1	1	3	886	1.23	30.14	2	4	2	30.14	1.38	0.3
SCPP009	SCP	Scheps	206385	205021	2	1	1	1	3	886	0.19	30.844	2	4	2	31.134	0.63	0.3
SCPP010	SCP	Scheps	206425	204977	2	1	1	1	3	886	1.93	30.554	2	4	2	30.994	2.52	0.3
SCPP012	SCP	Scheps	206440	204947	2	1	1	1	3	886	2.04	30.131	2	4	2	30.581	2.64	0.3
SCPP013	SCP	Scheps	206464	204931	2	1	1	1	3	886	1.17	30.7	2	4	2	30.7	2.17	2
SCPP014	SCP	Scheps	206530	204894	2	1	1	1	3	886	1.33	30.13	2	4	2	30.13	2.33	2
SCPP016	SCP	Scheps	206565	204814	2	1	1	1	3	886	1.46	30.349	2	4	2	30.349	2.46	2
SCPP018	SCP	Scheps	206606	204764	2	1	1	1	3	886	1.87	30.07	2	4	2	30.65	2.6	0.3
SCPP021	SCP	Scheps	204705	204248	2	1	1	1	3	886	1.58	28.057	2	4	2	28.487	2.01	0
SCPP024	SCP	Scheps	206720	204096	2	1	1	1	3	886	1.27	30.309	2	3	1	30.899	1.86	0
SCPP025	SCP	Scheps	206960	204244	2	1	1	1	2	886	1.53	30.348	3	1	6	31.348	2.53	0
SCPP033	SCP	Scheps	205281	204334	2	1	1	1	3	886	1.52	28.721	2	3	1	29.231	2.03	0
SCPP034	SCP	Scheps	205513	204333	2	1	1	1	2	886	1.13	28.688	3	3	1	29.538	1.98	0
SCPP035	SCP	Scheps	205616	204216	2	1	1	1	3	886	1.44	28.956	2	3	1	29.336	1.82	0
SCPP036	SCP	Scheps	205976	204000	2	1	1	1	3	886	1.78	29.74	2	3	1	29.94	1.98	0
SCPP039	SCP	Scheps	206669	204706	2	1	1	1	3	886	1.7	30.22	2	3	1	30.8	2.28	0
SCPP040	SCP	Scheps	206707	204679	2	1	1	1	3	886	1.35	30.811	2	3	1	31.331	1.87	0
SCPP042	SCP	Scheps	205315	204593	2	1	1	1	3	886	1.41	29.23	2	3	1	29.69	1.87	0
SCPP043	SCP	Scheps	207040	205023	2	1	1	1	2	886	0.87	30.58	3	3	1	30.89	1.18	0
SCPP047	SCP	Scheps	206640	204635	2	1	1	1	3	886	1.4	30.541	2	3	1	31.651	2.51	0
SCPP050	SCP	Scheps	207566	205767	2	1	1	1	3	886	1.52	31.687	2	3	1	31.827	1.66	0
SCPP051	SCP	Scheps	206919	205056	2	1	1	1	2	886	1.99	30.547	3	3	1	31.147	2.59	0
SCPP053	SCP	Scheps	206468	204256	2	1	1	1	3	886	1.78	29.875	2	3	1	30.135	2.04	0
SCPP125	SCP	Scheps	206960	204254	2	1	1	1	2	886	1.38	30.348	3	3	1	30.968	2	0
SCPP222	SCP	Scheps	206505	203934	2	1	1	1	3	886	1	30.22	2	3	1	30.08	1.36	1
SHHP010	SHH	Schietveld Houthalen Hechteren	223722	193350	2	1	1	1	3	722	1.67	73.46	2	4	2	74.15	2.51	0.3
SHHP030	SHH	Schietveld Houthalen Hechteren	226024	192266	2	1	1	1	1	722	1.92	75.96	5	3	1	76.58	2.68	0.28
SHHP031	SHH	Schietveld Houthalen Hechteren	226046	192220	2	1	1	1	3	722	0.89	76.01	2	3	1	76.69	1.72	0.3
SHHP032	SHH	Schietveld Houthalen Hechteren	226069	192196	2	1	1	1	3	722	1.26	76.15	2	3	1	76.75	2.11	0.5
SHHP035	SHH	Schietveld Houthalen Hechteren	225904	194393	2	1	1	1	3	210	1.935	77.691	2	3	1	78.211	2.68	0.45
SILP001	SIL	Silsombos	164454	178441	2	1	1	1	4	198	1.2	0	4	3	1	0.25	1.6	0.3
SILP004	SIL	Silsombos	164843	178240	2	1	1	1	4	198	1.36	20.684	4	3	1	21.084	1.91	0.3
SILP005	SIL	Silsombos	164955	178160	2	1	1	1	4	198	0.37	0	4	4	2	0.46	0.98	0.3
SNOP022	SNO	Snoekengracht	183102	169452	2	1	1	1	4	390	1.41	57.25	4	3	1	57.54	1.85	0.3
SNOP025	SNO	Snoekengracht	183238	169448	2	1	1	1	4	390	0.87	56.26	4	3	1	56.63	1.39	0.3
SNOP028	SNO	Snoekengracht	183331	169488	2	1	1	1	4	390	1.09	56.36	4	3	1	56.62	1.5	0.3
SNOP029	SNO	Snoekengracht	183348	169465	2	1	1	1	4	390	1.02	56.19	4	3	1	56.49	1.47	0.3
SNOP031	SNO	Snoekengracht	183313	169446	2	1	1	1	4	390	0.76	56.32	4	3	1	56.65	1.24	0.3
SNOP032	SNO	Snoekengracht	183056	169524	2	1	1	1	4	390	1.9	57.89	4	3	1	58.18	2.34	0.3
SNOP033	SNO	Snoekengracht	183103	169551	2	1	1	1	4	390	1.62	57.62	4	3	1	58.25	2.4	0.3
SNOP126	SNO	Snoekengracht	183237	169449	2	1	1	1	4	390	2.93	56.28	4	3	1	56.51	3.31	0.3
SNOP129	SNO	Snoekengracht	183331	169489	2	1	1	1	4	390	2.85	56.33	4	3	1	56.61	3.28	0.3
SNYP001	SNY	Snijsselsbos	161216	182673	2	1	1	1	4	710	1.585	9.94	4	3	1	10.97	2.865	0.5
SNYP002	SNY	Snijsselsbos	161253	182552	2	1	1	1	4	710	2.475	9.94	4	3	1	10.77	3.555	0.5
SNYP003	SNY	Snijsselsbos	161267	182479	2	1	1	1	4	710	1.79	9.94	4	3	1	11.08	3.18	0.5
STAP050	STA	Stamprooierbroek incl de Zig &	242727	208039	2	1	1	1	1	146	1.98	32.213	5	3	1	33.223	2.99	0
STAP051	STA	Stamprooierbroek incl de Zig &	242726	208048	2	1	1	1	1	146	1.86	32.12	5	3	1	33.02	2.91	0.3
STAP052	STA	Stamprooierbroek incl de Zig &	242725	208068	2	1	1	1	1	146	2	32.15	5	3	1	33	3	0.3
STAP057	STA	Stamprooierbroek incl de Zig &	242728	207999	2	1	1	1	1	146	1.92	32.63	5	3	1	33.72	3.01	0
STAP058	STA	Stamprooierbroek incl de Zig &	242731	207989	2	1	1	1	1	146	1.78	32.35	5	3	1	33.43	3.01	0.3
STAP059	STA	Stamprooierbroek incl de Zig &	242737	207970	2	1	1	1	1	146	1.99	32.37	5	3	1	33.31	2.93	0
STAP060	STA	Stamprooierbroek incl de Zig &	242753	207932	2	1	1	1	1	146	1.66	32.28	5	3	1	33.46	2.99	0.3
STAP066	STA	Stamprooierbroek incl de Zig &	242982	207459	2	1	1	1	1	146	1.77	31.81	5	3	1	32.29	2.4	0.3
SWPP032	SWP	Scheldemeersen Wortegem-Petege	94675	169402	2	1	1	1	4	537	1.53	10.09	4	3	1	10.47	2.06	0.3
TEUP002	TEU	De Teut	223372	190531	2	1	1	1	1	722	1.48	61.77	5	3	1	62.22	2.08	0.3
TEUP004	TEU	De Teut	223586	190280	2	1	1	1	3	722	0.76	63.08	2	3	1	63.67	1.5	0.3
TEUP007	TEU	De Teut	224222	190968	2	1	1	1	1	722	0.88	67.26	5	5	4	67.83	1.6	0.3
TEUP008	TEU	De Teut	224227	190936	2	1	1	1	1	722	1.87	67.09	5	3	1	67.71	2.64	0.3
TEUP012	TEU	De Teut	226106	189053	2	1	1	1	1	722	0.97	66.41	5	4	2	66.99	1.7	0.3
TEUP013	TEU	De Teut	226111	189041	2	1	1	1	1	722	0.48	66.16	5	4	2	66.78	1.25	0.3
TEUP015	TEU	De Teut	226122	189016	2	1	1	1	1	722	0.68	66.36	5	4	2	66.93	1.4	0.3
TEUP016	TEU	De Teut	226129	189001	2	1	1	1	1	722	0.87	66.38	5	4	2	66.86	1.5	0.3
TEUP019	TEU	De Teut	222593	189365	2	1	1	1	3	722	1.58	59.21	2	3	1	59.65	2.17	0.3
TEUP022	TEU	De Teut	224536	189031	2	1	1	1	3	722	1.56	63.9	2	4	2	64.39	2.2	0.3
TEUP026	TEU	De Teut	224931	188926	2	1	1	1	3	722	1.25	63.471	2	3	1	63.551	1.48	0.3
TEUP028	TEU	De Teut	224721	188606	2	1	1	1	1	722	0.95	60.236	5	3	1	60.716	1.58	0.3
TEUP029	TEU	De Teut	224796	188489	2	1	1	1	3	722	0.75	59.95	2	4	2	60.75	1.7	0.3
TEUP034	TEU	De Teut	223395	188758	2	1	1	1	1	722	1.14	59.93	5	3	1	60.73	2.09	0.3
TEUP036	TEU	De Teut	225605	188405	2	1	1	1	3	722	1.2	64.79	2	3	1	65.34	1.9	0.3
TEUP038	TEU	De Teut	224754	188395	2	1	1	1	3	722	1.1	60.539	2	3	1	60.939	1.7	0.4
TEUP043	TEU	De Teut	223696	188700	2	1	1	1	1	722	1.41	59.753	5	3	1	60.053	1.86	0.3
TEUP044	TEU	De Teut	223773	188744	2	1	1	1	1	722	0.81	60.049	5	3	1	60.329	1.24	0.3
TEUP045	TEU	De Teut	225036	188792	2	1	1	1	3	722	0.89	62.007	2	3	1	62.697	1.73	0.3
TEUP046	TEU	De Teut	225067	188690	2	1	1	1	1	722	1.04	60.338	5	3	1	60.838	1.69	0.3
TEUP047	TEU	De Teut	225211	188652	2	1	1	1	1	722	1.02	60.874	5	3	1	61.304	1.6	0.3
TEUP113	TEU	De Teut	226110	189041	2	1	1	1	1	722	1.38	66.15	5	4	2	66.57	1.95	0.3
TEUP114	TEU	De Teut	226119	189022	2	1	1	1	1	722	1.59	66.18	5	4	2	66.74	2.3	0.3
TEUP116	TEU	De Teut	226128	189001	2	1	1	1	1	722	1.5	66.36	5	4	2	66.96	2.25	0.3
TIEP013	TIE	Militair domein Tielen	188220	218314	2	1	1	1	1	1014	2.01	17.935	5	3	1	18.685	2.91	0.3
TIEP026	TIE	Militair domein Tielen	189050	217720	2	1	1	1	1	1014	1.99	17.92	5	3	1	18.45	2.67	0.3
TIEP028	TIE	Militair domein Tielen	187768	217760	2	1	1	1	1	1014	1.04	18.809	5	3	1	19.409	1.85	0.42
TLAP001	TLA	Terlaemen & Weijerman	213998	188072	2	1	1	1	1	694	2.12	32.213	5	4	2	32.923	2.98	0.3
TLAP002	TLA	Terlaemen & Weijerman	214024	187912	2	1	1	1	1	694	0.63	32.576	5	4	2	33.076	1.28	0.3
TLAP003	TLA	Terlaemen & Weijerman	214025	187912	2	1	1	1	1	694	1.31	32.583	5	4	2	33.033	1.91	0.3
TLAP004	TLA	Terlaemen & Weijerman	214019	187879	2	1	1	1	3	694	2.06	32.845	2	4	2	33.295	2.66	0.3
TORP018	TOR	Torfbroek	162023	179712	2	1	1	1	4	198	0.27	16.313	4	3	1	16.963	1.07	0.3
TORP027	TOR	Torfbroek	162894	179560	2	1	1	1	4	198	1.75	18.14	4	4	2	18.42	2.18	0.3
TORP032	TOR	Torfbroek	161978	179464	2	1	1	1	4	198	1.645	0	4	4	2	0.635	2.53	0.5
TORP033	TOR	Torfbroek	161864	179502	2	1	1	1	4	198	1.66	0	4	4	2	0.58	2.49	0.5
TRIP001	TRI	Trimpontbos	108233	161429	2	1	1	1	4	985	1.17	59.88	4	4	2	60.88	2.32	0.3
TRIP002	TRI	Trimpontbos	108251	161454	2	1	1	1	4	985	1.28	57.21	4	4	2	58.16	2.38	0.3
TYDP004	TYD	Ter Yde	33126	203530	2	1	1	1	4	817	1.781	5.911	4	1	6	6.531	2.901	1
TYDP012	TYD	Ter Yde	33155	203402	2	1	1	1	4	817	2.5	5.94	4	3	1	6.23	2.94	0.3
TYDP035	TYD	Ter Yde	32750	204335	2	1	1	1	4	817	2.63	6.53	4	5	4	6.35	2.95	1
TYDP037	TYD	Ter Yde	33108	202708	2	1	1	1	4	817	2.36	6.239	4	1	6	6.239	2.51	0.3
TYDP042	TYD	Ter Yde	33186	202864	2	1	1	1	4	817	1.94	5.95	4	1	6	5.95	2.09	0.3
TYDP044	TYD	Ter Yde	33649	202936	2	1	1	1	4	817	2.95	6.474	4	3	1	7.024	3.75	0.5
TYDP054	TYD	Ter Yde	32617	203691	2	1	1	1	4	817	2.82	7.14	4	3	1	7.16	3.09	0.5
TYDP055	TYD	Ter Yde	32743	203672	2	1	1	1	4	817	1.36	6.862	4	4	2	6.762	1.46	0.4
TYDP057	TYD	Ter Yde	32283	204089	2	1	1	1	4	817	1.795	6.049	4	3	1	6.139	2.135	0.5
TYDP058	TYD	Ter Yde	32486	203672	2	1	1	1	4	817	1.71	6.706	4	4	2	6.726	1.98	0.5
TYDP059	TYD	Ter Yde	32669	203788	2	1	1	1	4	817	1.69	6.54	4	3	1	6.44	1.84	0.5
TYDP071	TYD	Ter Yde	33667	203943	2	1	1	1	4	817	1.41	5.41	4	4	2	5.46	1.71	0.5
TYDP072	TYD	Ter Yde	33571	203880	2	1	1	1	4	817	1.525	5.61	4	3	1	5.51	1.575	0.3
TYDP081	TYD	Ter Yde	32597	203158	2	1	1	1	4	817	2.465	6.291	4	3	1	6.451	2.875	0.5
TYDP083	TYD	Ter Yde	32289	203171	2	1	1	1	4	817	1.8	6.13	4	3	1	6.85	2.67	0.3
TYDP084	TYD	Ter Yde	31996	202988	2	1	1	1	4	817	1.98	6.151	4	3	1	6.901	2.88	0.3
TYDP101	TYD	Ter Yde	33380	203305	2	1	1	1	4	817	1.52	6.11	4	5	4	6.29	2.2	1
TYDP201	TYD	Ter Yde	33464	203479	2	1	1	1	4	817	1.22	5.315	4	4	2	5.575	1.705	0.45
TYDP203	TYD	Ter Yde	33046	203477	2	1	1	1	4	817	1.185	5.788	4	4	2	5.858	1.47	0.43
TYDP204	TYD	Ter Yde	33222	203448	2	1	1	1	4	817	1.79	5.51	4	3	1	5.6	2.13	0.5
TYDP206	TYD	Ter Yde	33673	203910	2	1	1	1	4	817	1.465	5.25	4	4	2	5.39	1.83	0.45
TYDP207	TYD	Ter Yde	33614	203986	2	1	1	1	4	817	1.08	5.524	4	3	1	5.524	1.32	0.48
TYDP211	TYD	Ter Yde	32561	203740	2	1	1	1	4	817	1.725	6.716	4	4	2	6.816	2.03	0.41
UKPP026	UKP	Uitkerkse Polder	64020	221053	2	1	1	1	3	693	1.54	2	2	4	2	2.26	2.3	1
UKPP029	UKP	Uitkerkse Polder	64241	219799	2	1	1	1	3	693	2	2.1	2	4	2	2.2	2.6	1
VDBP004	VDB	Vallei van de Drie Beken	198401	189278	2	1	1	1	3	54	0.92	19.69	2	3	1	20.43	1.86	0.4
VDBP006	VDB	Vallei van de Drie Beken	197919	190065	2	1	1	1	3	54	0.935	19.99	2	4	2	20.29	1.46	0.45
VDBP009	VDB	Vallei van de Drie Beken	203293	191869	2	1	1	1	3	438	1.04	22.49	2	4	2	22.76	1.51	0.4
VDBP010	VDB	Vallei van de Drie Beken	203247	191935	2	1	1	1	3	438	0.92	21.98	2	4	2	22.37	1.51	0.4
VDBP011	VDB	Vallei van de Drie Beken	203554	192681	2	1	1	1	3	438	0.995	22.31	2	4	2	23.31	2.23	0.47
VDBP018	VDB	Vallei van de Drie Beken	202838	192210	2	1	1	1	3	438	1.86	22.057	2	3	1	22.487	2.49	0.4
VDBP019	VDB	Vallei van de Drie Beken	202833	192220	2	1	1	1	3	438	1.536	21.67	2	4	2	22.49	2.556	0.4
VDBP023	VDB	Vallei van de Drie Beken	202886	192471	2	1	1	1	2	438	0.936	21.81	3	4	2	23.19	2.536	0.44
VDBP024	VDB	Vallei van de Drie Beken	202735	192560	2	1	1	1	2	438	1.36	21.605	3	3	1	22.245	2.23	0.46
VDBP025	VDB	Vallei van de Drie Beken	202703	192573	2	1	1	1	2	438	1.76	21.835	3	4	2	22.405	2.56	0.46
VDBP026	VDB	Vallei van de Drie Beken	202693	192575	2	1	1	1	2	438	1.725	21.213	3	4	2	21.783	2.51	0.43
VDBP027	VDB	Vallei van de Drie Beken	202679	192578	2	1	1	1	2	438	1.69	21.773	3	4	2	22.383	2.5	0.4
VDBP028	VDB	Vallei van de Drie Beken	202523	192645	2	1	1	1	3	438	1.186	21.82	2	4	2	22.87	2.416	0.36
VDBP029	VDB	Vallei van de Drie Beken	202514	192646	2	1	1	1	3	438	1.406	21.69	2	4	2	22.68	2.646	0.5
VDBP034	VDB	Vallei van de Drie Beken	202187	191485	2	1	1	1	3	54	0.88	21.44	2	3	1	21.81	1.45	0.4
VDBP060	VDB	Vallei van de Drie Beken	197708	189509	2	1	1	1	3	54	0.93	19.23	2	4	2	19.5	1.4	0.4
VDBP061	VDB	Vallei van de Drie Beken	197714	189500	2	1	1	1	3	54	1.22	19.6	2	4	2	19.82	1.64	0.4
VDBP062	VDB	Vallei van de Drie Beken	197720	189487	2	1	1	1	3	54	2.02	19.62	2	3	1	19.89	2.49	0.4
VDBP063	VDB	Vallei van de Drie Beken	197727	189480	2	1	1	1	3	54	2.09	19.19	2	4	2	19.44	2.55	0.42
VDBP064	VDB	Vallei van de Drie Beken	197749	189457	2	1	1	1	3	54	0.75	19.34	2	4	2	19.73	1.34	0.4
VDBP065	VDB	Vallei van de Drie Beken	197795	189310	2	1	1	1	3	54	1.39	19.52	2	4	2	20	2.1	0.46
VDBP066	VDB	Vallei van de Drie Beken	197802	189303	2	1	1	1	3	54	0.945	19.62	2	4	2	20.02	1.55	0.41
VDBP503	VDB	Vallei van de Drie Beken	202669	192582	2	1	1	1	2	438	1.13	21.665	3	4	2	22.015	1.63	0.3
VDBP505	VDB	Vallei van de Drie Beken	202867	192277	2	1	1	1	3	438	1.21	21.5	2	4	2	21.85	1.71	0.3
VDBP506	VDB	Vallei van de Drie Beken	202732	191923	2	1	1	1	3	438	1.46	21.73	2	4	2	22.02	1.9	0.3
VDBP507	VDB	Vallei van de Drie Beken	202452	193007	2	1	1	1	2	438	0.84	22.06	3	4	2	23.07	2	0.3
VDBP513	VDB	Vallei van de Drie Beken	202202	191476	2	1	1	1	3	54	1.7	31.7	2	4	2	31.95	2.1	0.3
VDBP514	VDB	Vallei van de Drie Beken	202304	191370	2	1	1	1	2	438	1.62	21.53	3	3	1	21.76	2	0.3
VDBP530	VDB	Vallei van de Drie Beken	197658	189602	2	1	1	1	3	54	1.47	19.63	2	4	2	19.83	1.82	0.3
VDBP531	VDB	Vallei van de Drie Beken	197880	189431	2	1	1	1	3	54	0.57	19.47	2	3	1	19.78	1.03	0.3
VDBP533	VDB	Vallei van de Drie Beken	197694	189541	2	1	1	1	3	54	0.73	19.38	2	4	2	20.6	2.1	0.3
VDBP534	VDB	Vallei van de Drie Beken	197776	189450	2	1	1	1	3	54	1.54	19.41	2	4	2	19.52	1.8	0.3
VDBP613	VDB	Vallei van de Drie Beken	202202	191474	2	1	1	1	3	54	2.89	31.89	2	4	2	31.95	3.1	0.3
VENP006	VEN	De Vennen	208317	206290	2	1	1	1	3	886	1.09	33.318	2	3	1	33.658	1.58	0.3
VENP009	VEN	De Vennen	208455	206286	2	1	1	1	3	886	1.31	32.53	2	4	2	32.89	1.67	0
VENP010	VEN	De Vennen	208440	206098	2	1	1	1	3	886	1.15	32.59	2	3	1	33.44	2	0
VIEP005	VIE	Vierkensbroek-Demervallei	193300	189420	2	1	1	1	3	310	1.28	17.14	2	4	2	17.4	1.54	0
VIEP006	VIE	Vierkensbroek-Demervallei	193300	189420	2	1	1	1	3	310	2.25	17.14	2	4	2	17.46	2.57	0
VIEP013	VIE	Vierkensbroek-Demervallei	193194	189388	2	1	1	1	3	310	1.79	16.8	2	4	2	17.36	2.5	0.3
VIEP014	VIE	Vierkensbroek-Demervallei	193193	189388	2	1	1	1	3	310	1.35	16.8	2	4	2	17.16	1.86	0.3
VIEP100	VIE	Vierkensbroek-Demervallei	192302	189472	2	1	1	1	3	310	1.08	16.66	2	4	2	16.86	1.43	0.3
VIEP101	VIE	Vierkensbroek-Demervallei	192299	189398	2	1	1	1	3	310	0.92	16.67	2	4	2	16.88	1.28	0.3
VIEP102	VIE	Vierkensbroek-Demervallei	192298	189310	2	1	1	1	3	310	0.89	16.7	2	4	2	16.95	1.29	0.3
VIEP103	VIE	Vierkensbroek-Demervallei	192303	189168	2	1	1	1	3	310	1.66	16.74	2	4	2	17.01	2.08	0.3
VIEP104	VIE	Vierkensbroek-Demervallei	192297	188970	2	1	1	1	2	310	1.49	16.78	3	4	2	17.38	2.24	0.3
VIEP105	VIE	Vierkensbroek-Demervallei	192266	188817	2	1	1	1	2	310	2.01	16.77	3	4	2	17.12	2.51	0.3
VIEP106	VIE	Vierkensbroek-Demervallei	192282	188686	2	1	1	1	2	310	1.69	16.8	3	4	2	17.15	2.19	0.3
VIEP107	VIE	Vierkensbroek-Demervallei	192278	188526	2	1	1	1	2	310	1.89	16.897	3	4	2	17.387	2.53	0.3
VIEP109	VIE	Vierkensbroek-Demervallei	192366	188433	2	1	1	1	3	310	1.9	16.95	2	4	2	16.94	2.04	0.3
VIEP114	VIE	Vierkensbroek-Demervallei	192192	189067	2	1	1	1	3	310	2.27	16.86	2	4	2	17.46	3.02	0.3
VIEP115	VIE	Vierkensbroek-Demervallei	192192	189068	2	1	1	1	3	310	1.27	16.83	2	4	2	16.91	1.5	0.3
VIEP116	VIE	Vierkensbroek-Demervallei	192303	189168	2	1	1	1	3	310	0.64	16.74	2	4	2	16.99	1.04	0.3
VIEP117	VIE	Vierkensbroek-Demervallei	192297	188970	2	1	1	1	2	310	0.55	16.78	3	4	2	16.91	0.83	0.3
VIEP118	VIE	Vierkensbroek-Demervallei	192266	188817	2	1	1	1	2	310	0.66	16.77	3	4	2	17.09	1.13	0.3
VIEP119	VIE	Vierkensbroek-Demervallei	193233	189313	2	1	1	1	3	310	2.32	17.02	2	4	2	17.02	2.47	0.3
VIEP120	VIE	Vierkensbroek-Demervallei	193254	189210	2	1	1	1	3	310	2.52	17.17	2	4	2	17.52	3.02	0.3
VIEP121	VIE	Vierkensbroek-Demervallei	193267	189148	2	1	1	1	3	310	2.42	17.17	2	4	2	17.39	2.79	0.3
VIEP124	VIE	Vierkensbroek-Demervallei	192877	189328	2	1	1	1	3	310	1.98	16.77	2	4	2	17	2.36	0.3
VIEP125	VIE	Vierkensbroek-Demervallei	192873	189251	2	1	1	1	3	310	1.97	16.9	2	4	2	17.12	2.34	0.3
VIEP126	VIE	Vierkensbroek-Demervallei	192870	189185	2	1	1	1	3	310	2.07	16.96	2	4	2	17.06	2.32	0.3
VIEP127	VIE	Vierkensbroek-Demervallei	192868	189134	2	1	1	1	3	310	2.02	16.8	2	4	2	16.96	2.33	0.3
VIEP128	VIE	Vierkensbroek-Demervallei	192861	189089	2	1	1	1	3	310	2.52	16.9	2	4	2	17.09	2.86	0.3
VIEP130	VIE	Vierkensbroek-Demervallei	193235	189364	2	1	1	1	3	310	2.07	17.32	2	4	2	17.58	2.48	0.3
VIEP131	VIE	Vierkensbroek-Demervallei	193234	189359	2	1	1	1	3	310	1.77	17.09	2	4	2	17.65	2.48	0.3
VIEP132	VIE	Vierkensbroek-Demervallei	193233	189355	2	1	1	1	3	310	1.83	17.01	2	4	2	17.55	2.52	0.3
VIEP134	VIE	Vierkensbroek-Demervallei	193238	189343	2	1	1	1	3	310	0.778000000000001	17.042	2	3	1	17.614	1.6	0.5
VIEP139	VIE	Vierkensbroek-Demervallei	192303	189479	2	1	1	1	3	310	0.92	16.79	2	4	2	17.22	1.5	0.3
VIEP141	VIE	Vierkensbroek-Demervallei	192301	189463	2	1	1	1	3	310	1.84	16.6	2	4	2	17.1	2.49	0.3
VIEP147	VIE	Vierkensbroek-Demervallei	192307	189045	2	1	1	1	3	310	2.25	17.06	2	4	2	17.36	2.8	0.5
VIEP155	VIE	Vierkensbroek-Demervallei	193260	189185	2	1	1	1	3	310	1.05	17.17	2	4	2	17.62	1.65	0.3
VIEP156	VIE	Vierkensbroek-Demervallei	192863	189223	2	1	1	1	3	310	0.94	16.96	2	4	2	17.32	1.45	0.3
VIEP161	VIE	Vierkensbroek-Demervallei	193243	189381	2	1	1	1	3	310	1.225	16.981	2	3	1	17.506	2	0.5
VIEP170	VIE	Vierkensbroek-Demervallei	192752	188826	2	1	1	1	3	310	1.61	16.98	2	4	2	17.05	1.83	0.3
VIEP171	VIE	Vierkensbroek-Demervallei	192746	188764	2	1	1	1	3	310	1.92	16.89	2	4	2	16.97	2.15	0.3
VIEP172	VIE	Vierkensbroek-Demervallei	192744	188736	2	1	1	1	3	310	1.99	16.85	2	4	2	16.93	2.22	0.3
VIEP173	VIE	Vierkensbroek-Demervallei	192713	188703	2	1	1	1	2	310	1.89	16.89	3	4	2	16.98	2.13	0.3
VIEP174	VIE	Vierkensbroek-Demervallei	192711	188697	2	1	1	1	2	310	1.92	16.79	3	4	2	16.92	2.2	0.3
VIEP177	VIE	Vierkensbroek-Demervallei	192624	189818	2	1	1	1	3	310	1.109	16.869	2	3	1	17.51	2	0.5
VIEP186	VIE	Vierkensbroek-Demervallei	193211	189829	2	1	1	1	3	310	1.387	17.3909999999999	2	3	1	18.0539999999999	2.3	0.5
VIEP187	VIE	Vierkensbroek-Demervallei	193188	189610	2	1	1	1	3	310	1.181	17.1389999999999	2	3	1	17.7079999999999	2	0.5
VIEP193	VIE	Vierkensbroek-Demervallei	193200	189728	2	1	1	1	3	310	1.145	17.175	2	3	1	17.78	2	0.5
VINP044	VIN	Het Vinne	203993	170797	2	1	1	1	2	486	1.31	25.771	3	3	1	26.181	1.87	0.3
VINP084	VIN	Het Vinne	203095	170251	2	1	1	1	2	486	1.88	26.27	3	7	7	26.64	2.5	0.5
VLBP001	VLB	Vlassenbroekse polder	134476	192715	2	1	1	1	3	169	1.35	1.66	2	3	1	2.69	2.68	0.6
VLBP003	VLB	Vlassenbroekse polder	134360	193488	2	1	1	1	3	169	2.59	2.49	2	4	2	3.24	3.64	0.6
VLBP008	VLB	Vlassenbroekse polder	134033	193680	2	1	1	1	3	169	1.15	2.3	2	4	2	3.44	2.44	0.3
VLBP009	VLB	Vlassenbroekse polder	134360	193487	2	1	1	1	3	169	1.56	2.54	2	4	2	3.17	2.49	0.6
VLBP011	VLB	Vlassenbroekse polder	134207	193027	2	1	1	1	3	169	1.89	2.13	2	4	2	2.5	2.41	0.3
VLBP012	VLB	Vlassenbroekse polder	134945	193069	2	1	1	1	3	169	2.22	1.91	2	4	2	2.46	3.02	0.5
VLBP025	VLB	Vlassenbroekse polder	135142	193040	2	1	1	1	3	169	1.305	1.77	2	4	2	2.02	1.73	0.35
VLBP026	VLB	Vlassenbroekse polder	135161	193053	2	1	1	1	3	169	1.175	1.75	2	3	1	2.08	1.68	0.35
VLBP125	VLB	Vlassenbroekse polder	135141	193047	2	1	1	1	3	169	2.705	1.65	2	3	1	2.05	3.28	0.35
VLBP126	VLB	Vlassenbroekse polder	135161	193053	2	1	1	1	3	169	2.595	1.81	2	3	1	2.14	3.1	0.35
VRIP009	VRI	Vrieselhof	166718	212654	2	1	1	1	1	918	2.35	7.85	5	4	2	8.45	3.1	0.3
VRIP011	VRI	Vrieselhof	166854	212640	2	1	1	1	1	918	1.57	7.77	5	4	2	8.13	2.08	0.3
VRIP013	VRI	Vrieselhof	166733	212477	2	1	1	1	1	918	1.61	7.83	5	4	2	8.16	2.09	0.3
VRIP039	VRI	Vrieselhof	166653	213046	1	2	1	1	1	918	1.71	8.247	5	3	1	8.417	2.03	0.3
WAHP711	WAH	Waaslandhaven	144524	214863	2	1	1	1	2	41	2.06	2.205	3	3	1	2.485	2.59	0.5
WAHP712	WAH	Waaslandhaven	144656	214876	2	1	1	1	2	41	1.59	1.712	3	3	1	2.452	2.58	0.5
WALP009	WAL	Walenbos	184915	179471	2	1	1	1	4	134	0.72	28.62	4	4	2	28.8	1.05	0.3
WALP010	WAL	Walenbos	184876	179451	2	1	1	1	4	134	0.81	29.08	4	4	2	29.17	1.05	0.3
WALP033	WAL	Walenbos	185081	179478	2	1	1	1	4	134	1.72	29.95	4	4	2	30.16	2.08	0.3
WALP054	WAL	Walenbos	186099	180356	2	1	1	1	4	934	1.8	24.289	4	4	2	24.409	2.07	0.3
WALP055	WAL	Walenbos	186100	180356	2	1	1	1	4	934	2.735	24.432	4	4	2	24.632	3.09	0.31
WALP062	WAL	Walenbos	185439	180491	2	1	1	1	4	134	1.73	25.54	4	4	2	25.69	2.03	0.3
WALP063	WAL	Walenbos	185439	180491	2	1	1	1	4	134	2.51	25.53	4	4	2	25.92	3.05	0.3
WALP100	WAL	Walenbos	186117	180247	2	1	1	1	4	934	1.715	27.67	4	4	2	27.82	2	0.27
WALP102	WAL	Walenbos	186087	180242	2	1	1	1	4	934	1.53	27.75	4	4	2	28.1	2.03	0.3
WALP103	WAL	Walenbos	186059	180235	2	1	1	1	4	934	0.73	27.53	4	4	2	27.62	0.97	0.3
WALP112	WAL	Walenbos	186122	180251	2	1	1	1	4	934	1.68	27.58	4	4	2	27.8	2.06	0.32
WALP113	WAL	Walenbos	186130	180254	2	1	1	1	4	934	1.615	27.74	4	4	2	28.01	2.03	0.29
WALP114	WAL	Walenbos	186145	180257	2	1	1	1	4	934	1.53	27.74	4	4	2	28.07	2.01	0.3
WALP118	WAL	Walenbos	186105	180248	2	1	1	1	4	934	1.61	25.422	4	4	2	25.702	2.04	0.3
WALP120	WAL	Walenbos	186060	180234	2	1	1	1	4	934	1.77	27.54	4	4	2	27.66	2.04	0.3
WALP126	WAL	Walenbos	186062	179975	2	1	1	1	4	934	0.77	29.1	4	4	2	29.22	1	0.22
WALP133	WAL	Walenbos	186100	180355	2	1	1	1	4	934	1.01	26.55	4	4	2	26.82	1.43	0.3
WALP161	WAL	Walenbos	186415	180016	2	1	1	1	4	934	0.87	30.11	4	3	1	30.21	1.12	0.3
WALP162	WAL	Walenbos	186147	180209	2	1	1	1	4	934	1.32	27.792	4	3	1	28.212	1.89	0.3
WEBP002	WEB	Webbekomsbroek	199612	185161	2	1	1	1	2	166	1.93	20.16	3	5	4	20.71	2.63	0.3
WEBP004	WEB	Webbekomsbroek	199637	185212	2	1	1	1	2	166	1.73	20.16	3	5	4	20.84	2.56	0.3
WEBP005	WEB	Webbekomsbroek	199821	185265	2	1	1	1	2	166	1.86	20.04	3	5	4	20.44	2.41	0.3
WEBP015	WEB	Webbekomsbroek	199889	184913	2	1	1	1	2	166	1.54	0	3	4	2	0.53	2.22	0.3
WEBP036	WEB	Webbekomsbroek	200108	184654	2	1	1	1	2	166	2.05	20.382	3	3	1	20.802	2.67	0.4
WEBP048	WEB	Webbekomsbroek	199637	184675	2	1	1	1	2	166	1.98	19.918	3	3	1	20.728	2.98	0.38
WEBP051	WEB	Webbekomsbroek	199872	184441	2	1	1	1	2	166	1.33	20.36	3	5	4	21.42	2.54	0.3
WEBP056	WEB	Webbekomsbroek	200010	184339	2	1	1	1	2	166	1.25	20.069	3	4	2	20.809	2.14	0.3
WEBP062	WEB	Webbekomsbroek	200211	184276	2	1	1	1	2	166	1.19	20.369	3	3	1	20.769	1.79	0.4
WEBP072	WEB	Webbekomsbroek	200157	184501	2	1	1	1	2	166	1.55	20.67	3	5	4	21.22	2.25	0.3
WEBP075	WEB	Webbekomsbroek	199711	184764	2	1	1	1	2	166	1.72	20.19	3	5	4	21.13	2.81	0.3
WEBP078	WEB	Webbekomsbroek	199703	184919	2	1	1	1	2	166	1.4	19.785	3	4	2	20.865	2.63	0.3
WEBP084	WEB	Webbekomsbroek	199901	184643	2	1	1	1	2	166	1.84	19.786	3	3	1	20.186	2.44	0.4
WEBP086	WEB	Webbekomsbroek	199793	184650	2	1	1	1	2	166	1.65	20.14	3	5	4	20.65	2.31	0.3
WEBP202	WEB	Webbekomsbroek	199709	184801	2	1	1	1	2	166	1.75	19.999	3	4	2	20.774	2.525	0
WEBP205	WEB	Webbekomsbroek	199464	185319	2	1	1	1	2	166	1.76	19.907	3	3	1	20.347	2.35	0.3
WEBP210	WEB	Webbekomsbroek	199320	186194	2	1	1	1	3	54	2.135	19.885	2	3	1	20.145	2.395	0
WEBP213	WEB	Webbekomsbroek	199614	186892	2	1	1	1	3	54	0.91	18.901	2	3	1	19.261	1.47	0.4
WEBP218	WEB	Webbekomsbroek	199742	185585	2	1	1	1	2	166	1.88	19.829	3	3	1	20.329	2.63	0.5
WELP018	WEL	Wellemeersen	128284	176954	2	1	1	1	3	1017	2.48	8.86	2	4	2	9.24	3.01	0.3
WELP020	WEL	Wellemeersen	128401	177063	2	1	1	1	3	1017	2.29	8.69	2	4	2	9.26	3.01	0.3
WELP022	WEL	Wellemeersen	128519	176887	2	1	1	1	3	1017	1.02	8.2	2	4	2	8.67	1.64	0.3
WELP034	WEL	Wellemeersen	129060	176759	2	1	1	1	3	505	1.4	8.89	2	4	2	9.39	2.05	0.3
WELP035	WEL	Wellemeersen	129144	176660	2	1	1	1	3	505	1.51	9.06	2	7	7	9.36	1.96	0.3
WERP001	WER	De Werft	193281	194778	2	1	1	1	1	822	1.89	0	5	3	1	0.45	2.34	0
WERP002	WER	De Werft	193300	194752	2	1	1	1	1	822	1.77	0	5	3	1	0.55	2.32	0
WERP003	WER	De Werft	193271	194588	2	1	1	1	1	822	1.7	0	5	3	1	0.65	2.35	0
WERP004	WER	De Werft	193302	194696	2	1	1	1	1	822	1.62	0	5	3	1	0.72	2.34	0
WERP005	WER	De Werft	193360	194613	2	1	1	1	3	822	1.65	0	2	3	1	0.65	2.3	0
WERP007	WER	De Werft	193544	194610	2	1	1	1	3	822	1.78	0	2	3	1	0.9	2.68	0
WERP009	WER	De Werft	193488	194562	2	1	1	1	1	822	1.73	0	5	3	1	0.54	2.27	0
WERP011	WER	De Werft	193419	194740	2	1	1	1	1	822	1.48	0	5	3	1	0.42	1.9	0
WERP012	WER	De Werft	192332	194448	2	1	1	1	1	822	2.21	0	5	3	1	0.11	2.32	0
WESP001	WES	Westhoek	23482	199360	2	1	1	1	4	177	1.02	5.35	4	3	1	5.45	1.37	0.5
WESP002	WES	Westhoek	23337	199132	2	1	1	1	4	177	2.75	5.37	4	3	1	5.34	2.97	0.5
WESP003	WES	Westhoek	23288	198961	2	1	1	1	4	177	1.66	5.98	4	3	1	5.99	1.92	0.5
WESP005	WES	Westhoek	23086	198942	2	1	1	1	4	177	1.72	5.49	4	3	1	5.57	2.05	0.5
WESP007	WES	Westhoek	23034	198650	2	1	1	1	4	177	1.82	5.95	4	3	1	5.98	2.1	0.5
WESP008	WES	Westhoek	22617	198715	2	1	1	1	4	177	1.2	5.85	4	3	1	6.25	1.85	0.5
WESP014	WES	Westhoek	22737	199289	2	1	1	1	4	177	0.59	5.22	4	3	1	6.07	1.69	0.5
WESP015	WES	Westhoek	23371	198649	2	1	1	1	4	177	2.15	6.21	4	4	2	6.18	2.37	0.5
WESP018	WES	Westhoek	23813	199363	2	1	1	1	4	177	1.55	5.47	4	3	1	5.44	1.77	0.5
WESP019	WES	Westhoek	23666	199634	2	1	1	1	4	177	2.7	6.778	4	3	1	6.688	2.86	0.5
WESP022	WES	Westhoek	23336	199133	2	1	1	1	4	177	1.24	5.47	4	3	1	5.45	1.47	0.5
WESP029	WES	Westhoek	23088	199454	2	1	1	1	4	177	1.33	5.61	4	4	2	5.43	1.4	0.5
WESP031	WES	Westhoek	23984	198297	2	1	1	1	4	177	1.81	5.15	4	3	1	5.1	2.01	0.5
WESP034	WES	Westhoek	23211	199078	2	1	1	1	4	177	1.54	5.33	4	4	2	5.51	1.97	0.5
WESP038	WES	Westhoek	23096	199184	2	1	1	1	4	177	1.82	5.32	4	4	2	5.32	2.07	0.5
WESP045	WES	Westhoek	24435	198523	2	1	1	1	4	177	1.91	5.57	4	4	2	5.54	2.13	0.5
WESP048	WES	Westhoek	24097	198425	2	1	1	1	4	177	2.4	5.51	4	4	2	5.74	2.63	0
WESP050	WES	Westhoek	23967	198392	2	1	1	1	4	177	2.92	5.77	4	3	1	5.8	2.95	0
WESP055	WES	Westhoek	23532	198345	2	1	1	1	4	177	2.01	6.01	4	4	2	6.06	2.06	0
WESP057	WES	Westhoek	23258	199248	2	1	1	1	4	177	2	5.3	4	3	1	5.34	2.04	0
WESP063	WES	Westhoek	23185	197885	2	1	1	1	4	177	1.92	5.19	4	4	2	5.25	1.98	0
WESP071	WES	Westhoek	23518	199550	2	1	1	1	4	177	1.92	5.39	4	4	2	5.5	2.28	0.5
WESP073	WES	Westhoek	23786	199218	2	1	1	1	4	177	1.58	5.77	4	3	1	5.79	1.85	0.5
WESP074	WES	Westhoek	23953	199593	2	1	1	1	4	177	1.51	4.94	4	3	1	4.98	1.55	0
WESP076	WES	Westhoek	24198	199292	2	1	1	1	4	177	2.28	6.82	4	3	1	6.84	2.55	0.5
WESP078	WES	Westhoek	23436	199686	2	1	1	1	4	177	2.77	6.41	4	3	1	6.41	3.02	0.5
WESP080	WES	Westhoek	24394	199119	2	1	1	1	4	177	1.24	5.87	4	3	1	5.91	1.53	0.5
WESP082	WES	Westhoek	24595	198191	2	1	1	1	4	177	2.35	6.23	4	4	2	5.43	1.75	0.4
WESP093	WES	Westhoek	22509	198809	2	1	1	1	4	177	1.84	5.58	4	3	1	5.66	2.17	0.5
WESP097	WES	Westhoek	23408	198956	2	1	1	1	4	177	1.72	6.01	4	3	1	6.57	2.53	0.5
WESP111	WES	Westhoek	23304	198193	2	1	1	1	4	177	1.35	5.39	4	3	1	5.39	1.6	0.5
WESP119	WES	Westhoek	23171	198331	2	1	1	1	4	177	1.89	5.87	4	3	1	5.9	2.17	0.5
WESP132	WES	Westhoek	22965	199052	2	1	1	1	4	177	2.83	5.47	4	3	1	5.49	3.1	0.5
WESP133	WES	Westhoek	22908	198998	2	1	1	1	4	177	1.185	5.16	4	3	1	5.15	1.425	0.5
WESP134	WES	Westhoek	22885	198920	2	1	1	1	4	177	0.65	5.59	4	3	1	5.69	1	0.5
WESP141	WES	Westhoek	22742	198998	2	1	1	1	4	177	2.86	5.5	4	3	1	5.57	3.18	0.5
WESP179	WES	Westhoek	23911	198176	2	1	1	1	4	177	1.43	5.066	4	4	2	5.326	1.94	0.5
WESP188	WES	Westhoek	22673	198394	2	1	1	1	4	177	1	5.83	4	3	1	6.68	2.1	0.5
WESP234	WES	Westhoek	25931	198873	2	1	1	1	4	177	3	7.16	4	3	1	7.905	4.745	2
WESP302	WES	Westhoek	23338	199132	2	1	1	1	4	177	1.5	5.41	4	3	1	5.38	1.72	0.5
WESP901	WES	Westhoek	23039	198910	2	1	1	1	4	177	1.495	5.585	4	4	2	5.59	1.5	0
WESP902	WES	Westhoek	23099	198969	2	1	1	1	4	177	1.35	5.287	4	4	2	5.337	1.4	0
WESP903	WES	Westhoek	23472	199037	2	1	1	1	4	177	1.79	5.608	4	4	2	5.618	1.8	0
WESP904	WES	Westhoek	23243	199141	2	1	1	1	4	177	1.97	5.193	4	4	2	5.223	2	0
WESP905	WES	Westhoek	23247	199129	2	1	1	1	4	177	1.03	5.248	4	4	2	5.318	1.1	0
WESP906	WES	Westhoek	23034	199198	2	1	1	1	4	177	1.9	5.473	4	4	2	5.473	1.9	0
WESP907	WES	Westhoek	22923	199149	2	1	1	1	4	177	2.54	5.444	4	4	2	5.504	2.6	0
WESP908	WES	Westhoek	22848	198864	2	1	1	1	4	177	1.07	5.336	4	4	2	5.366	1.1	0
WESP909	WES	Westhoek	23322	199013	2	1	1	1	4	177	1.75	5.718	4	4	2	5.718	1.75	0
WESP910	WES	Westhoek	22667	198881	2	1	1	1	4	177	1.47	5.427	4	4	2	5.457	1.5	0
WESP911	WES	Westhoek	22901	198832	2	1	1	1	4	177	2.48	5.995	4	4	2	6.015	2.5	0
WESP912	WES	Westhoek	23043	198754	2	1	1	1	4	177	1.035	5.335	4	4	2	5.4	1.1	0
WESP913	WES	Westhoek	23080	198693	2	1	1	1	4	177	2.3	6.305	4	4	2	6.305	2.3	0
WESP914	WES	Westhoek	23406	199039	2	1	1	1	4	177	1.485	5.389	4	4	2	5.404	1.5	0
WESP915	WES	Westhoek	23454	199076	2	1	1	1	4	177	1.12	5.399	4	4	2	5.429	1.15	0
WESP916	WES	Westhoek	23403	199145	2	1	1	1	4	177	1.155	5.448	4	4	2	5.493	1.2	0
WESP917	WES	Westhoek	23291	199190	2	1	1	1	4	177	1.96	5.279	4	4	2	5.319	2	0
WESP918	WES	Westhoek	23204	199239	2	1	1	1	4	177	1.2	5.461	4	4	2	5.461	1.2	0
WESP919	WES	Westhoek	22938	199235	2	1	1	1	4	177	2.08	6.104	4	4	2	6.174	2.15	0
WESP920	WES	Westhoek	22797	199170	2	1	1	1	4	177	2.74	5.972	4	4	2	6.032	2.8	0
WESP921	WES	Westhoek	22809	199142	2	1	1	1	4	177	2.4	5.561	4	4	2	5.561	2.4	0
ZABP002	ZAB	Zammelsbroek	191587	198621	2	1	1	1	3	822	2.94	14.741	2	4	2	14.891	3.24	0.3
ZABP003	ZAB	Zammelsbroek	191644	198520	2	1	1	1	3	822	1.78	14.776	2	4	2	14.866	2.02	0.3
ZABP004	ZAB	Zammelsbroek	191712	198448	2	1	1	1	3	822	1.6	14.78	2	3	1	15.47	2.49	0.4
ZABP005	ZAB	Zammelsbroek	191734	198418	2	1	1	1	3	822	0.58	14.7	2	4	2	15.56	1.64	0.4
ZABP006	ZAB	Zammelsbroek	191153	198420	2	1	1	1	3	822	2.97	14.529	2	3	1	14.989	3.58	0.3
ZABP008	ZAB	Zammelsbroek	191184	198355	2	1	1	1	3	822	2.89	14.491	2	4	2	14.981	3.53	0.3
ZABP009	ZAB	Zammelsbroek	191219	198264	2	1	1	1	3	822	2.82	14.55	2	4	2	14.9	3.32	0.3
ZABP013	ZAB	Zammelsbroek	191535	198711	2	1	1	1	3	822	2.09	14.77	2	7	7	14.97	2.49	0.4
ZABP014	ZAB	Zammelsbroek	191421	198803	2	1	1	1	3	822	1.3	14.82	2	3	1	16.04	2.72	0.4
ZABP022	ZAB	Zammelsbroek	193188	199206	2	1	1	1	1	822	1.05	15.76	5	3	1	16.05	1.54	0.4
ZABP023	ZAB	Zammelsbroek	193145	199376	2	1	1	1	3	822	1.58	15.7	2	1	6	16.58	2.66	0.4
ZABP028	ZAB	Zammelsbroek	191108	198490	2	1	1	1	1	822	2.25	14.56	5	4	2	14.56	2.5	0.5
ZABP029	ZAB	Zammelsbroek	191090	198521	2	1	1	1	1	822	2.25	14.48	5	4	2	14.48	2.5	0.5
ZABP030	ZAB	Zammelsbroek	191063	198584	2	1	1	1	1	822	2.25	14.43	5	4	2	14.43	2.5	0.5
ZAVP100	ZAV	Zavelbeemden-Demervallei	189968	189008	2	1	1	1	3	310	1.7	15.43	2	4	2	15.43	1.85	0.3
ZEBP001	ZEB	Zeebrugge	68884	222381	2	1	1	1	3	693	0.465	2.91	2	3	1	3.22	0.925	0.3
ZEBP003	ZEB	Zeebrugge	69183	221033	2	1	1	1	3	693	0.83	2.68	2	3	1	2.91	1.21	0.3
ZEBP005	ZEB	Zeebrugge	69921	220751	2	1	1	1	3	693	1.66	2.57	2	3	1	2.99	2.08	0
ZEBP006	ZEB	Zeebrugge	69256	220151	2	1	1	1	3	693	2.64	3.58	2	7	7	4.44	4	1
ZEBP007	ZEB	Zeebrugge	69602	220278	2	1	1	1	3	693	2.35	3.09	2	5	4	4.24	4	1
ZEBP009	ZEB	Zeebrugge	69111	219114	2	1	1	1	2	693	1.92	3.02	3	3	1	3.6	3	1
ZEBP012	ZEB	Zeebrugge	69544	221380	2	1	1	1	3	693	1	2.6	2	4	2	3.1	2	1
ZEBP013	ZEB	Zeebrugge	69544	221381	2	1	1	1	3	693	0.15	2.63	2	4	2	2.87	0.54	0.3
ZEBP015	ZEB	Zeebrugge	69182	221031	2	1	1	1	3	693	0.15	2.71	2	4	2	2.95	0.54	0.3
ZEBP017	ZEB	Zeebrugge	69921	220750	2	1	1	1	3	693	0.22	2.61	2	4	2	2.78	0.54	0.3
ZEBP019	ZEB	Zeebrugge	69725	220669	2	1	1	1	3	693	0.5	2.63	2	3	1	3.06	1.43	1
ZEBP020	ZEB	Zeebrugge	69725	220669	2	1	1	1	3	693	0.15	2.57	2	4	2	2.81	0.54	0.3
ZEBP022	ZEB	Zeebrugge	69246	220121	2	1	1	1	3	693	1.325	2.69	2	3	1	2.93	2.065	1
ZEBP023	ZEB	Zeebrugge	69246	220122	2	1	1	1	3	693	0.18	2.7	2	4	2	2.94	0.57	0.3
ZEBP025	ZEB	Zeebrugge	69823	220300	2	1	1	1	3	693	0.5	2.51	2	4	2	2.94	1.43	1
ZEBP026	ZEB	Zeebrugge	69823	220300	2	1	1	1	3	693	0.15	2.48	2	4	2	2.72	0.54	0.3
ZEBP045	ZEB	Zeebrugge	69280	220151	2	1	1	1	3	693	0.5	2.6408	2	3	1	3.2408	1.6	1
ZEBP046	ZEB	Zeebrugge	69422	220210	2	1	1	1	3	693	0.5	2.6282	2	3	1	3.3782	1.75	1
ZEBP107	ZEB	Zeebrugge	65882	224517	2	1	1	1	2	693	1.795	5.83	3	3	1	5.83	2.045	0.5
ZEMP005	ZEM	Zemst	158392	184259	2	1	1	1	4	710	2.52	7.663	4	3	1	8.223	3.08	0
ZIEP004	ZIE	Ziepbeekvallei	238382	181163	2	1	1	1	3	1010	0.93	68.778	2	4	2	69.058	1.36	0.3
ZIEP007	ZIE	Ziepbeekvallei	238987	181310	2	1	1	1	3	1010	1.24	59.106	2	4	2	59.426	1.71	0.3
ZIEP008	ZIE	Ziepbeekvallei	239081	181307	2	1	1	1	3	1010	1.23	57.701	2	5	4	58.091	1.77	0.3
ZIEP018	ZIE	Ziepbeekvallei	238698	180067	2	1	1	1	3	1010	1.38	67.51	2	3	1	68.04	2.06	0.3
ZIEP019	ZIE	Ziepbeekvallei	238747	180060	2	1	1	1	3	1010	1.39	65.312	2	3	1	66.112	2.34	0.3
ZIEP020	ZIE	Ziepbeekvallei	238790	180322	2	1	1	1	3	1010	1.19	62.677	2	3	1	63.087	1.75	0.3
ZIEP021	ZIE	Ziepbeekvallei	238650	180342	2	1	1	1	3	1010	0.8	68.64	2	5	4	68.8	1.11	0.3
ZIEP022	ZIE	Ziepbeekvallei	238643	180318	2	1	1	1	3	1010	0.57	68.515	2	3	1	68.945	1.15	0.3
ZIEP066	ZIE	Ziepbeekvallei	239204	181332	2	1	1	1	3	1010	0.89	55.95	2	3	1	56.32	1.76	1
ZIEP067	ZIE	Ziepbeekvallei	238731	180135	2	1	1	1	3	1010	2	65.239	2	3	1	65.639	2.55	0.3
ZIEP068	ZIE	Ziepbeekvallei	238749	180156	2	1	1	1	3	1010	1.34	64.229	2	4	2	64.509	1.77	0.3
ZIEP070	ZIE	Ziepbeekvallei	238845	182649	2	1	1	1	3	1010	0.55	69.61	2	3	1	70.12	1.16	0.2
ZIEP166	ZIE	Ziepbeekvallei	239204	181332	2	1	1	1	3	1010	3	55.939	2	3	1	56.289	4.35	2
ZIEP179	ZIE	Ziepbeekvallei	239177	180268	2	1	1	1	3	1010	1.52	56.114	2	4	2	56.494	2.4	1
ZOEP002	ZOE	Zoerselbos	171262	215363	2	1	1	1	4	214	0.85	12.57	4	5	4	12.62	1	0.2
ZOEP003	ZOE	Zoerselbos	171253	215374	2	1	1	1	4	214	1.58	12.57	4	5	4	12.64	1.8	0.3
ZOEP031	ZOE	Zoerselbos	171787	216220	2	1	1	1	4	214	0.65	13.64	4	4	2	14.34	1.5	0.3
ZUVP019	ZUV	Zuunvallei	142606	164589	2	1	1	1	4	441	2	23.92	4	5	4	24.47	3.05	1
ZUVP020	ZUV	Zuunvallei	142603	164595	2	1	1	1	4	441	2	23.58	4	5	4	24	2.92	1
ZWAP002	ZWA	Zwarte Beek	216540	198130	2	1	1	1	3	950	1.97	0	2	5	4	0.08	2.2	0.3
ZWAP003	ZWA	Zwarte Beek	216540	198110	2	1	1	1	3	950	1.97	52.33	2	5	4	52.33	2.12	0.3
ZWAP004	ZWA	Zwarte Beek	216550	198090	2	1	1	1	3	950	2.23	52.67	2	5	4	52.67	2.38	0.3
ZWAP005	ZWA	Zwarte Beek	214270	196870	2	1	1	1	3	950	1.28	0.01	2	5	4	0.12	1.54	0.3
ZWAP006	ZWA	Zwarte Beek	214270	196880	2	1	1	1	3	950	1.32	-0.13	2	5	4	0.08	1.68	0.3
ZWAP009	ZWA	Zwarte Beek	215043	197330	2	1	1	1	1	950	1.56	45.07	5	3	1	45.46	2.2	0.5
ZWAP010	ZWA	Zwarte Beek	215043	197320	2	1	1	1	1	950	1.53	45.14	5	3	1	45.54	2.18	0.5
ZWAP011	ZWA	Zwarte Beek	215079	197296	2	1	1	1	1	950	0.74	45.76	5	4	2	45.92	1.05	0.3
ZWAP013	ZWA	Zwarte Beek	215411	197466	2	1	1	1	1	950	1.45	46.461	5	4	2	46.871	2.01	0.3
ZWAP014	ZWA	Zwarte Beek	215408	197476	2	1	1	1	1	950	1.2	46.73	5	4	2	47.01	1.63	0.3
ZWAP016	ZWA	Zwarte Beek	215402	197511	2	1	1	1	3	950	0.74	47.188	2	4	2	47.368	1.07	0.3
ZWAP023	ZWA	Zwarte Beek	216463	198293	2	1	1	1	1	950	2.22	51.81	5	5	4	51.97	2.53	0.3
ZWAP024	ZWA	Zwarte Beek	216442	198331	2	1	1	1	1	950	0.94	52.21	5	3	1	52.81	1.54	0
ZWAP027	ZWA	Zwarte Beek	216880	198160	2	1	1	1	3	950	1	54.85	2	7	7	55.15	1.45	0.3
ZWAP035	ZWA	Zwarte Beek	214375	196918	2	1	1	1	3	950	1.15	42.23	2	3	1	42.43	1.5	0.3
ZWAP036	ZWA	Zwarte Beek	214347	196972	2	1	1	1	1	950	1.24	42.36	5	5	4	42.71	1.74	0.3
ZWAP050	ZWA	Zwarte Beek	215197	197055	2	1	1	1	1	950	1.83	46.68	5	4	2	47.46	2.76	0.3
ZWAP101	ZWA	Zwarte Beek	217658	197918	2	1	1	1	1	950	0.81	61.58	5	3	1	61.64	1.02	0.3
ZWAP102	ZWA	Zwarte Beek	217644	197912	2	1	1	1	1	950	0.35	61.33	5	4	2	61.41	0.58	0.3
ZWAP115	ZWA	Zwarte Beek	217366	198546	2	1	1	1	1	950	0.75	54.09	5	4	2	54.64	1.45	0.3
ZWAP117	ZWA	Zwarte Beek	217267	198554	2	1	1	1	1	950	0.87	53.77	5	3	1	54.44	1.69	0.3
ZWAP118	ZWA	Zwarte Beek	217274	198514	2	1	1	1	1	950	0.55	53.54	5	5	4	54.09	1.25	0.3
ZWAP119	ZWA	Zwarte Beek	217263	198460	2	1	1	1	1	950	0.49	53.73	5	5	4	54.32	1.23	0.3
ZWAP120	ZWA	Zwarte Beek	217266	198420	2	1	1	1	1	950	0.87	54.15	5	5	4	54.53	1.4	0.3
ZWAP127	ZWA	Zwarte Beek	217199	198367	2	1	1	1	3	950	1.19	53.84	2	4	2	54.49	1.99	0.3
ZWAP128	ZWA	Zwarte Beek	217068	198393	2	1	1	1	1	950	2.02	53.74	5	4	2	54.03	2.46	0.3
ZWAP129	ZWA	Zwarte Beek	217058	198439	2	1	1	1	1	950	1.95	53.94	5	3	1	54.2	2.36	0.3
ZWAP131	ZWA	Zwarte Beek	217154	198541	2	1	1	1	1	950	2.3	53.56	5	4	2	54.21	2.95	0
ZWAP132	ZWA	Zwarte Beek	216880	198530	2	1	1	1	1	950	1.97	53.68	5	4	2	54.19	2.63	0.3
ZWAP133	ZWA	Zwarte Beek	216900	198458	2	1	1	1	1	950	1.43	53.25	5	4	2	53.71	2.04	0.3
ZWAP134	ZWA	Zwarte Beek	216925	198379	2	1	1	1	1	950	2.22	53.37	5	4	2	53.62	2.62	0.3
ZWAP135	ZWA	Zwarte Beek	216965	198300	2	1	1	1	3	950	0.93	53.2	2	4	2	53.47	1.35	0.3
ZWAP136	ZWA	Zwarte Beek	216969	198254	2	1	1	1	3	950	1.8	53.7	2	3	1	53.93	2.18	0.3
ZWAP137	ZWA	Zwarte Beek	216589	198215	2	1	1	1	1	950	1.53	51.95	5	4	2	52.26	1.99	0.3
ZWAP138	ZWA	Zwarte Beek	216584	198269	2	1	1	1	1	950	1.33	51.91	5	4	2	52.45	2.02	0.3
ZWAP140	ZWA	Zwarte Beek	216851	198162	2	1	1	1	3	950	2	54.26	2	2	5	54.61	2.5	0.3
ZWAP141	ZWA	Zwarte Beek	216785	198435	2	1	1	1	1	950	1.96	52.52	5	3	1	52.86	2.45	0.3
ZWAP145	ZWA	Zwarte Beek	217184	198435	2	1	1	1	1	950	1.47	53.36	5	4	2	54.09	2.35	0.3
ZWAP147	ZWA	Zwarte Beek	217079	198340	2	1	1	1	3	950	1.99	53.74	2	4	2	54.27	2.67	0.3
ZWAP148	ZWA	Zwarte Beek	216826	198345	2	1	1	1	1	950	2.92	52.69	5	4	2	52.99	3.37	0.3
ZWAP150	ZWA	Zwarte Beek	216586	198332	2	1	1	1	1	950	0.6	51.83	5	4	2	52.34	1.26	0.3
ZWAP151	ZWA	Zwarte Beek	216591	198297	2	1	1	1	1	950	0.72	51.82	5	4	2	52.56	1.61	0.3
ZWAP154	ZWA	Zwarte Beek	216668	198353	2	1	1	1	1	950	0.25	52.13	5	4	2	52.6	0.87	0.3
ZWAP155	ZWA	Zwarte Beek	216690	198323	2	1	1	1	1	950	0.91	52.16	5	4	2	52.66	1.56	0.3
ZWAP156	ZWA	Zwarte Beek	216704	198287	2	1	1	1	1	950	1.05	52.34	5	4	2	52.8	1.66	0.3
ZWAP157	ZWA	Zwarte Beek	216717	198251	2	1	1	1	1	950	0.88	52.22	5	4	2	52.61	1.42	0.3
ZWAP158	ZWA	Zwarte Beek	216654	198233	2	1	1	1	1	950	0.9	51.92	5	4	2	52.26	1.39	0.3
ZWAP159	ZWA	Zwarte Beek	216650	198258	2	1	1	1	1	950	0.97	51.9	5	4	2	52.36	1.58	0.3
ZWAP160	ZWA	Zwarte Beek	216639	198294	2	1	1	1	1	950	1.17	51.94	5	4	2	52.17	1.55	0.3
ZWAP161	ZWA	Zwarte Beek	216628	198327	2	1	1	1	1	950	0.94	51.83	5	4	2	52.24	1.5	0.3
ZWAP164	ZWA	Zwarte Beek	216823	198351	2	1	1	1	1	950	0.66	52.55	5	4	2	52.87	1.13	0.3
ZWAP165	ZWA	Zwarte Beek	216814	198362	2	1	1	1	1	950	0.75	52.41	5	3	1	52.86	1.35	0.3
ZWAP166	ZWA	Zwarte Beek	216797	198362	2	1	1	1	1	950	1.33	52.5	5	5	4	53.75	2.73	0.3
ZWAP167	ZWA	Zwarte Beek	216823	198312	2	1	1	1	1	950	0.59	52.39	5	4	2	52.66	1.01	0.3
ZWAP168	ZWA	Zwarte Beek	216846	198285	2	1	1	1	1	950	0.81	52.5	5	4	2	52.85	1.31	0.3
ZWAP169	ZWA	Zwarte Beek	216835	198288	2	1	1	1	1	950	0.83	52.54	5	4	2	52.97	1.41	0.3
ZWAP170	ZWA	Zwarte Beek	216842	198278	2	1	1	1	1	950	0.86	52.75	5	3	1	52.99	1.25	0.3
ZWAP171	ZWA	Zwarte Beek	216880	198254	2	1	1	1	1	950	0.98	53.11	5	4	2	53.34	1.36	0.3
ZWAP172	ZWA	Zwarte Beek	216851	198263	2	1	1	1	1	950	1.08	52.8	5	4	2	53.18	1.61	0.3
ZWAP175	ZWA	Zwarte Beek	216947	198408	2	1	1	1	1	950	1.93	53.89	5	4	2	54.39	2.58	0.3
ZWAP176	ZWA	Zwarte Beek	216802	198391	2	1	1	1	1	950	1.32	52.39	5	4	2	53.65	2.73	0.3
ZWAP177	ZWA	Zwarte Beek	216804	198376	2	1	1	1	1	950	1.37	52.33	5	4	2	53.41	2.6	0.3
ZWAP178	ZWA	Zwarte Beek	216821	198634	2	1	1	1	3	950	1.22	57.15	2	4	2	57.7	1.92	0.3
ZWAP183	ZWA	Zwarte Beek	216731	196833	2	1	1	1	3	950	2.48	62.19	2	4	2	62.92	3.21	0
ZWAP195	ZWA	Zwarte Beek	216842	198606	2	1	1	1	3	950	1.5	55.99	2	4	2	56.4	2.06	0.3
ZWAP196	ZWA	Zwarte Beek	214282	197080	2	1	1	1	1	950	0.91	42.28	5	3	1	42.72	1.5	0.3
ZWAP200	ZWA	Zwarte Beek	217985	197987	2	1	1	1	1	950	1.74	63.003	5	3	1	63.663	2.55	0.3
ZWAP202	ZWA	Zwarte Beek	220114	197295	2	1	1	1	3	210	2.05	68.26	2	3	1	68.78	2.72	0.3
ZWAP208	ZWA	Zwarte Beek	218005	198226	2	1	1	1	1	950	1.1	59.288	5	3	1	59.938	1.9	0.3
ZWAP209	ZWA	Zwarte Beek	218005	198167	2	1	1	1	1	950	1.51	59.715	5	3	1	60.185	2.13	0.3
ZWAP210	ZWA	Zwarte Beek	218009	198087	2	1	1	1	1	950	0.6	60.87	5	4	2	61.77	1.65	0.3
ZWAP212	ZWA	Zwarte Beek	217963	199002	2	1	1	1	3	950	1.724	60.222	2	4	2	61.022	2.674	0.3
ZWAP213	ZWA	Zwarte Beek	217988	198743	2	1	1	1	1	950	2.27	56.051	5	3	1	56.201	2.57	0.3
ZWAP214	ZWA	Zwarte Beek	218517	198651	2	1	1	1	1	950	1.3	60.15	5	3	1	60.63	1.93	0.3
ZWAP215	ZWA	Zwarte Beek	218516	198682	2	1	1	1	1	950	1	59.23	5	3	1	59.72	1.64	0.3
ZWAP216	ZWA	Zwarte Beek	218514	198727	2	1	1	1	1	950	1.14	57.93	5	1	6	58.78	2.14	0.3
ZWAP217	ZWA	Zwarte Beek	218512	198771	2	1	1	1	1	950	1.22	57.53	5	4	2	57.89	1.73	0.3
ZWAP223	ZWA	Zwarte Beek	218447	198865	2	1	1	1	1	950	0.95	59.52	5	7	7	60.47	2.05	0.3
ZWAP224	ZWA	Zwarte Beek	218398	199272	2	1	1	1	1	950	1.09	61.74	5	7	7	62.57	2.07	0.3
ZWAP225	ZWA	Zwarte Beek	218306	199374	2	1	1	1	1	950	0.449	62.229	5	4	2	63.129	1.499	0.3
ZWAP227	ZWA	Zwarte Beek	218316	199278	2	1	1	1	1	950	0.82	61	5	3	1	61.63	1.6	0.3
ZWAP228	ZWA	Zwarte Beek	217381	197149	2	1	1	1	3	950	1.14	63.265	2	3	1	63.655	1.68	0.3
ZWAP229	ZWA	Zwarte Beek	220479	196611	2	1	1	1	3	210	2.04	70.19	2	3	1	70.5	2.5	0.3
ZWAP231	ZWA	Zwarte Beek	220110	198031	2	1	1	1	3	210	1.91	66.285	2	3	1	66.695	2.47	0.3
ZWAP234	ZWA	Zwarte Beek	217054	198920	2	1	1	1	3	950	1.1	57.699	2	3	1	58.209	1.76	0.3
ZWAP235	ZWA	Zwarte Beek	218503	198213	2	1	1	1	1	950	0.41	62.888	5	3	1	63.658	1.33	0.3
ZWAP236	ZWA	Zwarte Beek	218173	198211	2	1	1	1	1	950	0.77	61.584	5	3	1	62.034	1.37	0.3
ZWAP240	ZWA	Zwarte Beek	215831	198356	2	1	1	1	1	950	0.81	53.02	5	3	1	53.48	1.42	0.3
ZWAP242	ZWA	Zwarte Beek	213549	196618	2	1	1	1	1	950	0.74	39.658	5	3	1	39.968	1.2	0.3
ZWAP252	ZWA	Zwarte Beek	218525	199362	2	1	1	1	1	950	2.1	62.884	5	3	1	63.264	2.68	0.4
ZWAP300	ZWA	Zwarte Beek	213086	204149	2	1	1	1	3	630	0.815	44.593	2	3	1	45.208	1.58	0.3
ZWAP301	ZWA	Zwarte Beek	213467	203688	2	1	1	1	3	630	0.94	47.298	2	3	1	47.738	1.63	0.5
ZWAP302	ZWA	Zwarte Beek	213465	203911	2	1	1	1	3	630	0.78	45.821	2	3	1	46.341	1.55	0.5
ZWAP303	ZWA	Zwarte Beek	213435	204022	2	1	1	1	3	630	0.8	45.684	2	3	1	46.214	1.58	0.5
ZWAP304	ZWA	Zwarte Beek	214442	205517	2	1	1	1	1	630	1.41	45.063	5	3	1	45.423	2.02	0.5
ZWAP305	ZWA	Zwarte Beek	214503	203705	2	1	1	1	3	630	1.27	49.791	2	3	1	50.271	2	0.5
ZWAP306	ZWA	Zwarte Beek	215123	203590	2	1	1	1	3	630	1.11	51.375	2	3	1	51.915	1.9	0.5
ZWAP307	ZWA	Zwarte Beek	215592	203278	2	1	1	1	3	630	1.75	53.211	2	3	1	53.671	2.46	0.5
ZWAP308	ZWA	Zwarte Beek	215833	205216	2	1	1	1	3	630	0.66	49.39	2	3	1	50.03	1.45	0.3
ZWAP309	ZWA	Zwarte Beek	215657	205459	2	1	1	1	1	630	0.92	47.748	5	3	1	48.318	1.64	0.3
ZWAP312	ZWA	Zwarte Beek	206556	189180	2	1	1	1	3	438	1.92	23.84	2	4	2	24.13	2.36	0.3
ZWAP314	ZWA	Zwarte Beek	206573	189182	2	1	1	1	3	438	1.89	23.68	2	4	2	24	2.36	0.3
ZWAP315	ZWA	Zwarte Beek	206579	189184	2	1	1	1	3	438	1.94	23.67	2	4	2	23.93	2.35	0.3
ZWAP316	ZWA	Zwarte Beek	206585	189185	2	1	1	1	3	438	1.99	23.64	2	4	2	23.85	2.35	0.3
ZWAP317	ZWA	Zwarte Beek	206596	189187	2	1	1	1	3	438	1.87	23.63	2	4	2	23.88	2.27	0.3
ZWAP332	ZWA	Zwarte Beek	208201	190059	2	1	1	1	3	438	1.75	25.21	2	4	2	25.68	2.37	0.3
ZWAP335	ZWA	Zwarte Beek	208176	190160	2	1	1	1	3	438	1.85	25.19	2	4	2	25.49	2.3	0.3
ZWAP337	ZWA	Zwarte Beek	208142	190258	2	1	1	1	3	438	2.02	25.08	2	4	2	25.58	2.67	0.3
ZWAP339	ZWA	Zwarte Beek	206987	190209	2	1	1	1	3	438	1.01	25.015	2	4	2	25.68	1.9	0.45
ZWAP342	ZWA	Zwarte Beek	207101	190325	2	1	1	1	3	438	0.53	25.1	2	4	2	26.32	2	0.5
ZWAP343	ZWA	Zwarte Beek	207085	190345	2	1	1	1	3	438	0.78	24.9	2	4	2	25.87	2	0.5
ZWAP344	ZWA	Zwarte Beek	207051	190388	2	1	1	1	3	438	1.755	25.01	2	4	2	25.63	2.6	0.45
ZWAP402	ZWA	Zwarte Beek	220114	197295	1	2	1	1	3	210	2.05	68.26	2	3	1	68.78	2.72	0.3
ZWBP011	ZWB	Zwalmbeek	107248	173411	2	1	1	1	4	89	2.25	20.32	4	4	2	20.32	3.5	2.5
ZWBP013	ZWB	Zwalmbeek	107282	173439	2	1	1	1	4	89	1.75	20.23	4	4	2	20.23	3	2.5
ZWBP014	ZWB	Zwalmbeek	107312	173473	2	1	1	1	4	89	1.75	20.17	4	4	2	20.17	3	2.5
ZWBP017	ZWB	Zwalmbeek	107421	173519	2	1	1	1	4	89	1.75	32.07	4	4	2	32.07	3	2.5
